[{"name_ru": "\u0410\u0432\u0434\u0435\u0435\u0432\u043a\u0430", "name_uk": "\u0410\u0432\u0434\u0456\u0457\u0432\u043a\u0430", "name_en": "Avdiivka", "region_ru": "\u0414\u043e\u043d\u0435\u0446\u043a\u0430\u044f \u043e\u0431\u043b\u0430\u0441\u0442\u044c", "region_uk": "\u0414\u043e\u043d\u0435\u0446\u044c\u043a\u0430 \u043e\u0431\u043b\u0430\u0441\u0442\u044c", "region_en": "Donetsk region"}, {"name_ru": "\u0410\u043b\u0435\u043a\u0441\u0430\u043d\u0434\u0440\u0438\u044f", "name_uk": "\u041e\u043b\u0435\u043a\u0441\u0430\u043d\u0434\u0440\u0456\u044f", "name_en": "Alexandria", "region_ru": "\u041a\u0438\u0440\u043e\u0432\u043e\u0433\u0440\u0430\u0434\u0441\u043a\u0430\u044f \u043e\u0431\u043b\u0430\u0441\u0442\u044c", "region_uk": "\u041a\u0456\u0440\u043e\u0432\u043e\u0433\u0440\u0430\u0434\u0441\u044c\u043a\u0430 \u043e\u0431\u043b\u0430\u0441\u0442\u044c", "region_en": "Kirovograd region"}, {"name_ru": "\u0410\u043b\u0435\u043a\u0441\u0430\u043d\u0434\u0440\u043e\u0432\u0441\u043a", "name_uk": "\u041e\u043b\u0435\u043a\u0441\u0430\u043d\u0434\u0440\u0456\u0432\u0441\u044c\u043a", "name_en": "Aleksandrovsk", "region_ru": "\u041b\u0443\u0433\u0430\u043d\u0441\u043a\u0430\u044f \u043e\u0431\u043b\u0430\u0441\u0442\u044c", "region_uk": "\u041b\u0443\u0433\u0430\u043d\u0441\u044c\u043a\u0430 \u043e\u0431\u043b\u0430\u0441\u0442\u044c", "region_en": "Lugansk region"}, {"name_ru": "\u0410\u043b\u0451\u0448\u043a\u0438", "name_uk": "\u041e\u043b\u0435\u0448\u043a\u0438", "name_en": "Alyoshka", "region_ru": "\u0425\u0435\u0440\u0441\u043e\u043d\u0441\u043a\u0430\u044f \u043e\u0431\u043b\u0430\u0441\u0442\u044c", "region_uk": "\u0425\u0435\u0440\u0441\u043e\u043d\u0441\u044c\u043a\u0430 \u043e\u0431\u043b\u0430\u0441\u0442\u044c", "region_en": "Kherson region"}, {"name_ru": "\u0410\u043b\u043c\u0430\u0437\u043d\u0430\u044f", "name_uk": "\u0410\u043b\u043c\u0430\u0437\u043d\u0430", "name_en": "Diamond", "region_ru": "\u041b\u0443\u0433\u0430\u043d\u0441\u043a\u0430\u044f \u043e\u0431\u043b\u0430\u0441\u0442\u044c", "region_uk": "\u041b\u0443\u0433\u0430\u043d\u0441\u044c\u043a\u0430 \u043e\u0431\u043b\u0430\u0441\u0442\u044c", "region_en": "Lugansk region"}, {"name_ru": "\u0410\u043b\u0443\u043f\u043a\u0430", "name_uk": "\u0410\u043b\u0443\u043f\u043a\u0430", "name_en": "Alupka", "region_ru": "\u0410\u0432\u0442\u043e\u043d\u043e\u043c\u043d\u0430\u044f \u0420\u0435\u0441\u043f\u0443\u0431\u043b\u0438\u043a\u0430 \u041a\u0440\u044b\u043c", "region_uk": "\u0410\u0432\u0442\u043e\u043d\u043e\u043c\u043d\u0430 \u0420\u0435\u0441\u043f\u0443\u0431\u043b\u0456\u043a\u0430 \u041a\u0440\u0438\u043c", "region_en": "Autonomous Republic of Crimea"}, {"name_ru": "\u0410\u043b\u0443\u0448\u0442\u0430", "name_uk": "\u0410\u043b\u0443\u0448\u0442\u0430", "name_en": "Alushta", "region_ru": "\u0410\u0432\u0442\u043e\u043d\u043e\u043c\u043d\u0430\u044f \u0420\u0435\u0441\u043f\u0443\u0431\u043b\u0438\u043a\u0430 \u041a\u0440\u044b\u043c", "region_uk": "\u0410\u0432\u0442\u043e\u043d\u043e\u043c\u043d\u0430 \u0420\u0435\u0441\u043f\u0443\u0431\u043b\u0456\u043a\u0430 \u041a\u0440\u0438\u043c", "region_en": "Autonomous Republic of Crimea"}, {"name_ru": "\u0410\u043b\u0447\u0435\u0432\u0441\u043a", "name_uk": "\u0410\u043b\u0447\u0435\u0432\u0441\u044c\u043a", "name_en": "Alchevsk", "region_ru": "\u041b\u0443\u0433\u0430\u043d\u0441\u043a\u0430\u044f \u043e\u0431\u043b\u0430\u0441\u0442\u044c", "region_uk": "\u041b\u0443\u0433\u0430\u043d\u0441\u044c\u043a\u0430 \u043e\u0431\u043b\u0430\u0441\u0442\u044c", "region_en": "Lugansk region"}, {"name_ru": "\u0410\u043c\u0432\u0440\u043e\u0441\u0438\u0435\u0432\u043a\u0430", "name_uk": "\u0410\u043c\u0432\u0440\u043e\u0441\u0456\u0457\u0432\u043a\u0430", "name_en": "Amvrosievka", "region_ru": "\u0414\u043e\u043d\u0435\u0446\u043a\u0430\u044f \u043e\u0431\u043b\u0430\u0441\u0442\u044c", "region_uk": "\u0414\u043e\u043d\u0435\u0446\u044c\u043a\u0430 \u043e\u0431\u043b\u0430\u0441\u0442\u044c", "region_en": "Donetsk region"}, {"name_ru": "\u0410\u043d\u0430\u043d\u044c\u0435\u0432", "name_uk": "\u0410\u043d\u0430\u043d\u044c\u0457\u0432", "name_en": "Ananiev", "region_ru": "\u041e\u0434\u0435\u0441\u0441\u043a\u0430\u044f \u043e\u0431\u043b\u0430\u0441\u0442\u044c", "region_uk": "\u041e\u0434\u0435\u0441\u044c\u043a\u0430 \u043e\u0431\u043b\u0430\u0441\u0442\u044c", "region_en": "Odessa region"}, {"name_ru": "\u0410\u043d\u0434\u0440\u0443\u0448\u0451\u0432\u043a\u0430", "name_uk": "\u0410\u043d\u0434\u0440\u0443\u0448\u0456\u0432\u043a\u0430", "name_en": "Andrushevka", "region_ru": "\u0416\u0438\u0442\u043e\u043c\u0438\u0440\u0441\u043a\u0430\u044f \u043e\u0431\u043b\u0430\u0441\u0442\u044c", "region_uk": "\u0416\u0438\u0442\u043e\u043c\u0438\u0440\u0441\u044c\u043a\u0430 \u043e\u0431\u043b\u0430\u0441\u0442\u044c", "region_en": "Zhytomyr Oblast"}, {"name_ru": "\u0410\u043d\u0442\u0440\u0430\u0446\u0438\u0442", "name_uk": "\u0410\u043d\u0442\u0440\u0430\u0446\u0438\u0442", "name_en": "Anthracite", "region_ru": "\u041b\u0443\u0433\u0430\u043d\u0441\u043a\u0430\u044f \u043e\u0431\u043b\u0430\u0441\u0442\u044c", "region_uk": "\u041b\u0443\u0433\u0430\u043d\u0441\u044c\u043a\u0430 \u043e\u0431\u043b\u0430\u0441\u0442\u044c", "region_en": "Lugansk region"}, {"name_ru": "\u0410\u043f\u043e\u0441\u0442\u043e\u043b\u043e\u0432\u043e", "name_uk": "\u0410\u043f\u043e\u0441\u0442\u043e\u043b\u043e\u0432\u0435", "name_en": "Apostolovo", "region_ru": "\u0414\u043d\u0435\u043f\u0440\u043e\u043f\u0435\u0442\u0440\u043e\u0432\u0441\u043a\u0430\u044f \u043e\u0431\u043b\u0430\u0441\u0442\u044c", "region_uk": "\u0414\u043d\u0456\u043f\u0440\u043e\u043f\u0435\u0442\u0440\u043e\u0432\u0441\u044c\u043a\u0430 \u043e\u0431\u043b\u0430\u0441\u0442\u044c", "region_en": "Dnipropetrovsk region"}, {"name_ru": "\u0410\u0440\u043c\u044f\u043d\u0441\u043a", "name_uk": "\u0410\u0440\u043c\u044f\u043d\u0441\u044c\u043a", "name_en": "Armyansk", "region_ru": "\u0410\u0432\u0442\u043e\u043d\u043e\u043c\u043d\u0430\u044f \u0420\u0435\u0441\u043f\u0443\u0431\u043b\u0438\u043a\u0430 \u041a\u0440\u044b\u043c", "region_uk": "\u0410\u0432\u0442\u043e\u043d\u043e\u043c\u043d\u0430 \u0420\u0435\u0441\u043f\u0443\u0431\u043b\u0456\u043a\u0430 \u041a\u0440\u0438\u043c", "region_en": "Autonomous Republic of Crimea"}, {"name_ru": "\u0410\u0440\u0446\u0438\u0437", "name_uk": "\u0410\u0440\u0446\u0438\u0437", "name_en": "Artsyz", "region_ru": "\u041e\u0434\u0435\u0441\u0441\u043a\u0430\u044f \u043e\u0431\u043b\u0430\u0441\u0442\u044c", "region_uk": "\u041e\u0434\u0435\u0441\u044c\u043a\u0430 \u043e\u0431\u043b\u0430\u0441\u0442\u044c", "region_en": "Odessa region"}, {"name_ru": "\u0410\u0445\u0442\u044b\u0440\u043a\u0430", "name_uk": "\u041e\u0445\u0442\u0438\u0440\u043a\u0430", "name_en": "Akhtyrka", "region_ru": "\u0421\u0443\u043c\u0441\u043a\u0430\u044f \u043e\u0431\u043b\u0430\u0441\u0442\u044c", "region_uk": "\u0421\u0443\u043c\u0441\u044c\u043a\u0430 \u043e\u0431\u043b\u0430\u0441\u0442\u044c", "region_en": "Sumy region"}, {"name_ru": "\u0411\u0430\u043b\u0430\u043a\u043b\u0435\u044f", "name_uk": "\u0411\u0430\u043b\u0430\u043a\u043b\u0456\u044f", "name_en": "Balakleya", "region_ru": "\u0425\u0430\u0440\u044c\u043a\u043e\u0432\u0441\u043a\u0430\u044f \u043e\u0431\u043b\u0430\u0441\u0442\u044c", "region_uk": "\u0425\u0430\u0440\u043a\u0456\u0432\u0441\u044c\u043a\u0430 \u043e\u0431\u043b\u0430\u0441\u0442\u044c", "region_en": "Kharkov region"}, {"name_ru": "\u0411\u0430\u043b\u0442\u0430", "name_uk": "\u0411\u0430\u043b\u0442\u0430", "name_en": "Balta", "region_ru": "\u041e\u0434\u0435\u0441\u0441\u043a\u0430\u044f \u043e\u0431\u043b\u0430\u0441\u0442\u044c", "region_uk": "\u041e\u0434\u0435\u0441\u044c\u043a\u0430 \u043e\u0431\u043b\u0430\u0441\u0442\u044c", "region_en": "Odessa region"}, {"name_ru": "\u0411\u0430\u0440", "name_uk": "\u0411\u0430\u0440", "name_en": "Bar", "region_ru": "\u0412\u0438\u043d\u043d\u0438\u0446\u043a\u0430\u044f \u043e\u0431\u043b\u0430\u0441\u0442\u044c", "region_uk": "\u0412\u0456\u043d\u043d\u0438\u0446\u044c\u043a\u0430 \u043e\u0431\u043b\u0430\u0441\u0442\u044c", "region_en": "Vinnytsia region"}, {"name_ru": "\u0411\u0430\u0440\u0430\u043d\u043e\u0432\u043a\u0430", "name_uk": "\u0411\u0430\u0440\u0430\u043d\u0456\u0432\u043a\u0430", "name_en": "Baranovka", "region_ru": "\u0416\u0438\u0442\u043e\u043c\u0438\u0440\u0441\u043a\u0430\u044f \u043e\u0431\u043b\u0430\u0441\u0442\u044c", "region_uk": "\u0416\u0438\u0442\u043e\u043c\u0438\u0440\u0441\u044c\u043a\u0430 \u043e\u0431\u043b\u0430\u0441\u0442\u044c", "region_en": "Zhytomyr Oblast"}, {"name_ru": "\u0411\u0430\u0440\u0432\u0435\u043d\u043a\u043e\u0432\u043e", "name_uk": "\u0411\u0430\u0440\u0432\u0456\u043d\u043a\u043e\u0432\u0435", "name_en": "Barvenkovo", "region_ru": "\u0425\u0430\u0440\u044c\u043a\u043e\u0432\u0441\u043a\u0430\u044f \u043e\u0431\u043b\u0430\u0441\u0442\u044c", "region_uk": "\u0425\u0430\u0440\u043a\u0456\u0432\u0441\u044c\u043a\u0430 \u043e\u0431\u043b\u0430\u0441\u0442\u044c", "region_en": "Kharkov region"}, {"name_ru": "\u0411\u0430\u0442\u0443\u0440\u0438\u043d", "name_uk": "\u0411\u0430\u0442\u0443\u0440\u0438\u043d", "name_en": "Baturin", "region_ru": "\u0427\u0435\u0440\u043d\u0438\u0433\u043e\u0432\u0441\u043a\u0430\u044f \u043e\u0431\u043b\u0430\u0441\u0442\u044c", "region_uk": "\u0427\u0435\u0440\u043d\u0456\u0433\u0456\u0432\u0441\u044c\u043a\u0430 \u043e\u0431\u043b\u0430\u0441\u0442\u044c", "region_en": "Chernihiv region"}, {"name_ru": "\u0411\u0430\u0445\u043c\u0430\u0447", "name_uk": "\u0411\u0430\u0445\u043c\u0430\u0447", "name_en": "bakhmach", "region_ru": "\u0427\u0435\u0440\u043d\u0438\u0433\u043e\u0432\u0441\u043a\u0430\u044f \u043e\u0431\u043b\u0430\u0441\u0442\u044c", "region_uk": "\u0427\u0435\u0440\u043d\u0456\u0433\u0456\u0432\u0441\u044c\u043a\u0430 \u043e\u0431\u043b\u0430\u0441\u0442\u044c", "region_en": "Chernihiv region"}, {"name_ru": "\u0411\u0430\u0445\u043c\u0443\u0442", "name_uk": "\u0411\u0430\u0445\u043c\u0443\u0442", "name_en": "Bahmut", "region_ru": "\u0414\u043e\u043d\u0435\u0446\u043a\u0430\u044f \u043e\u0431\u043b\u0430\u0441\u0442\u044c", "region_uk": "\u0414\u043e\u043d\u0435\u0446\u044c\u043a\u0430 \u043e\u0431\u043b\u0430\u0441\u0442\u044c", "region_en": "Donetsk region"}, {"name_ru": "\u0411\u0430\u0445\u0447\u0438\u0441\u0430\u0440\u0430\u0439", "name_uk": "\u0411\u0430\u0445\u0447\u0438\u0441\u0430\u0440\u0430\u0439", "name_en": "Bakhchisaray", "region_ru": "\u0410\u0432\u0442\u043e\u043d\u043e\u043c\u043d\u0430\u044f \u0420\u0435\u0441\u043f\u0443\u0431\u043b\u0438\u043a\u0430 \u041a\u0440\u044b\u043c", "region_uk": "\u0410\u0432\u0442\u043e\u043d\u043e\u043c\u043d\u0430 \u0420\u0435\u0441\u043f\u0443\u0431\u043b\u0456\u043a\u0430 \u041a\u0440\u0438\u043c", "region_en": "Autonomous Republic of Crimea"}, {"name_ru": "\u0411\u0430\u0448\u0442\u0430\u043d\u043a\u0430", "name_uk": "\u0411\u0430\u0448\u0442\u0430\u043d\u043a\u0430", "name_en": "Bashtanka", "region_ru": "\u041d\u0438\u043a\u043e\u043b\u0430\u0435\u0432\u0441\u043a\u0430\u044f \u043e\u0431\u043b\u0430\u0441\u0442\u044c", "region_uk": "\u041c\u0438\u043a\u043e\u043b\u0430\u0457\u0432\u0441\u044c\u043a\u0430 \u043e\u0431\u043b\u0430\u0441\u0442\u044c", "region_en": "Nikolaevkskaya area"}, {"name_ru": "\u0411\u0435\u043b\u0430\u044f \u0426\u0435\u0440\u043a\u043e\u0432\u044c", "name_uk": "\u0411\u0456\u043b\u0430 \u0426\u0435\u0440\u043a\u0432\u0430", "name_en": "White church", "region_ru": "\u041a\u0438\u0435\u0432\u0441\u043a\u0430\u044f \u043e\u0431\u043b\u0430\u0441\u0442\u044c", "region_uk": "\u041a\u0438\u0457\u0432\u0441\u044c\u043a\u0430 \u043e\u0431\u043b\u0430\u0441\u0442\u044c", "region_en": "Kyiv region"}, {"name_ru": "\u0411\u0435\u043b\u0433\u043e\u0440\u043e\u0434-\u0414\u043d\u0435\u0441\u0442\u0440\u043e\u0432\u0441\u043a\u0438\u0439", "name_uk": "\u0411\u0456\u043b\u0433\u043e\u0440\u043e\u0434-\u0414\u043d\u0456\u0441\u0442\u0440\u043e\u0432\u0441\u044c\u043a\u0438\u0439", "name_en": "Belgorod-Dnestrovsky", "region_ru": "\u041e\u0434\u0435\u0441\u0441\u043a\u0430\u044f \u043e\u0431\u043b\u0430\u0441\u0442\u044c", "region_uk": "\u041e\u0434\u0435\u0441\u044c\u043a\u0430 \u043e\u0431\u043b\u0430\u0441\u0442\u044c", "region_en": "Odessa region"}, {"name_ru": "\u0411\u0435\u043b\u0437", "name_uk": "\u0411\u0435\u043b\u0437", "name_en": "Belz", "region_ru": "\u041b\u044c\u0432\u043e\u0432\u0441\u043a\u0430\u044f \u043e\u0431\u043b\u0430\u0441\u0442\u044c", "region_uk": "\u041b\u044c\u0432\u0456\u0432\u0441\u044c\u043a\u0430 \u043e\u0431\u043b\u0430\u0441\u0442\u044c", "region_en": "Lviv region"}, {"name_ru": "\u0411\u0435\u043b\u0438\u0446\u043a\u043e\u0435", "name_uk": "\u0411\u0456\u043b\u0438\u0446\u044c\u043a\u0435", "name_en": "Belitskoye", "region_ru": "\u0414\u043e\u043d\u0435\u0446\u043a\u0430\u044f \u043e\u0431\u043b\u0430\u0441\u0442\u044c", "region_uk": "\u0414\u043e\u043d\u0435\u0446\u044c\u043a\u0430 \u043e\u0431\u043b\u0430\u0441\u0442\u044c", "region_en": "Donetsk region"}, {"name_ru": "\u0411\u0435\u043b\u043e\u0433\u043e\u0440\u0441\u043a", "name_uk": "\u0411\u0456\u043b\u043e\u0433\u0456\u0440\u0441\u044c\u043a", "name_en": "Belogorsk", "region_ru": "\u0410\u0432\u0442\u043e\u043d\u043e\u043c\u043d\u0430\u044f \u0420\u0435\u0441\u043f\u0443\u0431\u043b\u0438\u043a\u0430 \u041a\u0440\u044b\u043c", "region_uk": "\u0410\u0432\u0442\u043e\u043d\u043e\u043c\u043d\u0430 \u0420\u0435\u0441\u043f\u0443\u0431\u043b\u0456\u043a\u0430 \u041a\u0440\u0438\u043c", "region_en": "Autonomous Republic of Crimea"}, {"name_ru": "\u0411\u0435\u043b\u043e\u0437\u0451\u0440\u0441\u043a\u043e\u0435", "name_uk": "\u0411\u0456\u043b\u043e\u0437\u0435\u0440\u0441\u044c\u043a\u0435", "name_en": "Belozerskoe", "region_ru": "\u0414\u043e\u043d\u0435\u0446\u043a\u0430\u044f \u043e\u0431\u043b\u0430\u0441\u0442\u044c", "region_uk": "\u0414\u043e\u043d\u0435\u0446\u044c\u043a\u0430 \u043e\u0431\u043b\u0430\u0441\u0442\u044c", "region_en": "Donetsk region"}, {"name_ru": "\u0411\u0435\u043b\u043e\u043f\u043e\u043b\u044c\u0435", "name_uk": "\u0411\u0456\u043b\u043e\u043f\u0456\u043b\u043b\u044f", "name_en": "Belopolye", "region_ru": "\u0421\u0443\u043c\u0441\u043a\u0430\u044f \u043e\u0431\u043b\u0430\u0441\u0442\u044c", "region_uk": "\u0421\u0443\u043c\u0441\u044c\u043a\u0430 \u043e\u0431\u043b\u0430\u0441\u0442\u044c", "region_en": "Sumy region"}, {"name_ru": "\u0411\u0435\u043b\u044f\u0435\u0432\u043a\u0430", "name_uk": "\u0411\u0456\u043b\u044f\u0457\u0432\u043a\u0430", "name_en": "Belyaevka", "region_ru": "\u041e\u0434\u0435\u0441\u0441\u043a\u0430\u044f \u043e\u0431\u043b\u0430\u0441\u0442\u044c", "region_uk": "\u041e\u0434\u0435\u0441\u044c\u043a\u0430 \u043e\u0431\u043b\u0430\u0441\u0442\u044c", "region_en": "Odessa region"}, {"name_ru": "\u0411\u0435\u0440\u0434\u0438\u0447\u0435\u0432", "name_uk": "\u0411\u0435\u0440\u0434\u0438\u0447\u0456\u0432", "name_en": "Berdichev", "region_ru": "\u0416\u0438\u0442\u043e\u043c\u0438\u0440\u0441\u043a\u0430\u044f \u043e\u0431\u043b\u0430\u0441\u0442\u044c", "region_uk": "\u0416\u0438\u0442\u043e\u043c\u0438\u0440\u0441\u044c\u043a\u0430 \u043e\u0431\u043b\u0430\u0441\u0442\u044c", "region_en": "Zhytomyr Oblast"}, {"name_ru": "\u0411\u0435\u0440\u0434\u044f\u043d\u0441\u043a", "name_uk": "\u0411\u0435\u0440\u0434\u044f\u043d\u0441\u044c\u043a", "name_en": "Berdyansk", "region_ru": "\u0417\u0430\u043f\u043e\u0440\u043e\u0436\u0441\u043a\u0430\u044f \u043e\u0431\u043b\u0430\u0441\u0442\u044c", "region_uk": "\u0417\u0430\u043f\u043e\u0440\u0456\u0437\u044c\u043a\u0430 \u043e\u0431\u043b\u0430\u0441\u0442\u044c", "region_en": "Zaporozhye region"}, {"name_ru": "\u0411\u0435\u0440\u0435\u0433\u043e\u0432\u043e", "name_uk": "\u0411\u0435\u0440\u0435\u0433\u043e\u0432\u0435", "name_en": "Berehove", "region_ru": "\u0417\u0430\u043a\u0430\u0440\u043f\u0430\u0442\u0441\u043a\u0430\u044f \u043e\u0431\u043b\u0430\u0441\u0442\u044c", "region_uk": "\u0417\u0430\u043a\u0430\u0440\u043f\u0430\u0442\u0441\u044c\u043a\u0430 \u043e\u0431\u043b\u0430\u0441\u0442\u044c", "region_en": "Transcarpathian region"}, {"name_ru": "\u0411\u0435\u0440\u0435\u0436\u0430\u043d\u044b", "name_uk": "\u0411\u0435\u0440\u0435\u0436\u0430\u043d\u0438", "name_en": "Berezhany", "region_ru": "\u0422\u0435\u0440\u043d\u043e\u043f\u043e\u043b\u044c\u0441\u043a\u0430\u044f \u043e\u0431\u043b\u0430\u0441\u0442\u044c", "region_uk": "\u0422\u0435\u0440\u043d\u043e\u043f\u0456\u043b\u044c\u0441\u044c\u043a\u0430 \u043e\u0431\u043b\u0430\u0441\u0442\u044c", "region_en": "Ternopil region"}, {"name_ru": "\u0411\u0435\u0440\u0435\u0437\u0430\u043d\u044c", "name_uk": "\u0411\u0435\u0440\u0435\u0437\u0430\u043d\u044c", "name_en": "Berezan", "region_ru": "\u041a\u0438\u0435\u0432\u0441\u043a\u0430\u044f \u043e\u0431\u043b\u0430\u0441\u0442\u044c", "region_uk": "\u041a\u0438\u0457\u0432\u0441\u044c\u043a\u0430 \u043e\u0431\u043b\u0430\u0441\u0442\u044c", "region_en": "Kyiv region"}, {"name_ru": "\u0411\u0435\u0440\u0435\u0437\u043e\u0432\u043a\u0430", "name_uk": "\u0411\u0435\u0440\u0435\u0437\u0456\u0432\u043a\u0430", "name_en": "Berezovka", "region_ru": "\u041e\u0434\u0435\u0441\u0441\u043a\u0430\u044f \u043e\u0431\u043b\u0430\u0441\u0442\u044c", "region_uk": "\u041e\u0434\u0435\u0441\u044c\u043a\u0430 \u043e\u0431\u043b\u0430\u0441\u0442\u044c", "region_en": "Odessa region"}, {"name_ru": "\u0411\u0435\u0440\u0435\u0437\u043d\u043e", "name_uk": "\u0411\u0435\u0440\u0435\u0437\u043d\u0435", "name_en": "Berezno", "region_ru": "\u0420\u043e\u0432\u043d\u0435\u043d\u0441\u043a\u0430\u044f \u043e\u0431\u043b\u0430\u0441\u0442\u044c", "region_uk": "\u0420\u0456\u0432\u043d\u0435\u043d\u0441\u044c\u043a\u0430 \u043e\u0431\u043b\u0430\u0441\u0442\u044c", "region_en": "Rivne region"}, {"name_ru": "\u0411\u0435\u0440\u0435\u0441\u0442\u0435\u0447\u043a\u043e", "name_uk": "\u0411\u0435\u0440\u0435\u0441\u0442\u0435\u0447\u043a\u043e", "name_en": "Berestechko", "region_ru": "\u0412\u043e\u043b\u044b\u043d\u0441\u043a\u0430\u044f \u043e\u0431\u043b\u0430\u0441\u0442\u044c", "region_uk": "\u0412\u043e\u043b\u0438\u043d\u0441\u044c\u043a\u0430 \u043e\u0431\u043b\u0430\u0441\u0442\u044c", "region_en": "Volyn region"}, {"name_ru": "\u0411\u0435\u0440\u0438\u0441\u043b\u0430\u0432", "name_uk": "\u0411\u0435\u0440\u0438\u0441\u043b\u0430\u0432", "name_en": "Berislav", "region_ru": "\u0425\u0435\u0440\u0441\u043e\u043d\u0441\u043a\u0430\u044f \u043e\u0431\u043b\u0430\u0441\u0442\u044c", "region_uk": "\u0425\u0435\u0440\u0441\u043e\u043d\u0441\u044c\u043a\u0430 \u043e\u0431\u043b\u0430\u0441\u0442\u044c", "region_en": "Kherson region"}, {"name_ru": "\u0411\u0435\u0440\u0448\u0430\u0434\u044c", "name_uk": "\u0411\u0435\u0440\u0448\u0430\u0434\u044c", "name_en": "Bershad", "region_ru": "\u0412\u0438\u043d\u043d\u0438\u0446\u043a\u0430\u044f \u043e\u0431\u043b\u0430\u0441\u0442\u044c", "region_uk": "\u0412\u0456\u043d\u043d\u0438\u0446\u044c\u043a\u0430 \u043e\u0431\u043b\u0430\u0441\u0442\u044c", "region_en": "Vinnytsia region"}, {"name_ru": "\u0411\u043b\u0430\u0433\u043e\u0432\u0435\u0449\u0435\u043d\u0441\u043a\u043e\u0435", "name_uk": "\u0411\u043b\u0430\u0433\u043e\u0432\u0456\u0449\u0435\u043d\u0441\u044c\u043a\u0435", "name_en": "Blagoveshchenskoe", "region_ru": "\u041a\u0438\u0440\u043e\u0432\u043e\u0433\u0440\u0430\u0434\u0441\u043a\u0430\u044f \u043e\u0431\u043b\u0430\u0441\u0442\u044c", "region_uk": "\u041a\u0456\u0440\u043e\u0432\u043e\u0433\u0440\u0430\u0434\u0441\u044c\u043a\u0430 \u043e\u0431\u043b\u0430\u0441\u0442\u044c", "region_en": "Kirovograd region"}, {"name_ru": "\u0411\u043e\u0431\u0440\u0438\u043d\u0435\u0446", "name_uk": "\u0411\u043e\u0431\u0440\u0438\u043d\u0435\u0446\u044c", "name_en": "Bobrynets", "region_ru": "\u041a\u0438\u0440\u043e\u0432\u043e\u0433\u0440\u0430\u0434\u0441\u043a\u0430\u044f \u043e\u0431\u043b\u0430\u0441\u0442\u044c", "region_uk": "\u041a\u0456\u0440\u043e\u0432\u043e\u0433\u0440\u0430\u0434\u0441\u044c\u043a\u0430 \u043e\u0431\u043b\u0430\u0441\u0442\u044c", "region_en": "Kirovograd region"}, {"name_ru": "\u0411\u043e\u0431\u0440\u043a\u0430", "name_uk": "\u0411\u0456\u0431\u0440\u043a\u0430", "name_en": "beaver", "region_ru": "\u041b\u044c\u0432\u043e\u0432\u0441\u043a\u0430\u044f \u043e\u0431\u043b\u0430\u0441\u0442\u044c", "region_uk": "\u041b\u044c\u0432\u0456\u0432\u0441\u044c\u043a\u0430 \u043e\u0431\u043b\u0430\u0441\u0442\u044c", "region_en": "Lviv region"}, {"name_ru": "\u0411\u043e\u0431\u0440\u043e\u0432\u0438\u0446\u0430", "name_uk": "\u0411\u043e\u0431\u0440\u043e\u0432\u0438\u0446\u044f", "name_en": "Bobrovitsa", "region_ru": "\u0427\u0435\u0440\u043d\u0438\u0433\u043e\u0432\u0441\u043a\u0430\u044f \u043e\u0431\u043b\u0430\u0441\u0442\u044c", "region_uk": "\u0427\u0435\u0440\u043d\u0456\u0433\u0456\u0432\u0441\u044c\u043a\u0430 \u043e\u0431\u043b\u0430\u0441\u0442\u044c", "region_en": "Chernihiv region"}, {"name_ru": "\u0411\u043e\u0433\u043e\u0434\u0443\u0445\u043e\u0432", "name_uk": "\u0411\u043e\u0433\u043e\u0434\u0443\u0445\u0456\u0432", "name_en": "Bogodukhov", "region_ru": "\u0425\u0430\u0440\u044c\u043a\u043e\u0432\u0441\u043a\u0430\u044f \u043e\u0431\u043b\u0430\u0441\u0442\u044c", "region_uk": "\u0425\u0430\u0440\u043a\u0456\u0432\u0441\u044c\u043a\u0430 \u043e\u0431\u043b\u0430\u0441\u0442\u044c", "region_en": "Kharkov region"}, {"name_ru": "\u0411\u043e\u0433\u0443\u0441\u043b\u0430\u0432", "name_uk": "\u0411\u043e\u0433\u0443\u0441\u043b\u0430\u0432", "name_en": "Boguslav", "region_ru": "\u041a\u0438\u0435\u0432\u0441\u043a\u0430\u044f \u043e\u0431\u043b\u0430\u0441\u0442\u044c", "region_uk": "\u041a\u0438\u0457\u0432\u0441\u044c\u043a\u0430 \u043e\u0431\u043b\u0430\u0441\u0442\u044c", "region_en": "Kyiv region"}, {"name_ru": "\u0411\u043e\u043a\u043e\u0432\u043e-\u0425\u0440\u0443\u0441\u0442\u0430\u043b\u044c\u043d\u043e\u0435", "name_uk": "\u0411\u043e\u043a\u043e\u0432\u043e-\u0425\u0440\u0443\u0441\u0442\u0430\u043b\u044c\u043d\u0435", "name_en": "Side-Crystal", "region_ru": "\u041b\u0443\u0433\u0430\u043d\u0441\u043a\u0430\u044f \u043e\u0431\u043b\u0430\u0441\u0442\u044c", "region_uk": "\u041b\u0443\u0433\u0430\u043d\u0441\u044c\u043a\u0430 \u043e\u0431\u043b\u0430\u0441\u0442\u044c", "region_en": "Lugansk region"}, {"name_ru": "\u0411\u043e\u043b\u0433\u0440\u0430\u0434", "name_uk": "\u0411\u043e\u043b\u0433\u0440\u0430\u0434", "name_en": "Bolgrad", "region_ru": "\u041e\u0434\u0435\u0441\u0441\u043a\u0430\u044f \u043e\u0431\u043b\u0430\u0441\u0442\u044c", "region_uk": "\u041e\u0434\u0435\u0441\u044c\u043a\u0430 \u043e\u0431\u043b\u0430\u0441\u0442\u044c", "region_en": "Odessa region"}, {"name_ru": "\u0411\u043e\u043b\u0435\u0445\u043e\u0432", "name_uk": "\u0411\u043e\u043b\u0435\u0445\u0456\u0432", "name_en": "Bolekhiv", "region_ru": "\u0418\u0432\u0430\u043d\u043e-\u0424\u0440\u0430\u043d\u043a\u043e\u0432\u0441\u043a\u0430\u044f \u043e\u0431\u043b\u0430\u0441\u0442\u044c", "region_uk": "\u0406\u0432\u0430\u043d\u043e-\u0424\u0440\u0430\u043d\u043a\u0456\u0432\u0441\u044c\u043a\u0430 \u043e\u0431\u043b\u0430\u0441\u0442\u044c", "region_en": "Ivano-Frankivsk region"}, {"name_ru": "\u0411\u043e\u0440\u0437\u043d\u0430", "name_uk": "\u0411\u043e\u0440\u0437\u043d\u0430", "name_en": "Borzna", "region_ru": "\u0427\u0435\u0440\u043d\u0438\u0433\u043e\u0432\u0441\u043a\u0430\u044f \u043e\u0431\u043b\u0430\u0441\u0442\u044c", "region_uk": "\u0427\u0435\u0440\u043d\u0456\u0433\u0456\u0432\u0441\u044c\u043a\u0430 \u043e\u0431\u043b\u0430\u0441\u0442\u044c", "region_en": "Chernihiv region"}, {"name_ru": "\u0411\u043e\u0440\u0438\u0441\u043b\u0430\u0432", "name_uk": "\u0411\u043e\u0440\u0438\u0441\u043b\u0430\u0432", "name_en": "Borislav", "region_ru": "\u041b\u044c\u0432\u043e\u0432\u0441\u043a\u0430\u044f \u043e\u0431\u043b\u0430\u0441\u0442\u044c", "region_uk": "\u041b\u044c\u0432\u0456\u0432\u0441\u044c\u043a\u0430 \u043e\u0431\u043b\u0430\u0441\u0442\u044c", "region_en": "Lviv region"}, {"name_ru": "\u0411\u043e\u0440\u0438\u0441\u043f\u043e\u043b\u044c", "name_uk": "\u0411\u043e\u0440\u0438\u0441\u043f\u0456\u043b\u044c", "name_en": "Boryspil", "region_ru": "\u041a\u0438\u0435\u0432\u0441\u043a\u0430\u044f \u043e\u0431\u043b\u0430\u0441\u0442\u044c", "region_uk": "\u041a\u0438\u0457\u0432\u0441\u044c\u043a\u0430 \u043e\u0431\u043b\u0430\u0441\u0442\u044c", "region_en": "Kyiv region"}, {"name_ru": "\u0411\u043e\u0440\u0449\u0451\u0432", "name_uk": "\u0411\u043e\u0440\u0449\u0456\u0432", "name_en": "Borschev", "region_ru": "\u0422\u0435\u0440\u043d\u043e\u043f\u043e\u043b\u044c\u0441\u043a\u0430\u044f \u043e\u0431\u043b\u0430\u0441\u0442\u044c", "region_uk": "\u0422\u0435\u0440\u043d\u043e\u043f\u0456\u043b\u044c\u0441\u044c\u043a\u0430 \u043e\u0431\u043b\u0430\u0441\u0442\u044c", "region_en": "Ternopil region"}, {"name_ru": "\u0411\u043e\u044f\u0440\u043a\u0430", "name_uk": "\u0411\u043e\u044f\u0440\u043a\u0430", "name_en": "Boyarka", "region_ru": "\u041a\u0438\u0435\u0432\u0441\u043a\u0430\u044f \u043e\u0431\u043b\u0430\u0441\u0442\u044c", "region_uk": "\u041a\u0438\u0457\u0432\u0441\u044c\u043a\u0430 \u043e\u0431\u043b\u0430\u0441\u0442\u044c", "region_en": "Kyiv region"}, {"name_ru": "\u0411\u0440\u043e\u0432\u0430\u0440\u044b", "name_uk": "\u0411\u0440\u043e\u0432\u0430\u0440\u0438", "name_en": "Brovary", "region_ru": "\u041a\u0438\u0435\u0432\u0441\u043a\u0430\u044f \u043e\u0431\u043b\u0430\u0441\u0442\u044c", "region_uk": "\u041a\u0438\u0457\u0432\u0441\u044c\u043a\u0430 \u043e\u0431\u043b\u0430\u0441\u0442\u044c", "region_en": "Kyiv region"}, {"name_ru": "\u0411\u0440\u043e\u0434\u044b", "name_uk": "\u0411\u0440\u043e\u0434\u0438", "name_en": "Brody", "region_ru": "\u041b\u044c\u0432\u043e\u0432\u0441\u043a\u0430\u044f \u043e\u0431\u043b\u0430\u0441\u0442\u044c", "region_uk": "\u041b\u044c\u0432\u0456\u0432\u0441\u044c\u043a\u0430 \u043e\u0431\u043b\u0430\u0441\u0442\u044c", "region_en": "Lviv region"}, {"name_ru": "\u0411\u0440\u044f\u043d\u043a\u0430", "name_uk": "\u0411\u0440\u044f\u043d\u043a\u0430", "name_en": "Bryanka", "region_ru": "\u041b\u0443\u0433\u0430\u043d\u0441\u043a\u0430\u044f \u043e\u0431\u043b\u0430\u0441\u0442\u044c", "region_uk": "\u041b\u0443\u0433\u0430\u043d\u0441\u044c\u043a\u0430 \u043e\u0431\u043b\u0430\u0441\u0442\u044c", "region_en": "Lugansk region"}, {"name_ru": "\u0411\u0443\u043d\u0433\u0435", "name_uk": "\u0411\u0443\u043d\u0433\u0435", "name_en": "Bunge", "region_ru": "\u0414\u043e\u043d\u0435\u0446\u043a\u0430\u044f \u043e\u0431\u043b\u0430\u0441\u0442\u044c", "region_uk": "\u0414\u043e\u043d\u0435\u0446\u044c\u043a\u0430 \u043e\u0431\u043b\u0430\u0441\u0442\u044c", "region_en": "Donetsk region"}, {"name_ru": "\u0411\u0443\u0440\u0448\u0442\u044b\u043d", "name_uk": "\u0411\u0443\u0440\u0448\u0442\u0438\u043d", "name_en": "Burshtyn", "region_ru": "\u0418\u0432\u0430\u043d\u043e-\u0424\u0440\u0430\u043d\u043a\u043e\u0432\u0441\u043a\u0430\u044f \u043e\u0431\u043b\u0430\u0441\u0442\u044c", "region_uk": "\u0406\u0432\u0430\u043d\u043e-\u0424\u0440\u0430\u043d\u043a\u0456\u0432\u0441\u044c\u043a\u0430 \u043e\u0431\u043b\u0430\u0441\u0442\u044c", "region_en": "Ivano-Frankivsk region"}, {"name_ru": "\u0411\u0443\u0440\u044b\u043d\u044c", "name_uk": "\u0411\u0443\u0440\u0438\u043d\u044c", "name_en": "Buryn", "region_ru": "\u0421\u0443\u043c\u0441\u043a\u0430\u044f \u043e\u0431\u043b\u0430\u0441\u0442\u044c", "region_uk": "\u0421\u0443\u043c\u0441\u044c\u043a\u0430 \u043e\u0431\u043b\u0430\u0441\u0442\u044c", "region_en": "Sumy region"}, {"name_ru": "\u0411\u0443\u0441\u043a", "name_uk": "\u0411\u0443\u0441\u044c\u043a", "name_en": "Busk", "region_ru": "\u041b\u044c\u0432\u043e\u0432\u0441\u043a\u0430\u044f \u043e\u0431\u043b\u0430\u0441\u0442\u044c", "region_uk": "\u041b\u044c\u0432\u0456\u0432\u0441\u044c\u043a\u0430 \u043e\u0431\u043b\u0430\u0441\u0442\u044c", "region_en": "Lviv region"}, {"name_ru": "\u0411\u0443\u0447\u0430", "name_uk": "\u0411\u0443\u0447\u0430", "name_en": "Bucha", "region_ru": "\u041a\u0438\u0435\u0432\u0441\u043a\u0430\u044f \u043e\u0431\u043b\u0430\u0441\u0442\u044c", "region_uk": "\u041a\u0438\u0457\u0432\u0441\u044c\u043a\u0430 \u043e\u0431\u043b\u0430\u0441\u0442\u044c", "region_en": "Kyiv region"}, {"name_ru": "\u0411\u0443\u0447\u0430\u0447", "name_uk": "\u0411\u0443\u0447\u0430\u0447", "name_en": "Buchach", "region_ru": "\u0422\u0435\u0440\u043d\u043e\u043f\u043e\u043b\u044c\u0441\u043a\u0430\u044f \u043e\u0431\u043b\u0430\u0441\u0442\u044c", "region_uk": "\u0422\u0435\u0440\u043d\u043e\u043f\u0456\u043b\u044c\u0441\u044c\u043a\u0430 \u043e\u0431\u043b\u0430\u0441\u0442\u044c", "region_en": "Ternopil region"}, {"name_ru": "\u0412\u0430\u043b\u043a\u0438", "name_uk": "\u0412\u0430\u043b\u043a\u0438", "name_en": "rolls", "region_ru": "\u0425\u0430\u0440\u044c\u043a\u043e\u0432\u0441\u043a\u0430\u044f \u043e\u0431\u043b\u0430\u0441\u0442\u044c", "region_uk": "\u0425\u0430\u0440\u043a\u0456\u0432\u0441\u044c\u043a\u0430 \u043e\u0431\u043b\u0430\u0441\u0442\u044c", "region_en": "Kharkov region"}, {"name_ru": "\u0412\u0430\u0440\u0430\u0448", "name_uk": "\u0412\u0430\u0440\u0430\u0448", "name_en": "Varash", "region_ru": "\u0420\u043e\u0432\u043d\u0435\u043d\u0441\u043a\u0430\u044f \u043e\u0431\u043b\u0430\u0441\u0442\u044c", "region_uk": "\u0420\u0456\u0432\u043d\u0435\u043d\u0441\u044c\u043a\u0430 \u043e\u0431\u043b\u0430\u0441\u0442\u044c", "region_en": "Rivne region"}, {"name_ru": "\u0412\u0430\u0441\u0438\u043b\u044c\u0435\u0432\u043a\u0430", "name_uk": "\u0412\u0430\u0441\u0438\u043b\u0456\u0432\u043a\u0430", "name_en": "Vasilievka", "region_ru": "\u0417\u0430\u043f\u043e\u0440\u043e\u0436\u0441\u043a\u0430\u044f \u043e\u0431\u043b\u0430\u0441\u0442\u044c", "region_uk": "\u0417\u0430\u043f\u043e\u0440\u0456\u0437\u044c\u043a\u0430 \u043e\u0431\u043b\u0430\u0441\u0442\u044c", "region_en": "Zaporozhye region"}, {"name_ru": "\u0412\u0430\u0441\u0438\u043b\u044c\u043a\u043e\u0432", "name_uk": "\u0412\u0430\u0441\u0438\u043b\u044c\u043a\u0456\u0432", "name_en": "Vasilkov", "region_ru": "\u041a\u0438\u0435\u0432\u0441\u043a\u0430\u044f \u043e\u0431\u043b\u0430\u0441\u0442\u044c", "region_uk": "\u041a\u0438\u0457\u0432\u0441\u044c\u043a\u0430 \u043e\u0431\u043b\u0430\u0441\u0442\u044c", "region_en": "Kyiv region"}, {"name_ru": "\u0412\u0430\u0442\u0443\u0442\u0438\u043d\u043e", "name_uk": "\u0412\u0430\u0442\u0443\u0442\u0456\u043d\u0435", "name_en": "Vatutino", "region_ru": "\u0427\u0435\u0440\u043a\u0430\u0441\u0441\u043a\u0430\u044f \u043e\u0431\u043b\u0430\u0441\u0442\u044c", "region_uk": "\u0427\u0435\u0440\u043a\u0430\u0441\u044c\u043a\u0430 \u043e\u0431\u043b\u0430\u0441\u0442\u044c", "region_en": "Cherkasy region"}, {"name_ru": "\u0412\u0430\u0448\u043a\u043e\u0432\u0446\u044b", "name_uk": "\u0412\u0430\u0448\u043a\u0456\u0432\u0446\u0456", "name_en": "Vashkovtsy", "region_ru": "\u0427\u0435\u0440\u043d\u043e\u0432\u0438\u0446\u043a\u0430\u044f \u043e\u0431\u043b\u0430\u0441\u0442\u044c", "region_uk": "\u0427\u0435\u0440\u043d\u0456\u0432\u0435\u0446\u044c\u043a\u0430 \u043e\u0431\u043b\u0430\u0441\u0442\u044c", "region_en": "Chernivtsi region"}, {"name_ru": "\u0412\u0435\u043b\u0438\u043a\u0438\u0435 \u041c\u043e\u0441\u0442\u044b", "name_uk": "\u0412\u0435\u043b\u0438\u043a\u0456 \u041c\u043e\u0441\u0442\u0438", "name_en": "Great Bridges", "region_ru": "\u041b\u044c\u0432\u043e\u0432\u0441\u043a\u0430\u044f \u043e\u0431\u043b\u0430\u0441\u0442\u044c", "region_uk": "\u041b\u044c\u0432\u0456\u0432\u0441\u044c\u043a\u0430 \u043e\u0431\u043b\u0430\u0441\u0442\u044c", "region_en": "Lviv region"}, {"name_ru": "\u0412\u0435\u0440\u0445\u043d\u0435\u0434\u043d\u0435\u043f\u0440\u043e\u0432\u0441\u043a", "name_uk": "\u0412\u0435\u0440\u0445\u043d\u044c\u043e\u0434\u043d\u0456\u043f\u0440\u043e\u0432\u0441\u044c\u043a", "name_en": "Verkhnedneprovsk", "region_ru": "\u0414\u043d\u0435\u043f\u0440\u043e\u043f\u0435\u0442\u0440\u043e\u0432\u0441\u043a\u0430\u044f \u043e\u0431\u043b\u0430\u0441\u0442\u044c", "region_uk": "\u0414\u043d\u0456\u043f\u0440\u043e\u043f\u0435\u0442\u0440\u043e\u0432\u0441\u044c\u043a\u0430 \u043e\u0431\u043b\u0430\u0441\u0442\u044c", "region_en": "Dnipropetrovsk region"}, {"name_ru": "\u0412\u0435\u0440\u0445\u043e\u0432\u0446\u0435\u0432\u043e", "name_uk": "\u0412\u0435\u0440\u0445\u0456\u0432\u0446\u0435\u0432\u0435", "name_en": "Verkhovtsevo", "region_ru": "\u0414\u043d\u0435\u043f\u0440\u043e\u043f\u0435\u0442\u0440\u043e\u0432\u0441\u043a\u0430\u044f \u043e\u0431\u043b\u0430\u0441\u0442\u044c", "region_uk": "\u0414\u043d\u0456\u043f\u0440\u043e\u043f\u0435\u0442\u0440\u043e\u0432\u0441\u044c\u043a\u0430 \u043e\u0431\u043b\u0430\u0441\u0442\u044c", "region_en": "Dnipropetrovsk region"}, {"name_ru": "\u0412\u0438\u0436\u043d\u0438\u0446\u0430", "name_uk": "\u0412\u0438\u0436\u043d\u0438\u0446\u044f", "name_en": "Vizhnitsa", "region_ru": "\u0427\u0435\u0440\u043d\u043e\u0432\u0438\u0446\u043a\u0430\u044f \u043e\u0431\u043b\u0430\u0441\u0442\u044c", "region_uk": "\u0427\u0435\u0440\u043d\u0456\u0432\u0435\u0446\u044c\u043a\u0430 \u043e\u0431\u043b\u0430\u0441\u0442\u044c", "region_en": "Chernivtsi region"}, {"name_ru": "\u0412\u0438\u043b\u043a\u043e\u0432\u043e", "name_uk": "\u0412\u0438\u043b\u043a\u043e\u0432\u0435", "name_en": "Vilkovo", "region_ru": "\u041e\u0434\u0435\u0441\u0441\u043a\u0430\u044f \u043e\u0431\u043b\u0430\u0441\u0442\u044c", "region_uk": "\u041e\u0434\u0435\u0441\u044c\u043a\u0430 \u043e\u0431\u043b\u0430\u0441\u0442\u044c", "region_en": "Odessa region"}, {"name_ru": "\u0412\u0438\u043d\u043d\u0438\u043a\u0438", "name_uk": "\u0412\u0438\u043d\u043d\u0438\u043a\u0438", "name_en": "Vinniki", "region_ru": "\u041b\u044c\u0432\u043e\u0432\u0441\u043a\u0430\u044f \u043e\u0431\u043b\u0430\u0441\u0442\u044c", "region_uk": "\u041b\u044c\u0432\u0456\u0432\u0441\u044c\u043a\u0430 \u043e\u0431\u043b\u0430\u0441\u0442\u044c", "region_en": "Lviv region"}, {"name_ru": "\u0412\u0438\u043d\u043d\u0438\u0446\u0430", "name_uk": "\u0412\u0456\u043d\u043d\u0438\u0446\u044f", "name_en": "Vinnitsa", "region_ru": "\u0412\u0438\u043d\u043d\u0438\u0446\u043a\u0430\u044f \u043e\u0431\u043b\u0430\u0441\u0442\u044c", "region_uk": "\u0412\u0456\u043d\u043d\u0438\u0446\u044c\u043a\u0430 \u043e\u0431\u043b\u0430\u0441\u0442\u044c", "region_en": "Vinnytsia region"}, {"name_ru": "\u0412\u0438\u043d\u043e\u0433\u0440\u0430\u0434\u043e\u0432", "name_uk": "\u0412\u0438\u043d\u043e\u0433\u0440\u0430\u0434\u0456\u0432", "name_en": "Vinogradov", "region_ru": "\u0417\u0430\u043a\u0430\u0440\u043f\u0430\u0442\u0441\u043a\u0430\u044f \u043e\u0431\u043b\u0430\u0441\u0442\u044c", "region_uk": "\u0417\u0430\u043a\u0430\u0440\u043f\u0430\u0442\u0441\u044c\u043a\u0430 \u043e\u0431\u043b\u0430\u0441\u0442\u044c", "region_en": "Transcarpathian region"}, {"name_ru": "\u0412\u0438\u0448\u043d\u0451\u0432\u043e\u0435", "name_uk": "\u0412\u0438\u0448\u043d\u0435\u0432\u0435", "name_en": "Cherry", "region_ru": "\u041a\u0438\u0435\u0432\u0441\u043a\u0430\u044f \u043e\u0431\u043b\u0430\u0441\u0442\u044c", "region_uk": "\u041a\u0438\u0457\u0432\u0441\u044c\u043a\u0430 \u043e\u0431\u043b\u0430\u0441\u0442\u044c", "region_en": "Kyiv region"}, {"name_ru": "\u0412\u043b\u0430\u0434\u0438\u043c\u0438\u0440-\u0412\u043e\u043b\u044b\u043d\u0441\u043a\u0438\u0439", "name_uk": "\u0412\u043e\u043b\u043e\u0434\u0438\u043c\u0438\u0440-\u0412\u043e\u043b\u0438\u043d\u0441\u044c\u043a\u0438\u0439", "name_en": "Vladimir-Volynsky", "region_ru": "\u0412\u043e\u043b\u044b\u043d\u0441\u043a\u0430\u044f \u043e\u0431\u043b\u0430\u0441\u0442\u044c", "region_uk": "\u0412\u043e\u043b\u0438\u043d\u0441\u044c\u043a\u0430 \u043e\u0431\u043b\u0430\u0441\u0442\u044c", "region_en": "Volyn region"}, {"name_ru": "\u0412\u043e\u0437\u043d\u0435\u0441\u0435\u043d\u043e\u0432\u043a\u0430", "name_uk": "\u0412\u043e\u0437\u043d\u0435\u0441\u0435\u043d\u0456\u0432\u043a\u0430", "name_en": "Voznesenovka", "region_ru": "\u041b\u0443\u0433\u0430\u043d\u0441\u043a\u0430\u044f \u043e\u0431\u043b\u0430\u0441\u0442\u044c", "region_uk": "\u041b\u0443\u0433\u0430\u043d\u0441\u044c\u043a\u0430 \u043e\u0431\u043b\u0430\u0441\u0442\u044c", "region_en": "Lugansk region"}, {"name_ru": "\u0412\u043e\u0437\u043d\u0435\u0441\u0435\u043d\u0441\u043a", "name_uk": "\u0412\u043e\u0437\u043d\u0435\u0441\u0435\u043d\u0441\u044c\u043a", "name_en": "Voznesensk", "region_ru": "\u041d\u0438\u043a\u043e\u043b\u0430\u0435\u0432\u0441\u043a\u0430\u044f \u043e\u0431\u043b\u0430\u0441\u0442\u044c", "region_uk": "\u041c\u0438\u043a\u043e\u043b\u0430\u0457\u0432\u0441\u044c\u043a\u0430 \u043e\u0431\u043b\u0430\u0441\u0442\u044c", "region_en": "Nikolaevkskaya area"}, {"name_ru": "\u0412\u043e\u043b\u043d\u043e\u0432\u0430\u0445\u0430", "name_uk": "\u0412\u043e\u043b\u043d\u043e\u0432\u0430\u0445\u0430", "name_en": "Volnovakha", "region_ru": "\u0414\u043e\u043d\u0435\u0446\u043a\u0430\u044f \u043e\u0431\u043b\u0430\u0441\u0442\u044c", "region_uk": "\u0414\u043e\u043d\u0435\u0446\u044c\u043a\u0430 \u043e\u0431\u043b\u0430\u0441\u0442\u044c", "region_en": "Donetsk region"}, {"name_ru": "\u0412\u043e\u043b\u043e\u0447\u0438\u0441\u043a", "name_uk": "\u0412\u043e\u043b\u043e\u0447\u0438\u0441\u044c\u043a", "name_en": "Volochisk", "region_ru": "\u0425\u043c\u0435\u043b\u044c\u043d\u0438\u0446\u043a\u0430\u044f \u043e\u0431\u043b\u0430\u0441\u0442\u044c", "region_uk": "\u0425\u043c\u0435\u043b\u044c\u043d\u0438\u0446\u044c\u043a\u0430 \u043e\u0431\u043b\u0430\u0441\u0442\u044c", "region_en": "Khmelnitsky region"}, {"name_ru": "\u0412\u043e\u043b\u0447\u0430\u043d\u0441\u043a", "name_uk": "\u0412\u043e\u0432\u0447\u0430\u043d\u0441\u044c\u043a", "name_en": "Volchansk", "region_ru": "\u0425\u0430\u0440\u044c\u043a\u043e\u0432\u0441\u043a\u0430\u044f \u043e\u0431\u043b\u0430\u0441\u0442\u044c", "region_uk": "\u0425\u0430\u0440\u043a\u0456\u0432\u0441\u044c\u043a\u0430 \u043e\u0431\u043b\u0430\u0441\u0442\u044c", "region_en": "Kharkov region"}, {"name_ru": "\u0412\u043e\u043b\u044c\u043d\u043e\u0433\u043e\u0440\u0441\u043a", "name_uk": "\u0412\u0456\u043b\u044c\u043d\u043e\u0433\u0456\u0440\u0441\u044c\u043a", "name_en": "Volnogorsk", "region_ru": "\u0414\u043d\u0435\u043f\u0440\u043e\u043f\u0435\u0442\u0440\u043e\u0432\u0441\u043a\u0430\u044f \u043e\u0431\u043b\u0430\u0441\u0442\u044c", "region_uk": "\u0414\u043d\u0456\u043f\u0440\u043e\u043f\u0435\u0442\u0440\u043e\u0432\u0441\u044c\u043a\u0430 \u043e\u0431\u043b\u0430\u0441\u0442\u044c", "region_en": "Dnipropetrovsk region"}, {"name_ru": "\u0412\u043e\u043b\u044c\u043d\u044f\u043d\u0441\u043a", "name_uk": "\u0412\u0456\u043b\u044c\u043d\u044f\u043d\u0441\u044c\u043a", "name_en": "Volnyansk", "region_ru": "\u0417\u0430\u043f\u043e\u0440\u043e\u0436\u0441\u043a\u0430\u044f \u043e\u0431\u043b\u0430\u0441\u0442\u044c", "region_uk": "\u0417\u0430\u043f\u043e\u0440\u0456\u0437\u044c\u043a\u0430 \u043e\u0431\u043b\u0430\u0441\u0442\u044c", "region_en": "Zaporozhye region"}, {"name_ru": "\u0412\u043e\u0440\u043e\u0436\u0431\u0430", "name_uk": "\u0412\u043e\u0440\u043e\u0436\u0431\u0430", "name_en": "Divination", "region_ru": "\u0421\u0443\u043c\u0441\u043a\u0430\u044f \u043e\u0431\u043b\u0430\u0441\u0442\u044c", "region_uk": "\u0421\u0443\u043c\u0441\u044c\u043a\u0430 \u043e\u0431\u043b\u0430\u0441\u0442\u044c", "region_en": "Sumy region"}, {"name_ru": "\u0412\u044b\u0448\u0433\u043e\u0440\u043e\u0434", "name_uk": "\u0412\u0438\u0448\u0433\u043e\u0440\u043e\u0434", "name_en": "Vyshhorod", "region_ru": "\u041a\u0438\u0435\u0432\u0441\u043a\u0430\u044f \u043e\u0431\u043b\u0430\u0441\u0442\u044c", "region_uk": "\u041a\u0438\u0457\u0432\u0441\u044c\u043a\u0430 \u043e\u0431\u043b\u0430\u0441\u0442\u044c", "region_en": "Kyiv region"}, {"name_ru": "\u0413\u0430\u0434\u044f\u0447", "name_uk": "\u0413\u0430\u0434\u044f\u0447", "name_en": "Gadyach", "region_ru": "\u041f\u043e\u043b\u0442\u0430\u0432\u0441\u043a\u0430\u044f \u043e\u0431\u043b\u0430\u0441\u0442\u044c", "region_uk": "\u041f\u043e\u043b\u0442\u0430\u0432\u0441\u044c\u043a\u0430 \u043e\u0431\u043b\u0430\u0441\u0442\u044c", "region_en": "Poltava region"}, {"name_ru": "\u0413\u0430\u0439\u0432\u043e\u0440\u043e\u043d", "name_uk": "\u0413\u0430\u0439\u0432\u043e\u0440\u043e\u043d", "name_en": "Guyvoron", "region_ru": "\u041a\u0438\u0440\u043e\u0432\u043e\u0433\u0440\u0430\u0434\u0441\u043a\u0430\u044f \u043e\u0431\u043b\u0430\u0441\u0442\u044c", "region_uk": "\u041a\u0456\u0440\u043e\u0432\u043e\u0433\u0440\u0430\u0434\u0441\u044c\u043a\u0430 \u043e\u0431\u043b\u0430\u0441\u0442\u044c", "region_en": "Kirovograd region"}, {"name_ru": "\u0413\u0430\u0439\u0441\u0438\u043d", "name_uk": "\u0413\u0430\u0439\u0441\u0438\u043d", "name_en": "Gysin", "region_ru": "\u0412\u0438\u043d\u043d\u0438\u0446\u043a\u0430\u044f \u043e\u0431\u043b\u0430\u0441\u0442\u044c", "region_uk": "\u0412\u0456\u043d\u043d\u0438\u0446\u044c\u043a\u0430 \u043e\u0431\u043b\u0430\u0441\u0442\u044c", "region_en": "Vinnytsia region"}, {"name_ru": "\u0413\u0430\u043b\u0438\u0447", "name_uk": "\u0413\u0430\u043b\u0438\u0447", "name_en": "Galich", "region_ru": "\u0418\u0432\u0430\u043d\u043e-\u0424\u0440\u0430\u043d\u043a\u043e\u0432\u0441\u043a\u0430\u044f \u043e\u0431\u043b\u0430\u0441\u0442\u044c", "region_uk": "\u0406\u0432\u0430\u043d\u043e-\u0424\u0440\u0430\u043d\u043a\u0456\u0432\u0441\u044c\u043a\u0430 \u043e\u0431\u043b\u0430\u0441\u0442\u044c", "region_en": "Ivano-Frankivsk region"}, {"name_ru": "\u0413\u0435\u043d\u0438\u0447\u0435\u0441\u043a", "name_uk": "\u0413\u0435\u043d\u0456\u0447\u0435\u0441\u044c\u043a", "name_en": "Genichesk", "region_ru": "\u0425\u0435\u0440\u0441\u043e\u043d\u0441\u043a\u0430\u044f \u043e\u0431\u043b\u0430\u0441\u0442\u044c", "region_uk": "\u0425\u0435\u0440\u0441\u043e\u043d\u0441\u044c\u043a\u0430 \u043e\u0431\u043b\u0430\u0441\u0442\u044c", "region_en": "Kherson region"}, {"name_ru": "\u0413\u0435\u0440\u0446\u0430", "name_uk": "\u0413\u0435\u0440\u0446\u0430", "name_en": "hertz", "region_ru": "\u0427\u0435\u0440\u043d\u043e\u0432\u0438\u0446\u043a\u0430\u044f \u043e\u0431\u043b\u0430\u0441\u0442\u044c", "region_uk": "\u0427\u0435\u0440\u043d\u0456\u0432\u0435\u0446\u044c\u043a\u0430 \u043e\u0431\u043b\u0430\u0441\u0442\u044c", "region_en": "Chernivtsi region"}, {"name_ru": "\u0413\u043b\u0438\u043d\u044f\u043d\u044b", "name_uk": "\u0413\u043b\u0438\u043d\u044f\u043d\u0438", "name_en": "Clay", "region_ru": "\u041b\u044c\u0432\u043e\u0432\u0441\u043a\u0430\u044f \u043e\u0431\u043b\u0430\u0441\u0442\u044c", "region_uk": "\u041b\u044c\u0432\u0456\u0432\u0441\u044c\u043a\u0430 \u043e\u0431\u043b\u0430\u0441\u0442\u044c", "region_en": "Lviv region"}, {"name_ru": "\u0413\u043b\u043e\u0431\u0438\u043d\u043e", "name_uk": "\u0413\u043b\u043e\u0431\u0438\u043d\u0435", "name_en": "Globino", "region_ru": "\u041f\u043e\u043b\u0442\u0430\u0432\u0441\u043a\u0430\u044f \u043e\u0431\u043b\u0430\u0441\u0442\u044c", "region_uk": "\u041f\u043e\u043b\u0442\u0430\u0432\u0441\u044c\u043a\u0430 \u043e\u0431\u043b\u0430\u0441\u0442\u044c", "region_en": "Poltava region"}, {"name_ru": "\u0413\u043b\u0443\u0445\u043e\u0432", "name_uk": "\u0413\u043b\u0443\u0445\u0456\u0432", "name_en": "Glukhov", "region_ru": "\u0421\u0443\u043c\u0441\u043a\u0430\u044f \u043e\u0431\u043b\u0430\u0441\u0442\u044c", "region_uk": "\u0421\u0443\u043c\u0441\u044c\u043a\u0430 \u043e\u0431\u043b\u0430\u0441\u0442\u044c", "region_en": "Sumy region"}, {"name_ru": "\u0413\u043d\u0438\u0432\u0430\u043d\u044c", "name_uk": "\u0413\u043d\u0456\u0432\u0430\u043d\u044c", "name_en": "rotting", "region_ru": "\u0412\u0438\u043d\u043d\u0438\u0446\u043a\u0430\u044f \u043e\u0431\u043b\u0430\u0441\u0442\u044c", "region_uk": "\u0412\u0456\u043d\u043d\u0438\u0446\u044c\u043a\u0430 \u043e\u0431\u043b\u0430\u0441\u0442\u044c", "region_en": "Vinnytsia region"}, {"name_ru": "\u0413\u043e\u043b\u0430\u044f \u041f\u0440\u0438\u0441\u0442\u0430\u043d\u044c", "name_uk": "\u0413\u043e\u043b\u0430 \u041f\u0440\u0438\u0441\u0442\u0430\u043d\u044c", "name_en": "Naked Pier", "region_ru": "\u0425\u0435\u0440\u0441\u043e\u043d\u0441\u043a\u0430\u044f \u043e\u0431\u043b\u0430\u0441\u0442\u044c", "region_uk": "\u0425\u0435\u0440\u0441\u043e\u043d\u0441\u044c\u043a\u0430 \u043e\u0431\u043b\u0430\u0441\u0442\u044c", "region_en": "Kherson region"}, {"name_ru": "\u0413\u043e\u043b\u0443\u0431\u043e\u0432\u043a\u0430(\u0443\u043a\u0440.\u0413\u043e\u043b\u0443\u0431\u0456\u0432\u043a\u0430", "name_uk": "", "name_en": "Golubovka (ukr. Golubivka", "region_ru": "\u041b\u0443\u0433\u0430\u043d\u0441\u043a\u0430\u044f \u043e\u0431\u043b\u0430\u0441\u0442\u044c", "region_uk": "\u041b\u0443\u0433\u0430\u043d\u0441\u044c\u043a\u0430 \u043e\u0431\u043b\u0430\u0441\u0442\u044c", "region_en": "Lugansk region"}, {"name_ru": "\u0413\u043e\u0440\u0438\u0448\u043d\u0438\u0435 \u041f\u043b\u0430\u0432\u043d\u0438", "name_uk": "\u0413\u043e\u0440\u0456\u0448\u043d\u0456 \u041f\u043b\u0430\u0432\u043d\u0456", "name_en": "Gorishni Plavni", "region_ru": "\u041f\u043e\u043b\u0442\u0430\u0432\u0441\u043a\u0430\u044f \u043e\u0431\u043b\u0430\u0441\u0442\u044c", "region_uk": "\u041f\u043e\u043b\u0442\u0430\u0432\u0441\u044c\u043a\u0430 \u043e\u0431\u043b\u0430\u0441\u0442\u044c", "region_en": "Poltava region"}, {"name_ru": "\u0413\u043e\u0440\u043b\u043e\u0432\u043a\u0430", "name_uk": "\u0413\u043e\u0440\u043b\u0456\u0432\u043a\u0430", "name_en": "Gorlovka", "region_ru": "\u0414\u043e\u043d\u0435\u0446\u043a\u0430\u044f \u043e\u0431\u043b\u0430\u0441\u0442\u044c", "region_uk": "\u0414\u043e\u043d\u0435\u0446\u044c\u043a\u0430 \u043e\u0431\u043b\u0430\u0441\u0442\u044c", "region_en": "Donetsk region"}, {"name_ru": "\u0413\u043e\u0440\u043d\u044f\u043a", "name_uk": "\u0413\u0456\u0440\u043d\u0438\u043a", "name_en": "Miner", "region_ru": "\u0414\u043e\u043d\u0435\u0446\u043a\u0430\u044f \u043e\u0431\u043b\u0430\u0441\u0442\u044c", "region_uk": "\u0414\u043e\u043d\u0435\u0446\u044c\u043a\u0430 \u043e\u0431\u043b\u0430\u0441\u0442\u044c", "region_en": "Donetsk region"}, {"name_ru": "\u0413\u043e\u0440\u043e\u0434\u0435\u043d\u043a\u0430", "name_uk": "\u0413\u043e\u0440\u043e\u0434\u0435\u043d\u043a\u0430", "name_en": "Horodenka", "region_ru": "\u0418\u0432\u0430\u043d\u043e-\u0424\u0440\u0430\u043d\u043a\u043e\u0432\u0441\u043a\u0430\u044f \u043e\u0431\u043b\u0430\u0441\u0442\u044c", "region_uk": "\u0406\u0432\u0430\u043d\u043e-\u0424\u0440\u0430\u043d\u043a\u0456\u0432\u0441\u044c\u043a\u0430 \u043e\u0431\u043b\u0430\u0441\u0442\u044c", "region_en": "Ivano-Frankivsk region"}, {"name_ru": "\u0413\u043e\u0440\u043e\u0434\u0438\u0449\u0435", "name_uk": "\u0413\u043e\u0440\u043e\u0434\u0438\u0449\u0435", "name_en": "Settlement", "region_ru": "\u0427\u0435\u0440\u043a\u0430\u0441\u0441\u043a\u0430\u044f \u043e\u0431\u043b\u0430\u0441\u0442\u044c", "region_uk": "\u0427\u0435\u0440\u043a\u0430\u0441\u044c\u043a\u0430 \u043e\u0431\u043b\u0430\u0441\u0442\u044c", "region_en": "Cherkasy region"}, {"name_ru": "\u0413\u043e\u0440\u043e\u0434\u043d\u044f", "name_uk": "\u0413\u043e\u0440\u043e\u0434\u043d\u044f", "name_en": "Gorodnya", "region_ru": "\u0427\u0435\u0440\u043d\u0438\u0433\u043e\u0432\u0441\u043a\u0430\u044f \u043e\u0431\u043b\u0430\u0441\u0442\u044c", "region_uk": "\u0427\u0435\u0440\u043d\u0456\u0433\u0456\u0432\u0441\u044c\u043a\u0430 \u043e\u0431\u043b\u0430\u0441\u0442\u044c", "region_en": "Chernihiv region"}, {"name_ru": "\u0413\u043e\u0440\u043e\u0434\u043e\u043a", "name_uk": "\u0413\u043e\u0440\u043e\u0434\u043e\u043a", "name_en": "Town", "region_ru": "\u041b\u044c\u0432\u043e\u0432\u0441\u043a\u0430\u044f \u043e\u0431\u043b\u0430\u0441\u0442\u044c", "region_uk": "\u041b\u044c\u0432\u0456\u0432\u0441\u044c\u043a\u0430 \u043e\u0431\u043b\u0430\u0441\u0442\u044c", "region_en": "Lviv region"}, {"name_ru": "\u0413\u043e\u0440\u043e\u0434\u043e\u043a", "name_uk": "\u0413\u043e\u0440\u043e\u0434\u043e\u043a", "name_en": "Town", "region_ru": "\u0425\u043c\u0435\u043b\u044c\u043d\u0438\u0446\u043a\u0430\u044f \u043e\u0431\u043b\u0430\u0441\u0442\u044c", "region_uk": "\u0425\u043c\u0435\u043b\u044c\u043d\u0438\u0446\u044c\u043a\u0430 \u043e\u0431\u043b\u0430\u0441\u0442\u044c", "region_en": "Khmelnitsky region"}, {"name_ru": "\u0413\u043e\u0440\u043e\u0445\u043e\u0432", "name_uk": "\u0413\u043e\u0440\u043e\u0445\u0456\u0432", "name_en": "Gorokhov", "region_ru": "\u0412\u043e\u043b\u044b\u043d\u0441\u043a\u0430\u044f \u043e\u0431\u043b\u0430\u0441\u0442\u044c", "region_uk": "\u0412\u043e\u043b\u0438\u043d\u0441\u044c\u043a\u0430 \u043e\u0431\u043b\u0430\u0441\u0442\u044c", "region_en": "Volyn region"}, {"name_ru": "\u0413\u043e\u0440\u0441\u043a\u043e\u0435", "name_uk": "\u0413\u0456\u0440\u0441\u044c\u043a\u0435", "name_en": "Gorskoe", "region_ru": "\u041b\u0443\u0433\u0430\u043d\u0441\u043a\u0430\u044f \u043e\u0431\u043b\u0430\u0441\u0442\u044c", "region_uk": "\u041b\u0443\u0433\u0430\u043d\u0441\u044c\u043a\u0430 \u043e\u0431\u043b\u0430\u0441\u0442\u044c", "region_en": "Lugansk region"}, {"name_ru": "\u0413\u0440\u0435\u0431\u0451\u043d\u043a\u0430", "name_uk": "\u0413\u0440\u0435\u0431\u0456\u043d\u043a\u0430", "name_en": "Comb", "region_ru": "\u041f\u043e\u043b\u0442\u0430\u0432\u0441\u043a\u0430\u044f \u043e\u0431\u043b\u0430\u0441\u0442\u044c", "region_uk": "\u041f\u043e\u043b\u0442\u0430\u0432\u0441\u044c\u043a\u0430 \u043e\u0431\u043b\u0430\u0441\u0442\u044c", "region_en": "Poltava region"}, {"name_ru": "\u0413\u0443\u043b\u044f\u0439\u043f\u043e\u043b\u0435", "name_uk": "\u0413\u0443\u043b\u044f\u0439\u043f\u043e\u043b\u0435", "name_en": "Gulyaipole", "region_ru": "\u0417\u0430\u043f\u043e\u0440\u043e\u0436\u0441\u043a\u0430\u044f \u043e\u0431\u043b\u0430\u0441\u0442\u044c", "region_uk": "\u0417\u0430\u043f\u043e\u0440\u0456\u0437\u044c\u043a\u0430 \u043e\u0431\u043b\u0430\u0441\u0442\u044c", "region_en": "Zaporozhye region"}, {"name_ru": "\u0414\u0435\u0431\u0430\u043b\u044c\u0446\u0435\u0432\u043e", "name_uk": "\u0414\u0435\u0431\u0430\u043b\u044c\u0446\u0435\u0432\u0435", "name_en": "Debaltseve", "region_ru": "\u0414\u043e\u043d\u0435\u0446\u043a\u0430\u044f \u043e\u0431\u043b\u0430\u0441\u0442\u044c", "region_uk": "\u0414\u043e\u043d\u0435\u0446\u044c\u043a\u0430 \u043e\u0431\u043b\u0430\u0441\u0442\u044c", "region_en": "Donetsk region"}, {"name_ru": "\u0414\u0435\u0440\u0430\u0436\u043d\u044f", "name_uk": "\u0414\u0435\u0440\u0430\u0436\u043d\u044f", "name_en": "Derazhnya", "region_ru": "\u0425\u043c\u0435\u043b\u044c\u043d\u0438\u0446\u043a\u0430\u044f \u043e\u0431\u043b\u0430\u0441\u0442\u044c", "region_uk": "\u0425\u043c\u0435\u043b\u044c\u043d\u0438\u0446\u044c\u043a\u0430 \u043e\u0431\u043b\u0430\u0441\u0442\u044c", "region_en": "Khmelnitsky region"}, {"name_ru": "\u0414\u0435\u0440\u0433\u0430\u0447\u0438", "name_uk": "\u0414\u0435\u0440\u0433\u0430\u0447\u0456", "name_en": "Dergachi", "region_ru": "\u0425\u0430\u0440\u044c\u043a\u043e\u0432\u0441\u043a\u0430\u044f \u043e\u0431\u043b\u0430\u0441\u0442\u044c", "region_uk": "\u0425\u0430\u0440\u043a\u0456\u0432\u0441\u044c\u043a\u0430 \u043e\u0431\u043b\u0430\u0441\u0442\u044c", "region_en": "Kharkov region"}, {"name_ru": "\u0414\u0436\u0430\u043d\u043a\u043e\u0439", "name_uk": "\u0414\u0436\u0430\u043d\u043a\u043e\u0439", "name_en": "Dzhankoy", "region_ru": "\u0410\u0432\u0442\u043e\u043d\u043e\u043c\u043d\u0430\u044f \u0420\u0435\u0441\u043f\u0443\u0431\u043b\u0438\u043a\u0430 \u041a\u0440\u044b\u043c", "region_uk": "\u0410\u0432\u0442\u043e\u043d\u043e\u043c\u043d\u0430 \u0420\u0435\u0441\u043f\u0443\u0431\u043b\u0456\u043a\u0430 \u041a\u0440\u0438\u043c", "region_en": "Autonomous Republic of Crimea"}, {"name_ru": "\u0414\u043d\u0435\u043f\u0440", "name_uk": "\u0414\u043d\u0456\u043f\u0440\u043e", "name_en": "Dnieper", "region_ru": "\u0414\u043d\u0435\u043f\u0440\u043e\u043f\u0435\u0442\u0440\u043e\u0432\u0441\u043a\u0430\u044f \u043e\u0431\u043b\u0430\u0441\u0442\u044c", "region_uk": "\u0414\u043d\u0456\u043f\u0440\u043e\u043f\u0435\u0442\u0440\u043e\u0432\u0441\u044c\u043a\u0430 \u043e\u0431\u043b\u0430\u0441\u0442\u044c", "region_en": "Dnipropetrovsk region"}, {"name_ru": "\u0414\u043d\u0435\u043f\u0440\u043e\u0440\u0443\u0434\u043d\u043e\u0435", "name_uk": "\u0414\u043d\u0456\u043f\u0440\u043e\u0440\u0443\u0434\u043d\u0435", "name_en": "Dneprorudnoe", "region_ru": "\u0417\u0430\u043f\u043e\u0440\u043e\u0436\u0441\u043a\u0430\u044f \u043e\u0431\u043b\u0430\u0441\u0442\u044c", "region_uk": "\u0417\u0430\u043f\u043e\u0440\u0456\u0437\u044c\u043a\u0430 \u043e\u0431\u043b\u0430\u0441\u0442\u044c", "region_en": "Zaporozhye region"}, {"name_ru": "\u0414\u043e\u0431\u0440\u043e\u043c\u0438\u043b\u044c", "name_uk": "\u0414\u043e\u0431\u0440\u043e\u043c\u0438\u043b\u044c", "name_en": "Dobromil", "region_ru": "\u041b\u044c\u0432\u043e\u0432\u0441\u043a\u0430\u044f \u043e\u0431\u043b\u0430\u0441\u0442\u044c", "region_uk": "\u041b\u044c\u0432\u0456\u0432\u0441\u044c\u043a\u0430 \u043e\u0431\u043b\u0430\u0441\u0442\u044c", "region_en": "Lviv region"}, {"name_ru": "\u0414\u043e\u0431\u0440\u043e\u043f\u043e\u043b\u044c\u0435", "name_uk": "\u0414\u043e\u0431\u0440\u043e\u043f\u0456\u043b\u043b\u044f", "name_en": "Dobropolye", "region_ru": "\u0414\u043e\u043d\u0435\u0446\u043a\u0430\u044f \u043e\u0431\u043b\u0430\u0441\u0442\u044c", "region_uk": "\u0414\u043e\u043d\u0435\u0446\u044c\u043a\u0430 \u043e\u0431\u043b\u0430\u0441\u0442\u044c", "region_en": "Donetsk region"}, {"name_ru": "\u0414\u043e\u043a\u0443\u0447\u0430\u0435\u0432\u0441\u043a", "name_uk": "\u0414\u043e\u043a\u0443\u0447\u0430\u0454\u0432\u0441\u044c\u043a", "name_en": "Dokuchaevsk", "region_ru": "\u0414\u043e\u043d\u0435\u0446\u043a\u0430\u044f \u043e\u0431\u043b\u0430\u0441\u0442\u044c", "region_uk": "\u0414\u043e\u043d\u0435\u0446\u044c\u043a\u0430 \u043e\u0431\u043b\u0430\u0441\u0442\u044c", "region_en": "Donetsk region"}, {"name_ru": "\u0414\u043e\u043b\u0436\u0430\u043d\u0441\u043a", "name_uk": "\u0414\u043e\u0432\u0436\u0430\u043d\u0441\u044c\u043a", "name_en": "Dolzhansk", "region_ru": "\u041b\u0443\u0433\u0430\u043d\u0441\u043a\u0430\u044f \u043e\u0431\u043b\u0430\u0441\u0442\u044c", "region_uk": "\u041b\u0443\u0433\u0430\u043d\u0441\u044c\u043a\u0430 \u043e\u0431\u043b\u0430\u0441\u0442\u044c", "region_en": "Lugansk region"}, {"name_ru": "\u0414\u043e\u043b\u0438\u043d\u0430", "name_uk": "\u0414\u043e\u043b\u0438\u043d\u0430", "name_en": "Valley", "region_ru": "\u0418\u0432\u0430\u043d\u043e-\u0424\u0440\u0430\u043d\u043a\u043e\u0432\u0441\u043a\u0430\u044f \u043e\u0431\u043b\u0430\u0441\u0442\u044c", "region_uk": "\u0406\u0432\u0430\u043d\u043e-\u0424\u0440\u0430\u043d\u043a\u0456\u0432\u0441\u044c\u043a\u0430 \u043e\u0431\u043b\u0430\u0441\u0442\u044c", "region_en": "Ivano-Frankivsk region"}, {"name_ru": "\u0414\u043e\u043b\u0438\u043d\u0441\u043a\u0430\u044f", "name_uk": "\u0414\u043e\u043b\u0438\u043d\u0441\u044c\u043a\u0430", "name_en": "Dolinskaya", "region_ru": "\u041a\u0438\u0440\u043e\u0432\u043e\u0433\u0440\u0430\u0434\u0441\u043a\u0430\u044f \u043e\u0431\u043b\u0430\u0441\u0442\u044c", "region_uk": "\u041a\u0456\u0440\u043e\u0432\u043e\u0433\u0440\u0430\u0434\u0441\u044c\u043a\u0430 \u043e\u0431\u043b\u0430\u0441\u0442\u044c", "region_en": "Kirovograd region"}, {"name_ru": "\u0414\u043e\u043d\u0435\u0446\u043a", "name_uk": "\u0414\u043e\u043d\u0435\u0446\u044c\u043a", "name_en": "Donetsk", "region_ru": "\u0414\u043e\u043d\u0435\u0446\u043a\u0430\u044f \u043e\u0431\u043b\u0430\u0441\u0442\u044c", "region_uk": "\u0414\u043e\u043d\u0435\u0446\u044c\u043a\u0430 \u043e\u0431\u043b\u0430\u0441\u0442\u044c", "region_en": "Donetsk region"}, {"name_ru": "\u0414\u0440\u043e\u0433\u043e\u0431\u044b\u0447", "name_uk": "\u0414\u0440\u043e\u0433\u043e\u0431\u0438\u0447", "name_en": "Drohobych", "region_ru": "\u041b\u044c\u0432\u043e\u0432\u0441\u043a\u0430\u044f \u043e\u0431\u043b\u0430\u0441\u0442\u044c", "region_uk": "\u041b\u044c\u0432\u0456\u0432\u0441\u044c\u043a\u0430 \u043e\u0431\u043b\u0430\u0441\u0442\u044c", "region_en": "Lviv region"}, {"name_ru": "\u0414\u0440\u0443\u0436\u0431\u0430", "name_uk": "\u0414\u0440\u0443\u0436\u0431\u0430", "name_en": "Friendship", "region_ru": "\u0421\u0443\u043c\u0441\u043a\u0430\u044f \u043e\u0431\u043b\u0430\u0441\u0442\u044c", "region_uk": "\u0421\u0443\u043c\u0441\u044c\u043a\u0430 \u043e\u0431\u043b\u0430\u0441\u0442\u044c", "region_en": "Sumy region"}, {"name_ru": "\u0414\u0440\u0443\u0436\u043a\u043e\u0432\u043a\u0430", "name_uk": "\u0414\u0440\u0443\u0436\u043a\u0456\u0432\u043a\u0430", "name_en": "Druzhkovka", "region_ru": "\u0414\u043e\u043d\u0435\u0446\u043a\u0430\u044f \u043e\u0431\u043b\u0430\u0441\u0442\u044c", "region_uk": "\u0414\u043e\u043d\u0435\u0446\u044c\u043a\u0430 \u043e\u0431\u043b\u0430\u0441\u0442\u044c", "region_en": "Donetsk region"}, {"name_ru": "\u0414\u0443\u0431\u043b\u044f\u043d\u044b", "name_uk": "\u0414\u0443\u0431\u043b\u044f\u043d\u0438", "name_en": "Dublyany", "region_ru": "\u041b\u044c\u0432\u043e\u0432\u0441\u043a\u0430\u044f \u043e\u0431\u043b\u0430\u0441\u0442\u044c", "region_uk": "\u041b\u044c\u0432\u0456\u0432\u0441\u044c\u043a\u0430 \u043e\u0431\u043b\u0430\u0441\u0442\u044c", "region_en": "Lviv region"}, {"name_ru": "\u0414\u0443\u0431\u043d\u043e", "name_uk": "\u0414\u0443\u0431\u043d\u043e", "name_en": "Dubno", "region_ru": "\u0420\u043e\u0432\u043d\u0435\u043d\u0441\u043a\u0430\u044f \u043e\u0431\u043b\u0430\u0441\u0442\u044c", "region_uk": "\u0420\u0456\u0432\u043d\u0435\u043d\u0441\u044c\u043a\u0430 \u043e\u0431\u043b\u0430\u0441\u0442\u044c", "region_en": "Rivne region"}, {"name_ru": "\u0414\u0443\u0431\u0440\u043e\u0432\u0438\u0446\u0430", "name_uk": "\u0414\u0443\u0431\u0440\u043e\u0432\u0438\u0446\u044f", "name_en": "Dubrovitsa", "region_ru": "\u0420\u043e\u0432\u043d\u0435\u043d\u0441\u043a\u0430\u044f \u043e\u0431\u043b\u0430\u0441\u0442\u044c", "region_uk": "\u0420\u0456\u0432\u043d\u0435\u043d\u0441\u044c\u043a\u0430 \u043e\u0431\u043b\u0430\u0441\u0442\u044c", "region_en": "Rivne region"}, {"name_ru": "\u0414\u0443\u043d\u0430\u0435\u0432\u0446\u044b", "name_uk": "\u0414\u0443\u043d\u0430\u0457\u0432\u0446\u0456", "name_en": "Dunaevtsy", "region_ru": "\u0425\u043c\u0435\u043b\u044c\u043d\u0438\u0446\u043a\u0430\u044f \u043e\u0431\u043b\u0430\u0441\u0442\u044c", "region_uk": "\u0425\u043c\u0435\u043b\u044c\u043d\u0438\u0446\u044c\u043a\u0430 \u043e\u0431\u043b\u0430\u0441\u0442\u044c", "region_en": "Khmelnitsky region"}, {"name_ru": "\u0415\u0432\u043f\u0430\u0442\u043e\u0440\u0438\u044f", "name_uk": "\u0404\u0432\u043f\u0430\u0442\u043e\u0440\u0456\u044f", "name_en": "Evpatoria", "region_ru": "\u0410\u0432\u0442\u043e\u043d\u043e\u043c\u043d\u0430\u044f \u0420\u0435\u0441\u043f\u0443\u0431\u043b\u0438\u043a\u0430 \u041a\u0440\u044b\u043c", "region_uk": "\u0410\u0432\u0442\u043e\u043d\u043e\u043c\u043d\u0430 \u0420\u0435\u0441\u043f\u0443\u0431\u043b\u0456\u043a\u0430 \u041a\u0440\u0438\u043c", "region_en": "Autonomous Republic of Crimea"}, {"name_ru": "\u0415\u043d\u0430\u043a\u0438\u0435\u0432\u043e", "name_uk": "\u0404\u043d\u0430\u043a\u0456\u0454\u0432\u0435", "name_en": "Enakievo", "region_ru": "\u0414\u043e\u043d\u0435\u0446\u043a\u0430\u044f \u043e\u0431\u043b\u0430\u0441\u0442\u044c", "region_uk": "\u0414\u043e\u043d\u0435\u0446\u044c\u043a\u0430 \u043e\u0431\u043b\u0430\u0441\u0442\u044c", "region_en": "Donetsk region"}, {"name_ru": "\u0416\u0430\u0448\u043a\u043e\u0432", "name_uk": "\u0416\u0430\u0448\u043a\u0456\u0432", "name_en": "Zhashkov", "region_ru": "\u0427\u0435\u0440\u043a\u0430\u0441\u0441\u043a\u0430\u044f \u043e\u0431\u043b\u0430\u0441\u0442\u044c", "region_uk": "\u0427\u0435\u0440\u043a\u0430\u0441\u044c\u043a\u0430 \u043e\u0431\u043b\u0430\u0441\u0442\u044c", "region_en": "Cherkasy region"}, {"name_ru": "\u0416\u0434\u0430\u043d\u043e\u0432\u043a\u0430", "name_uk": "\u0416\u0434\u0430\u043d\u0456\u0432\u043a\u0430", "name_en": "Zhdanovka", "region_ru": "\u0414\u043e\u043d\u0435\u0446\u043a\u0430\u044f \u043e\u0431\u043b\u0430\u0441\u0442\u044c", "region_uk": "\u0414\u043e\u043d\u0435\u0446\u044c\u043a\u0430 \u043e\u0431\u043b\u0430\u0441\u0442\u044c", "region_en": "Donetsk region"}, {"name_ru": "\u0416\u0435\u043b\u0435\u0437\u043d\u043e\u0435", "name_uk": "\u0417\u0430\u043b\u0456\u0437\u043d\u0435", "name_en": "Iron", "region_ru": "\u0414\u043e\u043d\u0435\u0446\u043a\u0430\u044f \u043e\u0431\u043b\u0430\u0441\u0442\u044c", "region_uk": "\u0414\u043e\u043d\u0435\u0446\u044c\u043a\u0430 \u043e\u0431\u043b\u0430\u0441\u0442\u044c", "region_en": "Donetsk region"}, {"name_ru": "\u0416\u0451\u043b\u0442\u044b\u0435 \u0412\u043e\u0434\u044b", "name_uk": "\u0416\u043e\u0432\u0442\u0456 \u0412\u043e\u0434\u0438", "name_en": "Yellow Waters", "region_ru": "\u0414\u043d\u0435\u043f\u0440\u043e\u043f\u0435\u0442\u0440\u043e\u0432\u0441\u043a\u0430\u044f \u043e\u0431\u043b\u0430\u0441\u0442\u044c", "region_uk": "\u0414\u043d\u0456\u043f\u0440\u043e\u043f\u0435\u0442\u0440\u043e\u0432\u0441\u044c\u043a\u0430 \u043e\u0431\u043b\u0430\u0441\u0442\u044c", "region_en": "Dnipropetrovsk region"}, {"name_ru": "\u0416\u0438\u0434\u0430\u0447\u043e\u0432", "name_uk": "\u0416\u0438\u0434\u0430\u0447\u0456\u0432", "name_en": "Zhidachov", "region_ru": "\u041b\u044c\u0432\u043e\u0432\u0441\u043a\u0430\u044f \u043e\u0431\u043b\u0430\u0441\u0442\u044c", "region_uk": "\u041b\u044c\u0432\u0456\u0432\u0441\u044c\u043a\u0430 \u043e\u0431\u043b\u0430\u0441\u0442\u044c", "region_en": "Lviv region"}, {"name_ru": "\u0416\u0438\u0442\u043e\u043c\u0438\u0440", "name_uk": "\u0416\u0438\u0442\u043e\u043c\u0438\u0440", "name_en": "Zhitomir", "region_ru": "\u0416\u0438\u0442\u043e\u043c\u0438\u0440\u0441\u043a\u0430\u044f \u043e\u0431\u043b\u0430\u0441\u0442\u044c", "region_uk": "\u0416\u0438\u0442\u043e\u043c\u0438\u0440\u0441\u044c\u043a\u0430 \u043e\u0431\u043b\u0430\u0441\u0442\u044c", "region_en": "Zhytomyr Oblast"}, {"name_ru": "\u0416\u043c\u0435\u0440\u0438\u043d\u043a\u0430", "name_uk": "\u0416\u043c\u0435\u0440\u0438\u043d\u043a\u0430", "name_en": "Zhmerinka", "region_ru": "\u0412\u0438\u043d\u043d\u0438\u0446\u043a\u0430\u044f \u043e\u0431\u043b\u0430\u0441\u0442\u044c", "region_uk": "\u0412\u0456\u043d\u043d\u0438\u0446\u044c\u043a\u0430 \u043e\u0431\u043b\u0430\u0441\u0442\u044c", "region_en": "Vinnytsia region"}, {"name_ru": "\u0416\u043e\u043b\u043a\u0432\u0430", "name_uk": "\u0416\u043e\u0432\u043a\u0432\u0430", "name_en": "Zhovkva", "region_ru": "\u041b\u044c\u0432\u043e\u0432\u0441\u043a\u0430\u044f \u043e\u0431\u043b\u0430\u0441\u0442\u044c", "region_uk": "\u041b\u044c\u0432\u0456\u0432\u0441\u044c\u043a\u0430 \u043e\u0431\u043b\u0430\u0441\u0442\u044c", "region_en": "Lviv region"}, {"name_ru": "\u0417\u0430\u0432\u043e\u0434\u0441\u043a\u043e\u0435", "name_uk": "\u0417\u0430\u0432\u043e\u0434\u0441\u044c\u043a\u0435", "name_en": "factory", "region_ru": "\u041f\u043e\u043b\u0442\u0430\u0432\u0441\u043a\u0430\u044f \u043e\u0431\u043b\u0430\u0441\u0442\u044c", "region_uk": "\u041f\u043e\u043b\u0442\u0430\u0432\u0441\u044c\u043a\u0430 \u043e\u0431\u043b\u0430\u0441\u0442\u044c", "region_en": "Poltava region"}, {"name_ru": "\u0417\u0430\u043b\u0435\u0449\u0438\u043a\u0438", "name_uk": "\u0417\u0430\u043b\u0456\u0449\u0438\u043a\u0438", "name_en": "Zalishchyky", "region_ru": "\u0422\u0435\u0440\u043d\u043e\u043f\u043e\u043b\u044c\u0441\u043a\u0430\u044f \u043e\u0431\u043b\u0430\u0441\u0442\u044c", "region_uk": "\u0422\u0435\u0440\u043d\u043e\u043f\u0456\u043b\u044c\u0441\u044c\u043a\u0430 \u043e\u0431\u043b\u0430\u0441\u0442\u044c", "region_en": "Ternopil region"}, {"name_ru": "\u0417\u0430\u043f\u043e\u0440\u043e\u0436\u044c\u0435", "name_uk": "\u0417\u0430\u043f\u043e\u0440\u0456\u0436\u0436\u044f", "name_en": "Zaporozhye", "region_ru": "\u0417\u0430\u043f\u043e\u0440\u043e\u0436\u0441\u043a\u0430\u044f \u043e\u0431\u043b\u0430\u0441\u0442\u044c", "region_uk": "\u0417\u0430\u043f\u043e\u0440\u0456\u0437\u044c\u043a\u0430 \u043e\u0431\u043b\u0430\u0441\u0442\u044c", "region_en": "Zaporozhye region"}, {"name_ru": "\u0417\u0430\u0441\u0442\u0430\u0432\u043d\u0430", "name_uk": "\u0417\u0430\u0441\u0442\u0430\u0432\u043d\u0430", "name_en": "Zastavna", "region_ru": "\u0427\u0435\u0440\u043d\u043e\u0432\u0438\u0446\u043a\u0430\u044f \u043e\u0431\u043b\u0430\u0441\u0442\u044c", "region_uk": "\u0427\u0435\u0440\u043d\u0456\u0432\u0435\u0446\u044c\u043a\u0430 \u043e\u0431\u043b\u0430\u0441\u0442\u044c", "region_en": "Chernivtsi region"}, {"name_ru": "\u0417\u0431\u0430\u0440\u0430\u0436", "name_uk": "\u0417\u0431\u0430\u0440\u0430\u0436", "name_en": "Zbarazh", "region_ru": "\u0422\u0435\u0440\u043d\u043e\u043f\u043e\u043b\u044c\u0441\u043a\u0430\u044f \u043e\u0431\u043b\u0430\u0441\u0442\u044c", "region_uk": "\u0422\u0435\u0440\u043d\u043e\u043f\u0456\u043b\u044c\u0441\u044c\u043a\u0430 \u043e\u0431\u043b\u0430\u0441\u0442\u044c", "region_en": "Ternopil region"}, {"name_ru": "\u0417\u0431\u043e\u0440\u043e\u0432", "name_uk": "\u0417\u0431\u043e\u0440\u0456\u0432", "name_en": "Zborov", "region_ru": "\u0422\u0435\u0440\u043d\u043e\u043f\u043e\u043b\u044c\u0441\u043a\u0430\u044f \u043e\u0431\u043b\u0430\u0441\u0442\u044c", "region_uk": "\u0422\u0435\u0440\u043d\u043e\u043f\u0456\u043b\u044c\u0441\u044c\u043a\u0430 \u043e\u0431\u043b\u0430\u0441\u0442\u044c", "region_en": "Ternopil region"}, {"name_ru": "\u0417\u0432\u0435\u043d\u0438\u0433\u043e\u0440\u043e\u0434\u043a\u0430", "name_uk": "\u0417\u0432\u0435\u043d\u0438\u0433\u043e\u0440\u043e\u0434\u043a\u0430", "name_en": "Zvenigorodka", "region_ru": "\u0427\u0435\u0440\u043a\u0430\u0441\u0441\u043a\u0430\u044f \u043e\u0431\u043b\u0430\u0441\u0442\u044c", "region_uk": "\u0427\u0435\u0440\u043a\u0430\u0441\u044c\u043a\u0430 \u043e\u0431\u043b\u0430\u0441\u0442\u044c", "region_en": "Cherkasy region"}, {"name_ru": "\u0417\u0434\u043e\u043b\u0431\u0443\u043d\u043e\u0432", "name_uk": "\u0417\u0434\u043e\u043b\u0431\u0443\u043d\u0456\u0432", "name_en": "Zdolbunov", "region_ru": "\u0420\u043e\u0432\u043d\u0435\u043d\u0441\u043a\u0430\u044f \u043e\u0431\u043b\u0430\u0441\u0442\u044c", "region_uk": "\u0420\u0456\u0432\u043d\u0435\u043d\u0441\u044c\u043a\u0430 \u043e\u0431\u043b\u0430\u0441\u0442\u044c", "region_en": "Rivne region"}, {"name_ru": "\u0417\u0435\u043b\u0435\u043d\u043e\u0434\u043e\u043b\u044c\u0441\u043a", "name_uk": "\u0417\u0435\u043b\u0435\u043d\u043e\u0434\u043e\u043b\u044c\u0441\u044c\u043a", "name_en": "Zelenodolsk", "region_ru": "\u0414\u043d\u0435\u043f\u0440\u043e\u043f\u0435\u0442\u0440\u043e\u0432\u0441\u043a\u0430\u044f \u043e\u0431\u043b\u0430\u0441\u0442\u044c", "region_uk": "\u0414\u043d\u0456\u043f\u0440\u043e\u043f\u0435\u0442\u0440\u043e\u0432\u0441\u044c\u043a\u0430 \u043e\u0431\u043b\u0430\u0441\u0442\u044c", "region_en": "Dnipropetrovsk region"}, {"name_ru": "\u0417\u0435\u043d\u044c\u043a\u043e\u0432", "name_uk": "\u0417\u0456\u043d\u044c\u043a\u0456\u0432", "name_en": "Zenkov", "region_ru": "\u041f\u043e\u043b\u0442\u0430\u0432\u0441\u043a\u0430\u044f \u043e\u0431\u043b\u0430\u0441\u0442\u044c", "region_uk": "\u041f\u043e\u043b\u0442\u0430\u0432\u0441\u044c\u043a\u0430 \u043e\u0431\u043b\u0430\u0441\u0442\u044c", "region_en": "Poltava region"}, {"name_ru": "\u0417\u0438\u043c\u043e\u0433\u043e\u0440\u044c\u0435", "name_uk": "\u0417\u0438\u043c\u043e\u0433\u0456\u0440\u2019\u044f", "name_en": "Zymogorye", "region_ru": "\u041b\u0443\u0433\u0430\u043d\u0441\u043a\u0430\u044f \u043e\u0431\u043b\u0430\u0441\u0442\u044c", "region_uk": "\u041b\u0443\u0433\u0430\u043d\u0441\u044c\u043a\u0430 \u043e\u0431\u043b\u0430\u0441\u0442\u044c", "region_en": "Lugansk region"}, {"name_ru": "\u0417\u043c\u0438\u0451\u0432", "name_uk": "\u0417\u043c\u0456\u0457\u0432", "name_en": "Zmiev", "region_ru": "\u0425\u0430\u0440\u044c\u043a\u043e\u0432\u0441\u043a\u0430\u044f \u043e\u0431\u043b\u0430\u0441\u0442\u044c", "region_uk": "\u0425\u0430\u0440\u043a\u0456\u0432\u0441\u044c\u043a\u0430 \u043e\u0431\u043b\u0430\u0441\u0442\u044c", "region_en": "Kharkov region"}, {"name_ru": "\u0417\u043d\u0430\u043c\u0435\u043d\u043a\u0430", "name_uk": "\u0417\u043d\u0430\u043c\u2019\u044f\u043d\u043a\u0430", "name_en": "Znamenka", "region_ru": "\u041a\u0438\u0440\u043e\u0432\u043e\u0433\u0440\u0430\u0434\u0441\u043a\u0430\u044f \u043e\u0431\u043b\u0430\u0441\u0442\u044c", "region_uk": "\u041a\u0456\u0440\u043e\u0432\u043e\u0433\u0440\u0430\u0434\u0441\u044c\u043a\u0430 \u043e\u0431\u043b\u0430\u0441\u0442\u044c", "region_en": "Kirovograd region"}, {"name_ru": "\u0417\u043e\u043b\u043e\u0442\u043e\u0435", "name_uk": "\u0417\u043e\u043b\u043e\u0442\u0435", "name_en": "Golden", "region_ru": "\u041b\u0443\u0433\u0430\u043d\u0441\u043a\u0430\u044f \u043e\u0431\u043b\u0430\u0441\u0442\u044c", "region_uk": "\u041b\u0443\u0433\u0430\u043d\u0441\u044c\u043a\u0430 \u043e\u0431\u043b\u0430\u0441\u0442\u044c", "region_en": "Lugansk region"}, {"name_ru": "\u0417\u043e\u043b\u043e\u0442\u043e\u043d\u043e\u0448\u0430", "name_uk": "\u0417\u043e\u043b\u043e\u0442\u043e\u043d\u043e\u0448\u0430", "name_en": "Zolotonosha", "region_ru": "\u0427\u0435\u0440\u043a\u0430\u0441\u0441\u043a\u0430\u044f \u043e\u0431\u043b\u0430\u0441\u0442\u044c", "region_uk": "\u0427\u0435\u0440\u043a\u0430\u0441\u044c\u043a\u0430 \u043e\u0431\u043b\u0430\u0441\u0442\u044c", "region_en": "Cherkasy region"}, {"name_ru": "\u0417\u043e\u043b\u043e\u0447\u0435\u0432", "name_uk": "\u0417\u043e\u043b\u043e\u0447\u0456\u0432", "name_en": "Zolochev", "region_ru": "\u041b\u044c\u0432\u043e\u0432\u0441\u043a\u0430\u044f \u043e\u0431\u043b\u0430\u0441\u0442\u044c", "region_uk": "\u041b\u044c\u0432\u0456\u0432\u0441\u044c\u043a\u0430 \u043e\u0431\u043b\u0430\u0441\u0442\u044c", "region_en": "Lviv region"}, {"name_ru": "\u0417\u043e\u0440\u0438\u043d\u0441\u043a", "name_uk": "\u0417\u043e\u0440\u0438\u043d\u0441\u044c\u043a", "name_en": "Zorinsk", "region_ru": "\u041b\u0443\u0433\u0430\u043d\u0441\u043a\u0430\u044f \u043e\u0431\u043b\u0430\u0441\u0442\u044c", "region_uk": "\u041b\u0443\u0433\u0430\u043d\u0441\u044c\u043a\u0430 \u043e\u0431\u043b\u0430\u0441\u0442\u044c", "region_en": "Lugansk region"}, {"name_ru": "\u0417\u0443\u0433\u0440\u044d\u0441", "name_uk": "\u0417\u0443\u0433\u0440\u0435\u0441", "name_en": "Zugres", "region_ru": "\u0414\u043e\u043d\u0435\u0446\u043a\u0430\u044f \u043e\u0431\u043b\u0430\u0441\u0442\u044c", "region_uk": "\u0414\u043e\u043d\u0435\u0446\u044c\u043a\u0430 \u043e\u0431\u043b\u0430\u0441\u0442\u044c", "region_en": "Donetsk region"}, {"name_ru": "\u0418\u0432\u0430\u043d\u043e-\u0424\u0440\u0430\u043d\u043a\u043e\u0432\u0441\u043a", "name_uk": "\u0406\u0432\u0430\u043d\u043e-\u0424\u0440\u0430\u043d\u043a\u0456\u0432\u0441\u044c\u043a", "name_en": "Ivano-Frankivsk", "region_ru": "\u0418\u0432\u0430\u043d\u043e-\u0424\u0440\u0430\u043d\u043a\u043e\u0432\u0441\u043a\u0430\u044f \u043e\u0431\u043b\u0430\u0441\u0442\u044c", "region_uk": "\u0406\u0432\u0430\u043d\u043e-\u0424\u0440\u0430\u043d\u043a\u0456\u0432\u0441\u044c\u043a\u0430 \u043e\u0431\u043b\u0430\u0441\u0442\u044c", "region_en": "Ivano-Frankivsk region"}, {"name_ru": "\u0418\u0437\u043c\u0430\u0438\u043b", "name_uk": "\u0406\u0437\u043c\u0430\u0457\u043b", "name_en": "Ishmael", "region_ru": "\u041e\u0434\u0435\u0441\u0441\u043a\u0430\u044f \u043e\u0431\u043b\u0430\u0441\u0442\u044c", "region_uk": "\u041e\u0434\u0435\u0441\u044c\u043a\u0430 \u043e\u0431\u043b\u0430\u0441\u0442\u044c", "region_en": "Odessa region"}, {"name_ru": "\u0418\u0437\u044e\u043c", "name_uk": "\u0406\u0437\u044e\u043c", "name_en": "Raisin", "region_ru": "\u0425\u0430\u0440\u044c\u043a\u043e\u0432\u0441\u043a\u0430\u044f \u043e\u0431\u043b\u0430\u0441\u0442\u044c", "region_uk": "\u0425\u0430\u0440\u043a\u0456\u0432\u0441\u044c\u043a\u0430 \u043e\u0431\u043b\u0430\u0441\u0442\u044c", "region_en": "Kharkov region"}, {"name_ru": "\u0418\u0437\u044f\u0441\u043b\u0430\u0432", "name_uk": "\u0406\u0437\u044f\u0441\u043b\u0430\u0432", "name_en": "Izyaslav", "region_ru": "\u0425\u043c\u0435\u043b\u044c\u043d\u0438\u0446\u043a\u0430\u044f \u043e\u0431\u043b\u0430\u0441\u0442\u044c", "region_uk": "\u0425\u043c\u0435\u043b\u044c\u043d\u0438\u0446\u044c\u043a\u0430 \u043e\u0431\u043b\u0430\u0441\u0442\u044c", "region_en": "Khmelnitsky region"}, {"name_ru": "\u0418\u043b\u044c\u0438\u043d\u0446\u044b", "name_uk": "\u0406\u043b\u043b\u0456\u043d\u0446\u0456", "name_en": "Ilintsy", "region_ru": "\u0412\u0438\u043d\u043d\u0438\u0446\u043a\u0430\u044f \u043e\u0431\u043b\u0430\u0441\u0442\u044c", "region_uk": "\u0412\u0456\u043d\u043d\u0438\u0446\u044c\u043a\u0430 \u043e\u0431\u043b\u0430\u0441\u0442\u044c", "region_en": "Vinnytsia region"}, {"name_ru": "\u0418\u043b\u043e\u0432\u0430\u0439\u0441\u043a", "name_uk": "\u0406\u043b\u043e\u0432\u0430\u0439\u0441\u044c\u043a", "name_en": "Ilovaisk", "region_ru": "\u0414\u043e\u043d\u0435\u0446\u043a\u0430\u044f \u043e\u0431\u043b\u0430\u0441\u0442\u044c", "region_uk": "\u0414\u043e\u043d\u0435\u0446\u044c\u043a\u0430 \u043e\u0431\u043b\u0430\u0441\u0442\u044c", "region_en": "Donetsk region"}, {"name_ru": "\u0418\u043d\u043a\u0435\u0440\u043c\u0430\u043d", "name_uk": "\u0406\u043d\u043a\u0435\u0440\u043c\u0430\u043d", "name_en": "Inkerman", "region_ru": "\u0421\u0435\u0432\u0430\u0441\u0442\u043e\u043f\u043e\u043b\u044c", "region_uk": "\u0421\u0435\u0432\u0430\u0441\u0442\u043e\u043f\u043e\u043b\u044c", "region_en": "Sevastopol"}, {"name_ru": "\u0418\u0440\u043c\u0438\u043d\u043e", "name_uk": "\u0406\u0440\u043c\u0456\u043d\u043e", "name_en": "Irmino", "region_ru": "\u041b\u0443\u0433\u0430\u043d\u0441\u043a\u0430\u044f \u043e\u0431\u043b\u0430\u0441\u0442\u044c", "region_uk": "\u041b\u0443\u0433\u0430\u043d\u0441\u044c\u043a\u0430 \u043e\u0431\u043b\u0430\u0441\u0442\u044c", "region_en": "Lugansk region"}, {"name_ru": "\u0418\u0440\u043f\u0435\u043d\u044c", "name_uk": "\u0406\u0440\u043f\u0456\u043d\u044c", "name_en": "Irpin", "region_ru": "\u041a\u0438\u0435\u0432\u0441\u043a\u0430\u044f \u043e\u0431\u043b\u0430\u0441\u0442\u044c", "region_uk": "\u041a\u0438\u0457\u0432\u0441\u044c\u043a\u0430 \u043e\u0431\u043b\u0430\u0441\u0442\u044c", "region_en": "Kyiv region"}, {"name_ru": "\u0418\u0440\u0448\u0430\u0432\u0430", "name_uk": "\u0406\u0440\u0448\u0430\u0432\u0430", "name_en": "Irshava", "region_ru": "\u0417\u0430\u043a\u0430\u0440\u043f\u0430\u0442\u0441\u043a\u0430\u044f \u043e\u0431\u043b\u0430\u0441\u0442\u044c", "region_uk": "\u0417\u0430\u043a\u0430\u0440\u043f\u0430\u0442\u0441\u044c\u043a\u0430 \u043e\u0431\u043b\u0430\u0441\u0442\u044c", "region_en": "Transcarpathian region"}, {"name_ru": "\u0418\u0447\u043d\u044f", "name_uk": "\u0406\u0447\u043d\u044f", "name_en": "Ichnia", "region_ru": "\u0427\u0435\u0440\u043d\u0438\u0433\u043e\u0432\u0441\u043a\u0430\u044f \u043e\u0431\u043b\u0430\u0441\u0442\u044c", "region_uk": "\u0427\u0435\u0440\u043d\u0456\u0433\u0456\u0432\u0441\u044c\u043a\u0430 \u043e\u0431\u043b\u0430\u0441\u0442\u044c", "region_en": "Chernihiv region"}, {"name_ru": "\u041a\u0430\u0433\u0430\u0440\u043b\u044b\u043a", "name_uk": "\u041a\u0430\u0433\u0430\u0440\u043b\u0438\u043a", "name_en": "Kagarlyk", "region_ru": "\u041a\u0438\u0435\u0432\u0441\u043a\u0430\u044f \u043e\u0431\u043b\u0430\u0441\u0442\u044c", "region_uk": "\u041a\u0438\u0457\u0432\u0441\u044c\u043a\u0430 \u043e\u0431\u043b\u0430\u0441\u0442\u044c", "region_en": "Kyiv region"}, {"name_ru": "\u041a\u0430\u0434\u0438\u0435\u0432\u043a\u0430", "name_uk": "\u041a\u0430\u0434\u0456\u0457\u0432\u043a\u0430", "name_en": "Kadiivka", "region_ru": "\u041b\u0443\u0433\u0430\u043d\u0441\u043a\u0430\u044f \u043e\u0431\u043b\u0430\u0441\u0442\u044c", "region_uk": "\u041b\u0443\u0433\u0430\u043d\u0441\u044c\u043a\u0430 \u043e\u0431\u043b\u0430\u0441\u0442\u044c", "region_en": "Lugansk region"}, {"name_ru": "\u041a\u0430\u0437\u0430\u0442\u0438\u043d", "name_uk": "\u041a\u043e\u0437\u044f\u0442\u0438\u043d", "name_en": "Kazatin", "region_ru": "\u0412\u0438\u043d\u043d\u0438\u0446\u043a\u0430\u044f \u043e\u0431\u043b\u0430\u0441\u0442\u044c", "region_uk": "\u0412\u0456\u043d\u043d\u0438\u0446\u044c\u043a\u0430 \u043e\u0431\u043b\u0430\u0441\u0442\u044c", "region_en": "Vinnytsia region"}, {"name_ru": "\u041a\u0430\u043b\u0438\u043d\u043e\u0432\u043a\u0430", "name_uk": "\u041a\u0430\u043b\u0438\u043d\u0456\u0432\u043a\u0430", "name_en": "Kalinovka", "region_ru": "\u0412\u0438\u043d\u043d\u0438\u0446\u043a\u0430\u044f \u043e\u0431\u043b\u0430\u0441\u0442\u044c", "region_uk": "\u0412\u0456\u043d\u043d\u0438\u0446\u044c\u043a\u0430 \u043e\u0431\u043b\u0430\u0441\u0442\u044c", "region_en": "Vinnytsia region"}, {"name_ru": "\u041a\u0430\u043b\u0443\u0448", "name_uk": "\u041a\u0430\u043b\u0443\u0448", "name_en": "Kalush", "region_ru": "\u0418\u0432\u0430\u043d\u043e-\u0424\u0440\u0430\u043d\u043a\u043e\u0432\u0441\u043a\u0430\u044f \u043e\u0431\u043b\u0430\u0441\u0442\u044c", "region_uk": "\u0406\u0432\u0430\u043d\u043e-\u0424\u0440\u0430\u043d\u043a\u0456\u0432\u0441\u044c\u043a\u0430 \u043e\u0431\u043b\u0430\u0441\u0442\u044c", "region_en": "Ivano-Frankivsk region"}, {"name_ru": "\u041a\u0430\u043b\u044c\u043c\u0438\u0443\u0441\u0441\u043a\u043e\u0435", "name_uk": "\u041a\u0430\u043b\u044c\u043c\u0456\u0443\u0441\u044c\u043a\u0435", "name_en": "Kalmius", "region_ru": "\u0414\u043e\u043d\u0435\u0446\u043a\u0430\u044f \u043e\u0431\u043b\u0430\u0441\u0442\u044c", "region_uk": "\u0414\u043e\u043d\u0435\u0446\u044c\u043a\u0430 \u043e\u0431\u043b\u0430\u0441\u0442\u044c", "region_en": "Donetsk region"}, {"name_ru": "\u041a\u0430\u043c\u0435\u043d\u0435\u0446-\u041f\u043e\u0434\u043e\u043b\u044c\u0441\u043a\u0438\u0439", "name_uk": "\u041a\u0430\u043c\u2019\u044f\u043d\u0435\u0446\u044c-\u041f\u043e\u0434\u0456\u043b\u044c\u0441\u044c\u043a\u0438\u0439", "name_en": "Kamianets-Podilskyi", "region_ru": "\u0425\u043c\u0435\u043b\u044c\u043d\u0438\u0446\u043a\u0430\u044f \u043e\u0431\u043b\u0430\u0441\u0442\u044c", "region_uk": "\u0425\u043c\u0435\u043b\u044c\u043d\u0438\u0446\u044c\u043a\u0430 \u043e\u0431\u043b\u0430\u0441\u0442\u044c", "region_en": "Khmelnitsky region"}, {"name_ru": "\u041a\u0430\u043c\u0435\u043d\u043a\u0430", "name_uk": "\u041a\u0430\u043c\u2019\u044f\u043d\u043a\u0430", "name_en": "Kamenka", "region_ru": "\u0427\u0435\u0440\u043a\u0430\u0441\u0441\u043a\u0430\u044f \u043e\u0431\u043b\u0430\u0441\u0442\u044c", "region_uk": "\u0427\u0435\u0440\u043a\u0430\u0441\u044c\u043a\u0430 \u043e\u0431\u043b\u0430\u0441\u0442\u044c", "region_en": "Cherkasy region"}, {"name_ru": "\u041a\u0430\u043c\u0435\u043d\u043a\u0430-\u0411\u0443\u0433\u0441\u043a\u0430\u044f", "name_uk": "\u041a\u0430\u043c\u2019\u044f\u043d\u043a\u0430-\u0411\u0443\u0437\u044c\u043a\u0430", "name_en": "Kamenka-Bugskaya", "region_ru": "\u041b\u044c\u0432\u043e\u0432\u0441\u043a\u0430\u044f \u043e\u0431\u043b\u0430\u0441\u0442\u044c", "region_uk": "\u041b\u044c\u0432\u0456\u0432\u0441\u044c\u043a\u0430 \u043e\u0431\u043b\u0430\u0441\u0442\u044c", "region_en": "Lviv region"}, {"name_ru": "\u041a\u0430\u043c\u0435\u043d\u043a\u0430-\u0414\u043d\u0435\u043f\u0440\u043e\u0432\u0441\u043a\u0430\u044f", "name_uk": "\u041a\u0430\u043c\u2019\u044f\u043d\u043a\u0430-\u0414\u043d\u0456\u043f\u0440\u043e\u0432\u0441\u044c\u043a\u0430", "name_en": "Kamenka-Dniprovska", "region_ru": "\u0417\u0430\u043f\u043e\u0440\u043e\u0436\u0441\u043a\u0430\u044f \u043e\u0431\u043b\u0430\u0441\u0442\u044c", "region_uk": "\u0417\u0430\u043f\u043e\u0440\u0456\u0437\u044c\u043a\u0430 \u043e\u0431\u043b\u0430\u0441\u0442\u044c", "region_en": "Zaporozhye region"}, {"name_ru": "\u041a\u0430\u043c\u0435\u043d\u0441\u043a\u043e\u0435", "name_uk": "\u041a\u0430\u043c\u2019\u044f\u043d\u0441\u044c\u043a\u0435", "name_en": "Kamenskoe", "region_ru": "\u0414\u043d\u0435\u043f\u0440\u043e\u043f\u0435\u0442\u0440\u043e\u0432\u0441\u043a\u0430\u044f \u043e\u0431\u043b\u0430\u0441\u0442\u044c", "region_uk": "\u0414\u043d\u0456\u043f\u0440\u043e\u043f\u0435\u0442\u0440\u043e\u0432\u0441\u044c\u043a\u0430 \u043e\u0431\u043b\u0430\u0441\u0442\u044c", "region_en": "Dnipropetrovsk region"}, {"name_ru": "\u041a\u0430\u043c\u0435\u043d\u044c-\u041a\u0430\u0448\u0438\u0440\u0441\u043a\u0438\u0439", "name_uk": "\u041a\u0430\u043c\u0456\u043d\u044c-\u041a\u0430\u0448\u0438\u0440\u0441\u044c\u043a\u0438\u0439", "name_en": "Stone-Kashirsky", "region_ru": "\u0412\u043e\u043b\u044b\u043d\u0441\u043a\u0430\u044f \u043e\u0431\u043b\u0430\u0441\u0442\u044c", "region_uk": "\u0412\u043e\u043b\u0438\u043d\u0441\u044c\u043a\u0430 \u043e\u0431\u043b\u0430\u0441\u0442\u044c", "region_en": "Volyn region"}, {"name_ru": "\u041a\u0430\u043d\u0435\u0432", "name_uk": "\u041a\u0430\u043d\u0456\u0432", "name_en": "Kanev", "region_ru": "\u0427\u0435\u0440\u043a\u0430\u0441\u0441\u043a\u0430\u044f \u043e\u0431\u043b\u0430\u0441\u0442\u044c", "region_uk": "\u0427\u0435\u0440\u043a\u0430\u0441\u044c\u043a\u0430 \u043e\u0431\u043b\u0430\u0441\u0442\u044c", "region_en": "Cherkasy region"}, {"name_ru": "\u041a\u0430\u0440\u043b\u043e\u0432\u043a\u0430", "name_uk": "\u041a\u0430\u0440\u043b\u0456\u0432\u043a\u0430", "name_en": "Karlovka", "region_ru": "\u041f\u043e\u043b\u0442\u0430\u0432\u0441\u043a\u0430\u044f \u043e\u0431\u043b\u0430\u0441\u0442\u044c", "region_uk": "\u041f\u043e\u043b\u0442\u0430\u0432\u0441\u044c\u043a\u0430 \u043e\u0431\u043b\u0430\u0441\u0442\u044c", "region_en": "Poltava region"}, {"name_ru": "\u041a\u0430\u0445\u043e\u0432\u043a\u0430", "name_uk": "\u041a\u0430\u0445\u043e\u0432\u043a\u0430", "name_en": "Kakhovka", "region_ru": "\u0425\u0435\u0440\u0441\u043e\u043d\u0441\u043a\u0430\u044f \u043e\u0431\u043b\u0430\u0441\u0442\u044c", "region_uk": "\u0425\u0435\u0440\u0441\u043e\u043d\u0441\u044c\u043a\u0430 \u043e\u0431\u043b\u0430\u0441\u0442\u044c", "region_en": "Kherson region"}, {"name_ru": "\u041a\u0435\u0440\u0447\u044c", "name_uk": "\u041a\u0435\u0440\u0447", "name_en": "Kerch", "region_ru": "\u0410\u0432\u0442\u043e\u043d\u043e\u043c\u043d\u0430\u044f \u0420\u0435\u0441\u043f\u0443\u0431\u043b\u0438\u043a\u0430 \u041a\u0440\u044b\u043c", "region_uk": "\u0410\u0432\u0442\u043e\u043d\u043e\u043c\u043d\u0430 \u0420\u0435\u0441\u043f\u0443\u0431\u043b\u0456\u043a\u0430 \u041a\u0440\u0438\u043c", "region_en": "Autonomous Republic of Crimea"}, {"name_ru": "\u041a\u0438\u0432\u0435\u0440\u0446\u044b", "name_uk": "\u041a\u0456\u0432\u0435\u0440\u0446\u0456", "name_en": "Kivertsy", "region_ru": "\u0412\u043e\u043b\u044b\u043d\u0441\u043a\u0430\u044f \u043e\u0431\u043b\u0430\u0441\u0442\u044c", "region_uk": "\u0412\u043e\u043b\u0438\u043d\u0441\u044c\u043a\u0430 \u043e\u0431\u043b\u0430\u0441\u0442\u044c", "region_en": "Volyn region"}, {"name_ru": "\u041a\u0438\u0435\u0432", "name_uk": "\u041a\u0438\u0457\u0432", "name_en": "Kyiv", "region_ru": "\u041a\u0438\u0435\u0432", "region_uk": "\u041a\u0438\u0457\u0432", "region_en": "Kyiv"}, {"name_ru": "\u041a\u0438\u043b\u0438\u044f", "name_uk": "\u041a\u0456\u043b\u0456\u044f", "name_en": "Kiliya", "region_ru": "\u041e\u0434\u0435\u0441\u0441\u043a\u0430\u044f \u043e\u0431\u043b\u0430\u0441\u0442\u044c", "region_uk": "\u041e\u0434\u0435\u0441\u044c\u043a\u0430 \u043e\u0431\u043b\u0430\u0441\u0442\u044c", "region_en": "Odessa region"}, {"name_ru": "\u041a\u0438\u043f\u0443\u0447\u0435\u0435", "name_uk": "\u041a\u0438\u043f\u0443\u0447\u0435", "name_en": "ebullient", "region_ru": "\u041b\u0443\u0433\u0430\u043d\u0441\u043a\u0430\u044f \u043e\u0431\u043b\u0430\u0441\u0442\u044c", "region_uk": "\u041b\u0443\u0433\u0430\u043d\u0441\u044c\u043a\u0430 \u043e\u0431\u043b\u0430\u0441\u0442\u044c", "region_en": "Lugansk region"}, {"name_ru": "\u041a\u0438\u0446\u043c\u0430\u043d\u044c", "name_uk": "\u041a\u0456\u0446\u043c\u0430\u043d\u044c", "name_en": "Kitsman", "region_ru": "\u0427\u0435\u0440\u043d\u043e\u0432\u0438\u0446\u043a\u0430\u044f \u043e\u0431\u043b\u0430\u0441\u0442\u044c", "region_uk": "\u0427\u0435\u0440\u043d\u0456\u0432\u0435\u0446\u044c\u043a\u0430 \u043e\u0431\u043b\u0430\u0441\u0442\u044c", "region_en": "Chernivtsi region"}, {"name_ru": "\u041a\u043e\u0431\u0435\u043b\u044f\u043a\u0438", "name_uk": "\u041a\u043e\u0431\u0435\u043b\u044f\u043a\u0438", "name_en": "males", "region_ru": "\u0425\u043c\u0435\u043b\u044c\u043d\u0438\u0446\u043a\u0430\u044f \u043e\u0431\u043b\u0430\u0441\u0442\u044c", "region_uk": "\u0425\u043c\u0435\u043b\u044c\u043d\u0438\u0446\u044c\u043a\u0430 \u043e\u0431\u043b\u0430\u0441\u0442\u044c", "region_en": "Khmelnitsky region"}, {"name_ru": "\u041a\u043e\u0432\u0435\u043b\u044c", "name_uk": "\u041a\u043e\u0432\u0435\u043b\u044c", "name_en": "Kovel", "region_ru": "\u0412\u043e\u043b\u044b\u043d\u0441\u043a\u0430\u044f \u043e\u0431\u043b\u0430\u0441\u0442\u044c", "region_uk": "\u0412\u043e\u043b\u0438\u043d\u0441\u044c\u043a\u0430 \u043e\u0431\u043b\u0430\u0441\u0442\u044c", "region_en": "Volyn region"}, {"name_ru": "\u041a\u043e\u0434\u044b\u043c\u0430", "name_uk": "\u041a\u043e\u0434\u0438\u043c\u0430", "name_en": "Kodyma", "region_ru": "\u041e\u0434\u0435\u0441\u0441\u043a\u0430\u044f \u043e\u0431\u043b\u0430\u0441\u0442\u044c", "region_uk": "\u041e\u0434\u0435\u0441\u044c\u043a\u0430 \u043e\u0431\u043b\u0430\u0441\u0442\u044c", "region_en": "Odessa region"}, {"name_ru": "\u041a\u043e\u043b\u043e\u043c\u044b\u044f", "name_uk": "\u041a\u043e\u043b\u043e\u043c\u0438\u044f", "name_en": "Kolomyia", "region_ru": "\u0418\u0432\u0430\u043d\u043e-\u0424\u0440\u0430\u043d\u043a\u043e\u0432\u0441\u043a\u0430\u044f \u043e\u0431\u043b\u0430\u0441\u0442\u044c", "region_uk": "\u0406\u0432\u0430\u043d\u043e-\u0424\u0440\u0430\u043d\u043a\u0456\u0432\u0441\u044c\u043a\u0430 \u043e\u0431\u043b\u0430\u0441\u0442\u044c", "region_en": "Ivano-Frankivsk region"}, {"name_ru": "\u041a\u043e\u043c\u0430\u0440\u043d\u043e", "name_uk": "\u041a\u043e\u043c\u0430\u0440\u043d\u043e", "name_en": "Komarno", "region_ru": "\u041b\u044c\u0432\u043e\u0432\u0441\u043a\u0430\u044f \u043e\u0431\u043b\u0430\u0441\u0442\u044c", "region_uk": "\u041b\u044c\u0432\u0456\u0432\u0441\u044c\u043a\u0430 \u043e\u0431\u043b\u0430\u0441\u0442\u044c", "region_en": "Lviv region"}, {"name_ru": "\u041a\u043e\u043d\u043e\u0442\u043e\u043f", "name_uk": "\u041a\u043e\u043d\u043e\u0442\u043e\u043f", "name_en": "Konotop", "region_ru": "\u0421\u0443\u043c\u0441\u043a\u0430\u044f \u043e\u0431\u043b\u0430\u0441\u0442\u044c", "region_uk": "\u0421\u0443\u043c\u0441\u044c\u043a\u0430 \u043e\u0431\u043b\u0430\u0441\u0442\u044c", "region_en": "Sumy region"}, {"name_ru": "\u041a\u043e\u043d\u0441\u0442\u0430\u043d\u0442\u0438\u043d\u043e\u0432\u043a\u0430", "name_uk": "\u041a\u043e\u0441\u0442\u044f\u043d\u0442\u0438\u043d\u0456\u0432\u043a\u0430", "name_en": "Konstantinovka", "region_ru": "\u0414\u043e\u043d\u0435\u0446\u043a\u0430\u044f \u043e\u0431\u043b\u0430\u0441\u0442\u044c", "region_uk": "\u0414\u043e\u043d\u0435\u0446\u044c\u043a\u0430 \u043e\u0431\u043b\u0430\u0441\u0442\u044c", "region_en": "Donetsk region"}, {"name_ru": "\u041a\u043e\u043f\u044b\u0447\u0438\u043d\u0446\u044b", "name_uk": "\u041a\u043e\u043f\u0438\u0447\u0438\u043d\u0446\u0456", "name_en": "Kopychintsy", "region_ru": "\u0422\u0435\u0440\u043d\u043e\u043f\u043e\u043b\u044c\u0441\u043a\u0430\u044f \u043e\u0431\u043b\u0430\u0441\u0442\u044c", "region_uk": "\u0422\u0435\u0440\u043d\u043e\u043f\u0456\u043b\u044c\u0441\u044c\u043a\u0430 \u043e\u0431\u043b\u0430\u0441\u0442\u044c", "region_en": "Ternopil region"}, {"name_ru": "\u041a\u043e\u0440\u0435\u0446", "name_uk": "\u041a\u043e\u0440\u0435\u0446\u044c", "name_en": "Korets", "region_ru": "\u0420\u043e\u0432\u043d\u0435\u043d\u0441\u043a\u0430\u044f \u043e\u0431\u043b\u0430\u0441\u0442\u044c", "region_uk": "\u0420\u0456\u0432\u043d\u0435\u043d\u0441\u044c\u043a\u0430 \u043e\u0431\u043b\u0430\u0441\u0442\u044c", "region_en": "Rivne region"}, {"name_ru": "\u041a\u043e\u0440\u043e\u0441\u0442\u0435\u043d\u044c", "name_uk": "\u041a\u043e\u0440\u043e\u0441\u0442\u0435\u043d\u044c", "name_en": "Korosten", "region_ru": "\u0416\u0438\u0442\u043e\u043c\u0438\u0440\u0441\u043a\u0430\u044f \u043e\u0431\u043b\u0430\u0441\u0442\u044c", "region_uk": "\u0416\u0438\u0442\u043e\u043c\u0438\u0440\u0441\u044c\u043a\u0430 \u043e\u0431\u043b\u0430\u0441\u0442\u044c", "region_en": "Zhytomyr Oblast"}, {"name_ru": "\u041a\u043e\u0440\u043e\u0441\u0442\u044b\u0448\u0435\u0432", "name_uk": "\u041a\u043e\u0440\u043e\u0441\u0442\u0438\u0448\u0456\u0432", "name_en": "Korostyshev", "region_ru": "\u0416\u0438\u0442\u043e\u043c\u0438\u0440\u0441\u043a\u0430\u044f \u043e\u0431\u043b\u0430\u0441\u0442\u044c", "region_uk": "\u0416\u0438\u0442\u043e\u043c\u0438\u0440\u0441\u044c\u043a\u0430 \u043e\u0431\u043b\u0430\u0441\u0442\u044c", "region_en": "Zhytomyr Oblast"}, {"name_ru": "\u041a\u043e\u0440\u0441\u0443\u043d\u044c-\u0428\u0435\u0432\u0447\u0435\u043d\u043a\u043e\u0432\u0441\u043a\u0438\u0439", "name_uk": "\u041a\u043e\u0440\u0441\u0443\u043d\u044c-\u0428\u0435\u0432\u0447\u0435\u043d\u043a\u0456\u0432\u0441\u044c\u043a\u0438\u0439", "name_en": "Korsun-Shevchenkovsky", "region_ru": "\u0427\u0435\u0440\u043a\u0430\u0441\u0441\u043a\u0430\u044f \u043e\u0431\u043b\u0430\u0441\u0442\u044c", "region_uk": "\u0427\u0435\u0440\u043a\u0430\u0441\u044c\u043a\u0430 \u043e\u0431\u043b\u0430\u0441\u0442\u044c", "region_en": "Cherkasy region"}, {"name_ru": "\u041a\u043e\u0440\u044e\u043a\u043e\u0432\u043a\u0430", "name_uk": "\u041a\u043e\u0440\u044e\u043a\u0456\u0432\u043a\u0430", "name_en": "Koryukovka", "region_ru": "\u0427\u0435\u0440\u043d\u0438\u0433\u043e\u0432\u0441\u043a\u0430\u044f \u043e\u0431\u043b\u0430\u0441\u0442\u044c", "region_uk": "\u0427\u0435\u0440\u043d\u0456\u0433\u0456\u0432\u0441\u044c\u043a\u0430 \u043e\u0431\u043b\u0430\u0441\u0442\u044c", "region_en": "Chernihiv region"}, {"name_ru": "\u041a\u043e\u0441\u043e\u0432", "name_uk": "\u041a\u043e\u0441\u0456\u0432", "name_en": "Kosiv", "region_ru": "\u0418\u0432\u0430\u043d\u043e-\u0424\u0440\u0430\u043d\u043a\u043e\u0432\u0441\u043a\u0430\u044f \u043e\u0431\u043b\u0430\u0441\u0442\u044c", "region_uk": "\u0406\u0432\u0430\u043d\u043e-\u0424\u0440\u0430\u043d\u043a\u0456\u0432\u0441\u044c\u043a\u0430 \u043e\u0431\u043b\u0430\u0441\u0442\u044c", "region_en": "Ivano-Frankivsk region"}, {"name_ru": "\u041a\u043e\u0441\u0442\u043e\u043f\u043e\u043b\u044c", "name_uk": "\u041a\u043e\u0441\u0442\u043e\u043f\u0456\u043b\u044c", "name_en": "Kostopol", "region_ru": "\u0420\u043e\u0432\u043d\u0435\u043d\u0441\u043a\u0430\u044f \u043e\u0431\u043b\u0430\u0441\u0442\u044c", "region_uk": "\u0420\u0456\u0432\u043d\u0435\u043d\u0441\u044c\u043a\u0430 \u043e\u0431\u043b\u0430\u0441\u0442\u044c", "region_en": "Rivne region"}, {"name_ru": "\u041a\u0440\u0430\u043c\u0430\u0442\u043e\u0440\u0441\u043a", "name_uk": "\u041a\u0440\u0430\u043c\u0430\u0442\u043e\u0440\u0441\u044c\u043a", "name_en": "Kramatorsk", "region_ru": "\u0414\u043e\u043d\u0435\u0446\u043a\u0430\u044f \u043e\u0431\u043b\u0430\u0441\u0442\u044c", "region_uk": "\u0414\u043e\u043d\u0435\u0446\u044c\u043a\u0430 \u043e\u0431\u043b\u0430\u0441\u0442\u044c", "region_en": "Donetsk region"}, {"name_ru": "\u041a\u0440\u0430\u0441\u0438\u043b\u043e\u0432", "name_uk": "\u041a\u0440\u0430\u0441\u0438\u043b\u0456\u0432", "name_en": "Krasilov", "region_ru": "\u0425\u043c\u0435\u043b\u044c\u043d\u0438\u0446\u043a\u0430\u044f \u043e\u0431\u043b\u0430\u0441\u0442\u044c", "region_uk": "\u0425\u043c\u0435\u043b\u044c\u043d\u0438\u0446\u044c\u043a\u0430 \u043e\u0431\u043b\u0430\u0441\u0442\u044c", "region_en": "Khmelnitsky region"}, {"name_ru": "\u041a\u0440\u0430\u0441\u043d\u043e\u0433\u043e\u0440\u043e\u0432\u043a\u0430", "name_uk": "\u041a\u0440\u0430\u0441\u043d\u043e\u0433\u043e\u0440\u0456\u0432\u043a\u0430", "name_en": "Krasnogorovka", "region_ru": "\u0414\u043e\u043d\u0435\u0446\u043a\u0430\u044f \u043e\u0431\u043b\u0430\u0441\u0442\u044c", "region_uk": "\u0414\u043e\u043d\u0435\u0446\u044c\u043a\u0430 \u043e\u0431\u043b\u0430\u0441\u0442\u044c", "region_en": "Donetsk region"}, {"name_ru": "\u041a\u0440\u0430\u0441\u043d\u043e\u0433\u0440\u0430\u0434", "name_uk": "\u041a\u0440\u0430\u0441\u043d\u043e\u0433\u0440\u0430\u0434", "name_en": "Krasnograd", "region_ru": "\u0425\u0430\u0440\u044c\u043a\u043e\u0432\u0441\u043a\u0430\u044f \u043e\u0431\u043b\u0430\u0441\u0442\u044c", "region_uk": "\u0425\u0430\u0440\u043a\u0456\u0432\u0441\u044c\u043a\u0430 \u043e\u0431\u043b\u0430\u0441\u0442\u044c", "region_en": "Kharkov region"}, {"name_ru": "\u041a\u0440\u0430\u0441\u043d\u043e\u043f\u0435\u0440\u0435\u043a\u043e\u043f\u0441\u043a", "name_uk": "\u041a\u0440\u0430\u0441\u043d\u043e\u043f\u0435\u0440\u0435\u043a\u043e\u043f\u0441\u044c\u043a", "name_en": "Krasnoperekopsk", "region_ru": "\u0410\u0432\u0442\u043e\u043d\u043e\u043c\u043d\u0430\u044f \u0420\u0435\u0441\u043f\u0443\u0431\u043b\u0438\u043a\u0430 \u041a\u0440\u044b\u043c", "region_uk": "\u0410\u0432\u0442\u043e\u043d\u043e\u043c\u043d\u0430 \u0420\u0435\u0441\u043f\u0443\u0431\u043b\u0456\u043a\u0430 \u041a\u0440\u0438\u043c", "region_en": "Autonomous Republic of Crimea"}, {"name_ru": "\u041a\u0440\u0435\u043c\u0435\u043d\u0435\u0446", "name_uk": "\u041a\u0440\u0435\u043c\u0435\u043d\u0435\u0446\u044c", "name_en": "Kremenets", "region_ru": "\u0422\u0435\u0440\u043d\u043e\u043f\u043e\u043b\u044c\u0441\u043a\u0430\u044f \u043e\u0431\u043b\u0430\u0441\u0442\u044c", "region_uk": "\u0422\u0435\u0440\u043d\u043e\u043f\u0456\u043b\u044c\u0441\u044c\u043a\u0430 \u043e\u0431\u043b\u0430\u0441\u0442\u044c", "region_en": "Ternopil region"}, {"name_ru": "\u041a\u0440\u0435\u043c\u0435\u043d\u043d\u0430\u044f", "name_uk": "\u041a\u0440\u0435\u043c\u0456\u043d\u043d\u0430", "name_en": "Kremennaya", "region_ru": "\u041b\u0443\u0433\u0430\u043d\u0441\u043a\u0430\u044f \u043e\u0431\u043b\u0430\u0441\u0442\u044c", "region_uk": "\u041b\u0443\u0433\u0430\u043d\u0441\u044c\u043a\u0430 \u043e\u0431\u043b\u0430\u0441\u0442\u044c", "region_en": "Lugansk region"}, {"name_ru": "\u041a\u0440\u0435\u043c\u0435\u043d\u0447\u0443\u0433", "name_uk": "\u041a\u0440\u0435\u043c\u0435\u043d\u0447\u0443\u043a", "name_en": "Kremenchug", "region_ru": "\u041f\u043e\u043b\u0442\u0430\u0432\u0441\u043a\u0430\u044f \u043e\u0431\u043b\u0430\u0441\u0442\u044c", "region_uk": "\u041f\u043e\u043b\u0442\u0430\u0432\u0441\u044c\u043a\u0430 \u043e\u0431\u043b\u0430\u0441\u0442\u044c", "region_en": "Poltava region"}, {"name_ru": "\u041a\u0440\u0435\u0441\u0442\u043e\u0432\u043a\u0430", "name_uk": "\u0425\u0440\u0435\u0441\u0442\u0456\u0432\u043a\u0430", "name_en": "Krestovka", "region_ru": "\u0414\u043e\u043d\u0435\u0446\u043a\u0430\u044f \u043e\u0431\u043b\u0430\u0441\u0442\u044c", "region_uk": "\u0414\u043e\u043d\u0435\u0446\u044c\u043a\u0430 \u043e\u0431\u043b\u0430\u0441\u0442\u044c", "region_en": "Donetsk region"}, {"name_ru": "\u041a\u0440\u0438\u0432\u043e\u0439 \u0420\u043e\u0433", "name_uk": "\u041a\u0440\u0438\u0432\u0438\u0439 \u0420\u0456\u0433", "name_en": "Krivoy Rog", "region_ru": "\u0414\u043d\u0435\u043f\u0440\u043e\u043f\u0435\u0442\u0440\u043e\u0432\u0441\u043a\u0430\u044f \u043e\u0431\u043b\u0430\u0441\u0442\u044c", "region_uk": "\u0414\u043d\u0456\u043f\u0440\u043e\u043f\u0435\u0442\u0440\u043e\u0432\u0441\u044c\u043a\u0430 \u043e\u0431\u043b\u0430\u0441\u0442\u044c", "region_en": "Dnipropetrovsk region"}, {"name_ru": "\u041a\u0440\u043e\u043b\u0435\u0432\u0435\u0446", "name_uk": "\u041a\u0440\u043e\u043b\u0435\u0432\u0435\u0446\u044c", "name_en": "Krolevets", "region_ru": "\u0421\u0443\u043c\u0441\u043a\u0430\u044f \u043e\u0431\u043b\u0430\u0441\u0442\u044c", "region_uk": "\u0421\u0443\u043c\u0441\u044c\u043a\u0430 \u043e\u0431\u043b\u0430\u0441\u0442\u044c", "region_en": "Sumy region"}, {"name_ru": "\u041a\u0440\u043e\u043f\u0438\u0432\u043d\u0438\u0446\u043a\u0438\u0439", "name_uk": "\u041a\u0440\u043e\u043f\u0438\u0432\u043d\u0438\u0446\u044c\u043a\u0438\u0439", "name_en": "Kropyvnytskyi", "region_ru": "\u041a\u0438\u0440\u043e\u0432\u043e\u0433\u0440\u0430\u0434\u0441\u043a\u0430\u044f \u043e\u0431\u043b\u0430\u0441\u0442\u044c", "region_uk": "\u041a\u0456\u0440\u043e\u0432\u043e\u0433\u0440\u0430\u0434\u0441\u044c\u043a\u0430 \u043e\u0431\u043b\u0430\u0441\u0442\u044c", "region_en": "Kirovograd region"}, {"name_ru": "\u041a\u0443\u043f\u044f\u043d\u0441\u043a", "name_uk": "\u041a\u0443\u043f\u2019\u044f\u043d\u0441\u044c\u043a", "name_en": "Kupyansk", "region_ru": "\u0425\u0430\u0440\u044c\u043a\u043e\u0432\u0441\u043a\u0430\u044f \u043e\u0431\u043b\u0430\u0441\u0442\u044c", "region_uk": "\u0425\u0430\u0440\u043a\u0456\u0432\u0441\u044c\u043a\u0430 \u043e\u0431\u043b\u0430\u0441\u0442\u044c", "region_en": "Kharkov region"}, {"name_ru": "\u041a\u0443\u0440\u0430\u0445\u043e\u0432\u043e", "name_uk": "\u041a\u0443\u0440\u0430\u0445\u043e\u0432\u0435", "name_en": "Kurakhovo", "region_ru": "\u0414\u043e\u043d\u0435\u0446\u043a\u0430\u044f \u043e\u0431\u043b\u0430\u0441\u0442\u044c", "region_uk": "\u0414\u043e\u043d\u0435\u0446\u044c\u043a\u0430 \u043e\u0431\u043b\u0430\u0441\u0442\u044c", "region_en": "Donetsk region"}, {"name_ru": "\u041b\u0430\u0434\u044b\u0436\u0438\u043d", "name_uk": "\u041b\u0430\u0434\u0438\u0436\u0438\u043d", "name_en": "Ladyzhin", "region_ru": "\u0412\u0438\u043d\u043d\u0438\u0446\u043a\u0430\u044f \u043e\u0431\u043b\u0430\u0441\u0442\u044c", "region_uk": "\u0412\u0456\u043d\u043d\u0438\u0446\u044c\u043a\u0430 \u043e\u0431\u043b\u0430\u0441\u0442\u044c", "region_en": "Vinnytsia region"}, {"name_ru": "\u041b\u0430\u043d\u043e\u0432\u0446\u044b", "name_uk": "\u041b\u0430\u043d\u0456\u0432\u0446\u0456", "name_en": "Lanovtsy", "region_ru": "\u0422\u0435\u0440\u043d\u043e\u043f\u043e\u043b\u044c\u0441\u043a\u0430\u044f \u043e\u0431\u043b\u0430\u0441\u0442\u044c", "region_uk": "\u0422\u0435\u0440\u043d\u043e\u043f\u0456\u043b\u044c\u0441\u044c\u043a\u0430 \u043e\u0431\u043b\u0430\u0441\u0442\u044c", "region_en": "Ternopil region"}, {"name_ru": "\u041b\u0435\u0431\u0435\u0434\u0438\u043d", "name_uk": "\u041b\u0435\u0431\u0435\u0434\u0438\u043d", "name_en": "Lebedin", "region_ru": "\u0421\u0443\u043c\u0441\u043a\u0430\u044f \u043e\u0431\u043b\u0430\u0441\u0442\u044c", "region_uk": "\u0421\u0443\u043c\u0441\u044c\u043a\u0430 \u043e\u0431\u043b\u0430\u0441\u0442\u044c", "region_en": "Sumy region"}, {"name_ru": "\u041b\u0438\u043c\u0430\u043d", "name_uk": "\u041b\u0438\u043c\u0430\u043d", "name_en": "Liman", "region_ru": "\u0414\u043e\u043d\u0435\u0446\u043a\u0430\u044f \u043e\u0431\u043b\u0430\u0441\u0442\u044c", "region_uk": "\u0414\u043e\u043d\u0435\u0446\u044c\u043a\u0430 \u043e\u0431\u043b\u0430\u0441\u0442\u044c", "region_en": "Donetsk region"}, {"name_ru": "\u041b\u0438\u043f\u043e\u0432\u0435\u0446", "name_uk": "\u041b\u0438\u043f\u043e\u0432\u0435\u0446\u044c", "name_en": "Lipovets", "region_ru": "\u0412\u0438\u043d\u043d\u0438\u0446\u043a\u0430\u044f \u043e\u0431\u043b\u0430\u0441\u0442\u044c", "region_uk": "\u0412\u0456\u043d\u043d\u0438\u0446\u044c\u043a\u0430 \u043e\u0431\u043b\u0430\u0441\u0442\u044c", "region_en": "Vinnytsia region"}, {"name_ru": "\u041b\u0438\u0441\u0438\u0447\u0430\u043d\u0441\u043a", "name_uk": "\u041b\u0438\u0441\u0438\u0447\u0430\u043d\u0441\u044c\u043a", "name_en": "Lisichansk", "region_ru": "\u041b\u0443\u0433\u0430\u043d\u0441\u043a\u0430\u044f \u043e\u0431\u043b\u0430\u0441\u0442\u044c", "region_uk": "\u041b\u0443\u0433\u0430\u043d\u0441\u044c\u043a\u0430 \u043e\u0431\u043b\u0430\u0441\u0442\u044c", "region_en": "Lugansk region"}, {"name_ru": "\u041b\u043e\u0437\u043e\u0432\u0430\u044f", "name_uk": "\u041b\u043e\u0437\u043e\u0432\u0430", "name_en": "Lozova", "region_ru": "\u0425\u0430\u0440\u044c\u043a\u043e\u0432\u0441\u043a\u0430\u044f \u043e\u0431\u043b\u0430\u0441\u0442\u044c", "region_uk": "\u0425\u0430\u0440\u043a\u0456\u0432\u0441\u044c\u043a\u0430 \u043e\u0431\u043b\u0430\u0441\u0442\u044c", "region_en": "Kharkov region"}, {"name_ru": "\u041b\u043e\u0445\u0432\u0438\u0446\u0430", "name_uk": "\u041b\u043e\u0445\u0432\u0438\u0446\u044f", "name_en": "Lokhvitsa", "region_ru": "\u041f\u043e\u043b\u0442\u0430\u0432\u0441\u043a\u0430\u044f \u043e\u0431\u043b\u0430\u0441\u0442\u044c", "region_uk": "\u041f\u043e\u043b\u0442\u0430\u0432\u0441\u044c\u043a\u0430 \u043e\u0431\u043b\u0430\u0441\u0442\u044c", "region_en": "Poltava region"}, {"name_ru": "\u041b\u0443\u0431\u043d\u044b", "name_uk": "\u041b\u0443\u0431\u043d\u0438", "name_en": "Lubny", "region_ru": "\u041f\u043e\u043b\u0442\u0430\u0432\u0441\u043a\u0430\u044f \u043e\u0431\u043b\u0430\u0441\u0442\u044c", "region_uk": "\u041f\u043e\u043b\u0442\u0430\u0432\u0441\u044c\u043a\u0430 \u043e\u0431\u043b\u0430\u0441\u0442\u044c", "region_en": "Poltava region"}, {"name_ru": "\u041b\u0443\u0433\u0430\u043d\u0441\u043a", "name_uk": "\u041b\u0443\u0433\u0430\u043d\u0441\u044c\u043a", "name_en": "Lugansk", "region_ru": "\u041b\u0443\u0433\u0430\u043d\u0441\u043a\u0430\u044f \u043e\u0431\u043b\u0430\u0441\u0442\u044c", "region_uk": "\u041b\u0443\u0433\u0430\u043d\u0441\u044c\u043a\u0430 \u043e\u0431\u043b\u0430\u0441\u0442\u044c", "region_en": "Lugansk region"}, {"name_ru": "\u041b\u0443\u0442\u0443\u0433\u0438\u043d\u043e", "name_uk": "\u041b\u0443\u0442\u0443\u0433\u0438\u043d\u0435", "name_en": "Lutugino", "region_ru": "\u041b\u0443\u0433\u0430\u043d\u0441\u043a\u0430\u044f \u043e\u0431\u043b\u0430\u0441\u0442\u044c", "region_uk": "\u041b\u0443\u0433\u0430\u043d\u0441\u044c\u043a\u0430 \u043e\u0431\u043b\u0430\u0441\u0442\u044c", "region_en": "Lugansk region"}, {"name_ru": "\u041b\u0443\u0446\u043a", "name_uk": "\u041b\u0443\u0446\u044c\u043a", "name_en": "Lutsk", "region_ru": "\u0412\u043e\u043b\u044b\u043d\u0441\u043a\u0430\u044f \u043e\u0431\u043b\u0430\u0441\u0442\u044c", "region_uk": "\u0412\u043e\u043b\u0438\u043d\u0441\u044c\u043a\u0430 \u043e\u0431\u043b\u0430\u0441\u0442\u044c", "region_en": "Volyn region"}, {"name_ru": "\u041b\u044c\u0432\u043e\u0432", "name_uk": "\u041b\u044c\u0432\u0456\u0432", "name_en": "Lviv", "region_ru": "\u041b\u044c\u0432\u043e\u0432\u0441\u043a\u0430\u044f \u043e\u0431\u043b\u0430\u0441\u0442\u044c", "region_uk": "\u041b\u044c\u0432\u0456\u0432\u0441\u044c\u043a\u0430 \u043e\u0431\u043b\u0430\u0441\u0442\u044c", "region_en": "Lviv region"}, {"name_ru": "\u041b\u044e\u0431\u043e\u043c\u043b\u044c", "name_uk": "\u041b\u044e\u0431\u043e\u043c\u043b\u044c", "name_en": "Lyuboml", "region_ru": "\u0412\u043e\u043b\u044b\u043d\u0441\u043a\u0430\u044f \u043e\u0431\u043b\u0430\u0441\u0442\u044c", "region_uk": "\u0412\u043e\u043b\u0438\u043d\u0441\u044c\u043a\u0430 \u043e\u0431\u043b\u0430\u0441\u0442\u044c", "region_en": "Volyn region"}, {"name_ru": "\u041b\u044e\u0431\u043e\u0442\u0438\u043d", "name_uk": "\u041b\u044e\u0431\u043e\u0442\u0438\u043d", "name_en": "Lyubotin", "region_ru": "\u0425\u0430\u0440\u044c\u043a\u043e\u0432\u0441\u043a\u0430\u044f \u043e\u0431\u043b\u0430\u0441\u0442\u044c", "region_uk": "\u0425\u0430\u0440\u043a\u0456\u0432\u0441\u044c\u043a\u0430 \u043e\u0431\u043b\u0430\u0441\u0442\u044c", "region_en": "Kharkov region"}, {"name_ru": "\u041c\u0430\u043a\u0435\u0435\u0432\u043a\u0430", "name_uk": "\u041c\u0430\u043a\u0456\u0457\u0432\u043a\u0430", "name_en": "Makeevka", "region_ru": "\u0414\u043e\u043d\u0435\u0446\u043a\u0430\u044f \u043e\u0431\u043b\u0430\u0441\u0442\u044c", "region_uk": "\u0414\u043e\u043d\u0435\u0446\u044c\u043a\u0430 \u043e\u0431\u043b\u0430\u0441\u0442\u044c", "region_en": "Donetsk region"}, {"name_ru": "\u041c\u0430\u043b\u0430\u044f \u0412\u0438\u0441\u043a\u0430", "name_uk": "\u041c\u0430\u043b\u0430 \u0412\u0438\u0441\u043a\u0430", "name_en": "Malaya Viska", "region_ru": "\u041a\u0438\u0440\u043e\u0432\u043e\u0433\u0440\u0430\u0434\u0441\u043a\u0430\u044f \u043e\u0431\u043b\u0430\u0441\u0442\u044c", "region_uk": "\u041a\u0456\u0440\u043e\u0432\u043e\u0433\u0440\u0430\u0434\u0441\u044c\u043a\u0430 \u043e\u0431\u043b\u0430\u0441\u0442\u044c", "region_en": "Kirovograd region"}, {"name_ru": "\u041c\u0430\u043b\u0438\u043d", "name_uk": "\u041c\u0430\u043b\u0438\u043d", "name_en": "Malin", "region_ru": "\u0416\u0438\u0442\u043e\u043c\u0438\u0440\u0441\u043a\u0430\u044f \u043e\u0431\u043b\u0430\u0441\u0442\u044c", "region_uk": "\u0416\u0438\u0442\u043e\u043c\u0438\u0440\u0441\u044c\u043a\u0430 \u043e\u0431\u043b\u0430\u0441\u0442\u044c", "region_en": "Zhytomyr Oblast"}, {"name_ru": "\u041c\u0430\u0440\u0433\u0430\u043d\u0435\u0446", "name_uk": "\u041c\u0430\u0440\u0433\u0430\u043d\u0435\u0446\u044c", "name_en": "Manganese", "region_ru": "\u0414\u043d\u0435\u043f\u0440\u043e\u043f\u0435\u0442\u0440\u043e\u0432\u0441\u043a\u0430\u044f \u043e\u0431\u043b\u0430\u0441\u0442\u044c", "region_uk": "\u0414\u043d\u0456\u043f\u0440\u043e\u043f\u0435\u0442\u0440\u043e\u0432\u0441\u044c\u043a\u0430 \u043e\u0431\u043b\u0430\u0441\u0442\u044c", "region_en": "Dnipropetrovsk region"}, {"name_ru": "\u041c\u0430\u0440\u0438\u0443\u043f\u043e\u043b\u044c", "name_uk": "\u041c\u0430\u0440\u0456\u0443\u043f\u043e\u043b\u044c", "name_en": "Mariupol", "region_ru": "\u0414\u043e\u043d\u0435\u0446\u043a\u0430\u044f \u043e\u0431\u043b\u0430\u0441\u0442\u044c", "region_uk": "\u0414\u043e\u043d\u0435\u0446\u044c\u043a\u0430 \u043e\u0431\u043b\u0430\u0441\u0442\u044c", "region_en": "Donetsk region"}, {"name_ru": "\u041c\u0430\u0440\u044c\u0438\u043d\u043a\u0430", "name_uk": "\u041c\u0430\u0440'\u0457\u043d\u043a\u0430", "name_en": "Maryinka", "region_ru": "\u0414\u043e\u043d\u0435\u0446\u043a\u0430\u044f \u043e\u0431\u043b\u0430\u0441\u0442\u044c", "region_uk": "\u0414\u043e\u043d\u0435\u0446\u044c\u043a\u0430 \u043e\u0431\u043b\u0430\u0441\u0442\u044c", "region_en": "Donetsk region"}, {"name_ru": "\u041c\u0435\u043b\u0438\u0442\u043e\u043f\u043e\u043b\u044c", "name_uk": "\u041c\u0435\u043b\u0456\u0442\u043e\u043f\u043e\u043b\u044c", "name_en": "Melitopol", "region_ru": "\u0417\u0430\u043f\u043e\u0440\u043e\u0436\u0441\u043a\u0430\u044f \u043e\u0431\u043b\u0430\u0441\u0442\u044c", "region_uk": "\u0417\u0430\u043f\u043e\u0440\u0456\u0437\u044c\u043a\u0430 \u043e\u0431\u043b\u0430\u0441\u0442\u044c", "region_en": "Zaporozhye region"}, {"name_ru": "\u041c\u0435\u043d\u0430", "name_uk": "\u041c\u0435\u043d\u0430", "name_en": "Mena", "region_ru": "\u0427\u0435\u0440\u043d\u0438\u0433\u043e\u0432\u0441\u043a\u0430\u044f \u043e\u0431\u043b\u0430\u0441\u0442\u044c", "region_uk": "\u0427\u0435\u0440\u043d\u0456\u0433\u0456\u0432\u0441\u044c\u043a\u0430 \u043e\u0431\u043b\u0430\u0441\u0442\u044c", "region_en": "Chernihiv region"}, {"name_ru": "\u041c\u0435\u0440\u0435\u0444\u0430", "name_uk": "\u041c\u0435\u0440\u0435\u0444\u0430", "name_en": "Merefa", "region_ru": "\u0425\u0430\u0440\u044c\u043a\u043e\u0432\u0441\u043a\u0430\u044f \u043e\u0431\u043b\u0430\u0441\u0442\u044c", "region_uk": "\u0425\u0430\u0440\u043a\u0456\u0432\u0441\u044c\u043a\u0430 \u043e\u0431\u043b\u0430\u0441\u0442\u044c", "region_en": "Kharkov region"}, {"name_ru": "\u041c\u0438\u0440\u0433\u043e\u0440\u043e\u0434", "name_uk": "\u041c\u0438\u0440\u0433\u043e\u0440\u043e\u0434", "name_en": "Mirgorod", "region_ru": "\u041f\u043e\u043b\u0442\u0430\u0432\u0441\u043a\u0430\u044f \u043e\u0431\u043b\u0430\u0441\u0442\u044c", "region_uk": "\u041f\u043e\u043b\u0442\u0430\u0432\u0441\u044c\u043a\u0430 \u043e\u0431\u043b\u0430\u0441\u0442\u044c", "region_en": "Poltava region"}, {"name_ru": "\u041c\u0438\u0440\u043d\u043e\u0433\u0440\u0430\u0434", "name_uk": "\u041c\u0438\u0440\u043d\u043e\u0433\u0440\u0430\u0434", "name_en": "Mirnograd", "region_ru": "\u0414\u043e\u043d\u0435\u0446\u043a\u0430\u044f \u043e\u0431\u043b\u0430\u0441\u0442\u044c", "region_uk": "\u0414\u043e\u043d\u0435\u0446\u044c\u043a\u0430 \u043e\u0431\u043b\u0430\u0441\u0442\u044c", "region_en": "Donetsk region"}, {"name_ru": "\u041c\u0438\u0440\u043e\u043d\u043e\u0432\u043a\u0430", "name_uk": "\u041c\u0438\u0440\u043e\u043d\u0456\u0432\u043a\u0430", "name_en": "Mironovka", "region_ru": "\u041a\u0438\u0435\u0432\u0441\u043a\u0430\u044f \u043e\u0431\u043b\u0430\u0441\u0442\u044c", "region_uk": "\u041a\u0438\u0457\u0432\u0441\u044c\u043a\u0430 \u043e\u0431\u043b\u0430\u0441\u0442\u044c", "region_en": "Kyiv region"}, {"name_ru": "\u041c\u0438\u0443\u0441\u0438\u043d\u0441\u043a", "name_uk": "\u041c\u0438\u0443\u0441\u0438\u043d\u0441\u043a", "name_en": "Miusinsk", "region_ru": "\u041b\u0443\u0433\u0430\u043d\u0441\u043a\u0430\u044f \u043e\u0431\u043b\u0430\u0441\u0442\u044c", "region_uk": "\u041b\u0443\u0433\u0430\u043d\u0441\u044c\u043a\u0430 \u043e\u0431\u043b\u0430\u0441\u0442\u044c", "region_en": "Lugansk region"}, {"name_ru": "\u041c\u043e\u0433\u0438\u043b\u0451\u0432-\u041f\u043e\u0434\u043e\u043b\u044c\u0441\u043a\u0438\u0439", "name_uk": "\u041c\u043e\u0433\u0438\u043b\u0456\u0432-\u041f\u043e\u0434\u0456\u043b\u044c\u0441\u044c\u043a\u0438\u0439", "name_en": "Mogilev-Podolsky", "region_ru": "\u0412\u0438\u043d\u043d\u0438\u0446\u043a\u0430\u044f \u043e\u0431\u043b\u0430\u0441\u0442\u044c", "region_uk": "\u0412\u0456\u043d\u043d\u0438\u0446\u044c\u043a\u0430 \u043e\u0431\u043b\u0430\u0441\u0442\u044c", "region_en": "Vinnytsia region"}, {"name_ru": "\u041c\u043e\u043b\u043e\u0434\u043e\u0433\u0432\u0430\u0440\u0434\u0435\u0439\u0441\u043a", "name_uk": "\u041c\u043e\u043b\u043e\u0434\u043e\u0433\u0432\u0430\u0440\u0434\u0456\u0439\u0441\u044c\u043a", "name_en": "Molodogvardeysk", "region_ru": "\u041b\u0443\u0433\u0430\u043d\u0441\u043a\u0430\u044f \u043e\u0431\u043b\u0430\u0441\u0442\u044c", "region_uk": "\u041b\u0443\u0433\u0430\u043d\u0441\u044c\u043a\u0430 \u043e\u0431\u043b\u0430\u0441\u0442\u044c", "region_en": "Lugansk region"}, {"name_ru": "\u041c\u043e\u043b\u043e\u0447\u0430\u043d\u0441\u043a", "name_uk": "\u041c\u043e\u043b\u043e\u0447\u0430\u043d\u0441\u044c\u043a", "name_en": "Molochansk", "region_ru": "\u0417\u0430\u043f\u043e\u0440\u043e\u0436\u0441\u043a\u0430\u044f \u043e\u0431\u043b\u0430\u0441\u0442\u044c", "region_uk": "\u0417\u0430\u043f\u043e\u0440\u0456\u0437\u044c\u043a\u0430 \u043e\u0431\u043b\u0430\u0441\u0442\u044c", "region_en": "Zaporozhye region"}, {"name_ru": "\u041c\u043e\u043d\u0430\u0441\u0442\u044b\u0440\u0438\u0441\u043a\u0430", "name_uk": "\u041c\u043e\u043d\u0430\u0441\u0442\u0438\u0440\u0438\u0441\u044c\u043a\u0430", "name_en": "Monastery", "region_ru": "\u0422\u0435\u0440\u043d\u043e\u043f\u043e\u043b\u044c\u0441\u043a\u0430\u044f \u043e\u0431\u043b\u0430\u0441\u0442\u044c", "region_uk": "\u0422\u0435\u0440\u043d\u043e\u043f\u0456\u043b\u044c\u0441\u044c\u043a\u0430 \u043e\u0431\u043b\u0430\u0441\u0442\u044c", "region_en": "Ternopil region"}, {"name_ru": "\u041c\u043e\u043d\u0430\u0441\u0442\u044b\u0440\u0438\u0449\u0435", "name_uk": "\u041c\u043e\u043d\u0430\u0441\u0442\u0438\u0440\u0438\u0449\u0435", "name_en": "Monastery", "region_ru": "\u0427\u0435\u0440\u043a\u0430\u0441\u0441\u043a\u0430\u044f \u043e\u0431\u043b\u0430\u0441\u0442\u044c", "region_uk": "\u0427\u0435\u0440\u043a\u0430\u0441\u044c\u043a\u0430 \u043e\u0431\u043b\u0430\u0441\u0442\u044c", "region_en": "Cherkasy region"}, {"name_ru": "\u041c\u043e\u0440\u0448\u0438\u043d", "name_uk": "\u041c\u043e\u0440\u0448\u0438\u043d", "name_en": "Morshyn", "region_ru": "\u041b\u044c\u0432\u043e\u0432\u0441\u043a\u0430\u044f \u043e\u0431\u043b\u0430\u0441\u0442\u044c", "region_uk": "\u041b\u044c\u0432\u0456\u0432\u0441\u044c\u043a\u0430 \u043e\u0431\u043b\u0430\u0441\u0442\u044c", "region_en": "Lviv region"}, {"name_ru": "\u041c\u043e\u0441\u043f\u0438\u043d\u043e", "name_uk": "\u041c\u043e\u0441\u043f\u0438\u043d\u0435", "name_en": "Mospino", "region_ru": "\u0414\u043e\u043d\u0435\u0446\u043a\u0430\u044f \u043e\u0431\u043b\u0430\u0441\u0442\u044c", "region_uk": "\u0414\u043e\u043d\u0435\u0446\u044c\u043a\u0430 \u043e\u0431\u043b\u0430\u0441\u0442\u044c", "region_en": "Donetsk region"}, {"name_ru": "\u041c\u043e\u0441\u0442\u0438\u0441\u043a\u0430", "name_uk": "\u041c\u043e\u0441\u0442\u0438\u0441\u044c\u043a\u0430", "name_en": "Mostyska", "region_ru": "\u041b\u044c\u0432\u043e\u0432\u0441\u043a\u0430\u044f \u043e\u0431\u043b\u0430\u0441\u0442\u044c", "region_uk": "\u041b\u044c\u0432\u0456\u0432\u0441\u044c\u043a\u0430 \u043e\u0431\u043b\u0430\u0441\u0442\u044c", "region_en": "Lviv region"}, {"name_ru": "\u041c\u0443\u043a\u0430\u0447\u0435\u0432\u043e", "name_uk": "\u041c\u0443\u043a\u0430\u0447\u0435\u0432\u043e", "name_en": "Mukachevo", "region_ru": "\u0417\u0430\u043a\u0430\u0440\u043f\u0430\u0442\u0441\u043a\u0430\u044f \u043e\u0431\u043b\u0430\u0441\u0442\u044c", "region_uk": "\u0417\u0430\u043a\u0430\u0440\u043f\u0430\u0442\u0441\u044c\u043a\u0430 \u043e\u0431\u043b\u0430\u0441\u0442\u044c", "region_en": "Transcarpathian region"}, {"name_ru": "\u041d\u0430\u0434\u0432\u043e\u0440\u043d\u0430\u044f", "name_uk": "\u041d\u0430\u0434\u0432\u0456\u0440\u043d\u0430", "name_en": "Nadvirna", "region_ru": "\u0418\u0432\u0430\u043d\u043e-\u0424\u0440\u0430\u043d\u043a\u043e\u0432\u0441\u043a\u0430\u044f \u043e\u0431\u043b\u0430\u0441\u0442\u044c", "region_uk": "\u0406\u0432\u0430\u043d\u043e-\u0424\u0440\u0430\u043d\u043a\u0456\u0432\u0441\u044c\u043a\u0430 \u043e\u0431\u043b\u0430\u0441\u0442\u044c", "region_en": "Ivano-Frankivsk region"}, {"name_ru": "\u041d\u0435\u0436\u0438\u043d", "name_uk": "\u041d\u0456\u0436\u0438\u043d", "name_en": "Nizhyn", "region_ru": "\u0427\u0435\u0440\u043d\u0438\u0433\u043e\u0432\u0441\u043a\u0430\u044f \u043e\u0431\u043b\u0430\u0441\u0442\u044c", "region_uk": "\u0427\u0435\u0440\u043d\u0456\u0433\u0456\u0432\u0441\u044c\u043a\u0430 \u043e\u0431\u043b\u0430\u0441\u0442\u044c", "region_en": "Chernihiv region"}, {"name_ru": "\u041d\u0435\u043c\u0438\u0440\u043e\u0432", "name_uk": "\u041d\u0435\u043c\u0438\u0440\u0456\u0432", "name_en": "Nemirov", "region_ru": "\u0412\u0438\u043d\u043d\u0438\u0446\u043a\u0430\u044f \u043e\u0431\u043b\u0430\u0441\u0442\u044c", "region_uk": "\u0412\u0456\u043d\u043d\u0438\u0446\u044c\u043a\u0430 \u043e\u0431\u043b\u0430\u0441\u0442\u044c", "region_en": "Vinnytsia region"}, {"name_ru": "\u041d\u0435\u0442\u0435\u0448\u0438\u043d", "name_uk": "\u041d\u0435\u0442\u0456\u0448\u0438\u043d", "name_en": "Netishin", "region_ru": "\u0425\u043c\u0435\u043b\u044c\u043d\u0438\u0446\u043a\u0430\u044f \u043e\u0431\u043b\u0430\u0441\u0442\u044c", "region_uk": "\u0425\u043c\u0435\u043b\u044c\u043d\u0438\u0446\u044c\u043a\u0430 \u043e\u0431\u043b\u0430\u0441\u0442\u044c", "region_en": "Khmelnitsky region"}, {"name_ru": "\u041d\u0438\u043a\u043e\u043b\u0430\u0435\u0432", "name_uk": "\u041c\u0438\u043a\u043e\u043b\u0430\u0457\u0432", "name_en": "Nikolaev", "region_ru": "\u041b\u044c\u0432\u043e\u0432\u0441\u043a\u0430\u044f \u043e\u0431\u043b\u0430\u0441\u0442\u044c", "region_uk": "\u041b\u044c\u0432\u0456\u0432\u0441\u044c\u043a\u0430 \u043e\u0431\u043b\u0430\u0441\u0442\u044c", "region_en": "Lviv region"}, {"name_ru": "\u041d\u0438\u043a\u043e\u043b\u0430\u0435\u0432", "name_uk": "\u041c\u0438\u043a\u043e\u043b\u0430\u0457\u0432", "name_en": "Nikolaev", "region_ru": "\u041d\u0438\u043a\u043e\u043b\u0430\u0435\u0432\u0441\u043a\u0430\u044f \u043e\u0431\u043b\u0430\u0441\u0442\u044c", "region_uk": "\u041c\u0438\u043a\u043e\u043b\u0430\u0457\u0432\u0441\u044c\u043a\u0430 \u043e\u0431\u043b\u0430\u0441\u0442\u044c", "region_en": "Nikolaevkskaya area"}, {"name_ru": "\u041d\u0438\u043a\u043e\u043b\u0430\u0435\u0432\u043a\u0430", "name_uk": "\u041c\u0438\u043a\u043e\u043b\u0430\u0457\u0432\u043a\u0430", "name_en": "Nikolayevka", "region_ru": "\u0414\u043e\u043d\u0435\u0446\u043a\u0430\u044f \u043e\u0431\u043b\u0430\u0441\u0442\u044c", "region_uk": "\u0414\u043e\u043d\u0435\u0446\u044c\u043a\u0430 \u043e\u0431\u043b\u0430\u0441\u0442\u044c", "region_en": "Donetsk region"}, {"name_ru": "\u041d\u0438\u043a\u043e\u043f\u043e\u043b\u044c", "name_uk": "\u041d\u0456\u043a\u043e\u043f\u043e\u043b\u044c", "name_en": "Nikopol", "region_ru": "\u0414\u043d\u0435\u043f\u0440\u043e\u043f\u0435\u0442\u0440\u043e\u0432\u0441\u043a\u0430\u044f \u043e\u0431\u043b\u0430\u0441\u0442\u044c", "region_uk": "\u0414\u043d\u0456\u043f\u0440\u043e\u043f\u0435\u0442\u0440\u043e\u0432\u0441\u044c\u043a\u0430 \u043e\u0431\u043b\u0430\u0441\u0442\u044c", "region_en": "Dnipropetrovsk region"}, {"name_ru": "\u041d\u043e\u0432\u0430\u044f \u041a\u0430\u0445\u043e\u0432\u043a\u0430", "name_uk": "\u041d\u043e\u0432\u0430 \u041a\u0430\u0445\u043e\u0432\u043a\u0430", "name_en": "New Kakhovka", "region_ru": "\u0425\u0435\u0440\u0441\u043e\u043d\u0441\u043a\u0430\u044f \u043e\u0431\u043b\u0430\u0441\u0442\u044c", "region_uk": "\u0425\u0435\u0440\u0441\u043e\u043d\u0441\u044c\u043a\u0430 \u043e\u0431\u043b\u0430\u0441\u0442\u044c", "region_en": "Kherson region"}, {"name_ru": "\u041d\u043e\u0432\u0430\u044f \u041e\u0434\u0435\u0441\u0441\u0430", "name_uk": "\u041d\u043e\u0432\u0430 \u041e\u0434\u0435\u0441\u0430", "name_en": "New Odessa", "region_ru": "\u041d\u0438\u043a\u043e\u043b\u0430\u0435\u0432\u0441\u043a\u0430\u044f \u043e\u0431\u043b\u0430\u0441\u0442\u044c", "region_uk": "\u041c\u0438\u043a\u043e\u043b\u0430\u0457\u0432\u0441\u044c\u043a\u0430 \u043e\u0431\u043b\u0430\u0441\u0442\u044c", "region_en": "Nikolaevkskaya area"}, {"name_ru": "\u041d\u043e\u0432\u0433\u043e\u0440\u043e\u0434-\u0421\u0435\u0432\u0435\u0440\u0441\u043a\u0438\u0439", "name_uk": "\u041d\u043e\u0432\u0433\u043e\u0440\u043e\u0434-\u0421\u0456\u0432\u0435\u0440\u0441\u044c\u043a\u0438\u0439", "name_en": "Novgorod-Seversky", "region_ru": "\u0427\u0435\u0440\u043d\u0438\u0433\u043e\u0432\u0441\u043a\u0430\u044f \u043e\u0431\u043b\u0430\u0441\u0442\u044c", "region_uk": "\u0427\u0435\u0440\u043d\u0456\u0433\u0456\u0432\u0441\u044c\u043a\u0430 \u043e\u0431\u043b\u0430\u0441\u0442\u044c", "region_en": "Chernihiv region"}, {"name_ru": "\u041d\u043e\u0432\u043e\u0430\u0437\u043e\u0432\u0441\u043a", "name_uk": "\u041d\u043e\u0432\u043e\u0430\u0437\u043e\u0432\u0441\u044c\u043a", "name_en": "Novoazovsk", "region_ru": "\u0414\u043e\u043d\u0435\u0446\u043a\u0430\u044f \u043e\u0431\u043b\u0430\u0441\u0442\u044c", "region_uk": "\u0414\u043e\u043d\u0435\u0446\u044c\u043a\u0430 \u043e\u0431\u043b\u0430\u0441\u0442\u044c", "region_en": "Donetsk region"}, {"name_ru": "\u041d\u043e\u0432\u043e\u0432\u043e\u043b\u044b\u043d\u0441\u043a", "name_uk": "\u041d\u043e\u0432\u043e\u0432\u043e\u043b\u0438\u043d\u0441\u044c\u043a", "name_en": "Novovolynsk", "region_ru": "\u0412\u043e\u043b\u044b\u043d\u0441\u043a\u0430\u044f \u043e\u0431\u043b\u0430\u0441\u0442\u044c", "region_uk": "\u0412\u043e\u043b\u0438\u043d\u0441\u044c\u043a\u0430 \u043e\u0431\u043b\u0430\u0441\u0442\u044c", "region_en": "Volyn region"}, {"name_ru": "\u041d\u043e\u0432\u043e\u0433\u0440\u0430\u0434-\u0412\u043e\u043b\u044b\u043d\u0441\u043a\u0438\u0439", "name_uk": "\u041d\u043e\u0432\u043e\u0433\u0440\u0430\u0434-\u0412\u043e\u043b\u0438\u043d\u0441\u044c\u043a\u0438\u0439", "name_en": "Novograd-Volynsky", "region_ru": "\u0416\u0438\u0442\u043e\u043c\u0438\u0440\u0441\u043a\u0430\u044f \u043e\u0431\u043b\u0430\u0441\u0442\u044c", "region_uk": "\u0416\u0438\u0442\u043e\u043c\u0438\u0440\u0441\u044c\u043a\u0430 \u043e\u0431\u043b\u0430\u0441\u0442\u044c", "region_en": "Zhytomyr Oblast"}, {"name_ru": "\u041d\u043e\u0432\u043e\u0433\u0440\u043e\u0434\u043e\u0432\u043a\u0430", "name_uk": "\u041d\u043e\u0432\u043e\u0433\u0440\u043e\u0434\u0456\u0432\u043a\u0430", "name_en": "Novogrodovka", "region_ru": "\u0414\u043e\u043d\u0435\u0446\u043a\u0430\u044f \u043e\u0431\u043b\u0430\u0441\u0442\u044c", "region_uk": "\u0414\u043e\u043d\u0435\u0446\u044c\u043a\u0430 \u043e\u0431\u043b\u0430\u0441\u0442\u044c", "region_en": "Donetsk region"}, {"name_ru": "\u041d\u043e\u0432\u043e\u0434\u043d\u0435\u0441\u0442\u0440\u043e\u0432\u0441\u043a", "name_uk": "\u041d\u043e\u0432\u043e\u0434\u043d\u0456\u0441\u0442\u0440\u043e\u0432\u0441\u044c\u043a", "name_en": "Novodnestrovsk", "region_ru": "\u0427\u0435\u0440\u043d\u043e\u0432\u0438\u0446\u043a\u0430\u044f \u043e\u0431\u043b\u0430\u0441\u0442\u044c", "region_uk": "\u0427\u0435\u0440\u043d\u0456\u0432\u0435\u0446\u044c\u043a\u0430 \u043e\u0431\u043b\u0430\u0441\u0442\u044c", "region_en": "Chernivtsi region"}, {"name_ru": "\u041d\u043e\u0432\u043e\u0434\u0440\u0443\u0436\u0435\u0441\u043a", "name_uk": "\u041d\u043e\u0432\u043e\u0434\u0440\u0443\u0436\u0435\u0441\u044c\u043a", "name_en": "Novodruzhesk", "region_ru": "\u041b\u0443\u0433\u0430\u043d\u0441\u043a\u0430\u044f \u043e\u0431\u043b\u0430\u0441\u0442\u044c", "region_uk": "\u041b\u0443\u0433\u0430\u043d\u0441\u044c\u043a\u0430 \u043e\u0431\u043b\u0430\u0441\u0442\u044c", "region_en": "Lugansk region"}, {"name_ru": "\u041d\u043e\u0432\u043e\u043c\u0438\u0440\u0433\u043e\u0440\u043e\u0434", "name_uk": "\u041d\u043e\u0432\u043e\u043c\u0438\u0440\u0433\u043e\u0440\u043e\u0434", "name_en": "Novomirgorod", "region_ru": "\u041a\u0438\u0440\u043e\u0432\u043e\u0433\u0440\u0430\u0434\u0441\u043a\u0430\u044f \u043e\u0431\u043b\u0430\u0441\u0442\u044c", "region_uk": "\u041a\u0456\u0440\u043e\u0432\u043e\u0433\u0440\u0430\u0434\u0441\u044c\u043a\u0430 \u043e\u0431\u043b\u0430\u0441\u0442\u044c", "region_en": "Kirovograd region"}, {"name_ru": "\u041d\u043e\u0432\u043e\u043c\u043e\u0441\u043a\u043e\u0432\u0441\u043a", "name_uk": "\u041d\u043e\u0432\u043e\u043c\u043e\u0441\u043a\u043e\u0432\u0441\u044c\u043a", "name_en": "Novomoskovsk", "region_ru": "\u0414\u043d\u0435\u043f\u0440\u043e\u043f\u0435\u0442\u0440\u043e\u0432\u0441\u043a\u0430\u044f \u043e\u0431\u043b\u0430\u0441\u0442\u044c", "region_uk": "\u0414\u043d\u0456\u043f\u0440\u043e\u043f\u0435\u0442\u0440\u043e\u0432\u0441\u044c\u043a\u0430 \u043e\u0431\u043b\u0430\u0441\u0442\u044c", "region_en": "Dnipropetrovsk region"}, {"name_ru": "\u041d\u043e\u0432\u043e\u0441\u0435\u043b\u0438\u0446\u0430", "name_uk": "\u041d\u043e\u0432\u043e\u0441\u0435\u043b\u0438\u0446\u044f", "name_en": "Novoselitsa", "region_ru": "\u0427\u0435\u0440\u043d\u043e\u0432\u0438\u0446\u043a\u0430\u044f \u043e\u0431\u043b\u0430\u0441\u0442\u044c", "region_uk": "\u0427\u0435\u0440\u043d\u0456\u0432\u0435\u0446\u044c\u043a\u0430 \u043e\u0431\u043b\u0430\u0441\u0442\u044c", "region_en": "Chernivtsi region"}, {"name_ru": "\u041d\u043e\u0432\u043e\u0443\u043a\u0440\u0430\u0438\u043d\u043a\u0430", "name_uk": "\u041d\u043e\u0432\u043e\u0443\u043a\u0440\u0430\u0457\u043d\u043a\u0430", "name_en": "Novoukrainka", "region_ru": "\u041a\u0438\u0440\u043e\u0432\u043e\u0433\u0440\u0430\u0434\u0441\u043a\u0430\u044f \u043e\u0431\u043b\u0430\u0441\u0442\u044c", "region_uk": "\u041a\u0456\u0440\u043e\u0432\u043e\u0433\u0440\u0430\u0434\u0441\u044c\u043a\u0430 \u043e\u0431\u043b\u0430\u0441\u0442\u044c", "region_en": "Kirovograd region"}, {"name_ru": "\u041d\u043e\u0432\u043e\u044f\u0432\u043e\u0440\u043e\u0432\u0441\u043a", "name_uk": "\u041d\u043e\u0432\u043e\u044f\u0432\u043e\u0440\u0456\u0432\u0441\u044c\u043a", "name_en": "Novoyavorivsk", "region_ru": "\u041b\u044c\u0432\u043e\u0432\u0441\u043a\u0430\u044f \u043e\u0431\u043b\u0430\u0441\u0442\u044c", "region_uk": "\u041b\u044c\u0432\u0456\u0432\u0441\u044c\u043a\u0430 \u043e\u0431\u043b\u0430\u0441\u0442\u044c", "region_en": "Lviv region"}, {"name_ru": "\u041d\u043e\u0432\u044b\u0439 \u0411\u0443\u0433", "name_uk": "\u041d\u043e\u0432\u0438\u0439 \u0411\u0443\u0433", "name_en": "New Bug", "region_ru": "\u041d\u0438\u043a\u043e\u043b\u0430\u0435\u0432\u0441\u043a\u0430\u044f \u043e\u0431\u043b\u0430\u0441\u0442\u044c", "region_uk": "\u041c\u0438\u043a\u043e\u043b\u0430\u0457\u0432\u0441\u044c\u043a\u0430 \u043e\u0431\u043b\u0430\u0441\u0442\u044c", "region_en": "Nikolaevkskaya area"}, {"name_ru": "\u041d\u043e\u0432\u044b\u0439 \u041a\u0430\u043b\u0438\u043d\u043e\u0432", "name_uk": "\u041d\u043e\u0432\u0438\u0439 \u041a\u0430\u043b\u0438\u043d\u0456\u0432", "name_en": "New Kalinov", "region_ru": "\u041b\u044c\u0432\u043e\u0432\u0441\u043a\u0430\u044f \u043e\u0431\u043b\u0430\u0441\u0442\u044c", "region_uk": "\u041b\u044c\u0432\u0456\u0432\u0441\u044c\u043a\u0430 \u043e\u0431\u043b\u0430\u0441\u0442\u044c", "region_en": "Lviv region"}, {"name_ru": "\u041d\u043e\u0432\u044b\u0439 \u0420\u043e\u0437\u0434\u043e\u043b", "name_uk": "\u041d\u043e\u0432\u0438\u0439 \u0420\u043e\u0437\u0434\u0456\u043b", "name_en": "New Rozdol", "region_ru": "\u041b\u044c\u0432\u043e\u0432\u0441\u043a\u0430\u044f \u043e\u0431\u043b\u0430\u0441\u0442\u044c", "region_uk": "\u041b\u044c\u0432\u0456\u0432\u0441\u044c\u043a\u0430 \u043e\u0431\u043b\u0430\u0441\u0442\u044c", "region_en": "Lviv region"}, {"name_ru": "\u041d\u043e\u0441\u043e\u0432\u043a\u0430", "name_uk": "\u041d\u043e\u0441\u0456\u0432\u043a\u0430", "name_en": "Nosovka", "region_ru": "\u0427\u0435\u0440\u043d\u0438\u0433\u043e\u0432\u0441\u043a\u0430\u044f \u043e\u0431\u043b\u0430\u0441\u0442\u044c", "region_uk": "\u0427\u0435\u0440\u043d\u0456\u0433\u0456\u0432\u0441\u044c\u043a\u0430 \u043e\u0431\u043b\u0430\u0441\u0442\u044c", "region_en": "Chernihiv region"}, {"name_ru": "\u041e\u0431\u0443\u0445\u043e\u0432", "name_uk": "\u041e\u0431\u0443\u0445\u0456\u0432", "name_en": "Obukhov", "region_ru": "\u041a\u0438\u0435\u0432\u0441\u043a\u0430\u044f \u043e\u0431\u043b\u0430\u0441\u0442\u044c", "region_uk": "\u041a\u0438\u0457\u0432\u0441\u044c\u043a\u0430 \u043e\u0431\u043b\u0430\u0441\u0442\u044c", "region_en": "Kyiv region"}, {"name_ru": "\u041e\u0432\u0440\u0443\u0447", "name_uk": "\u041e\u0432\u0440\u0443\u0447", "name_en": "Ovruch", "region_ru": "\u0416\u0438\u0442\u043e\u043c\u0438\u0440\u0441\u043a\u0430\u044f \u043e\u0431\u043b\u0430\u0441\u0442\u044c", "region_uk": "\u0416\u0438\u0442\u043e\u043c\u0438\u0440\u0441\u044c\u043a\u0430 \u043e\u0431\u043b\u0430\u0441\u0442\u044c", "region_en": "Zhytomyr Oblast"}, {"name_ru": "\u041e\u0434\u0435\u0441\u0441\u0430", "name_uk": "\u041e\u0434\u0435\u0441\u0430", "name_en": "Odessa", "region_ru": "\u041e\u0434\u0435\u0441\u0441\u043a\u0430\u044f \u043e\u0431\u043b\u0430\u0441\u0442\u044c", "region_uk": "\u041e\u0434\u0435\u0441\u044c\u043a\u0430 \u043e\u0431\u043b\u0430\u0441\u0442\u044c", "region_en": "Odessa region"}, {"name_ru": "\u041e\u043b\u0435\u0432\u0441\u043a", "name_uk": "\u041e\u043b\u0435\u0432\u0441\u044c\u043a", "name_en": "Olevsk", "region_ru": "\u0416\u0438\u0442\u043e\u043c\u0438\u0440\u0441\u043a\u0430\u044f \u043e\u0431\u043b\u0430\u0441\u0442\u044c", "region_uk": "\u0416\u0438\u0442\u043e\u043c\u0438\u0440\u0441\u044c\u043a\u0430 \u043e\u0431\u043b\u0430\u0441\u0442\u044c", "region_en": "Zhytomyr Oblast"}, {"name_ru": "\u041e\u0440\u0435\u0445\u043e\u0432", "name_uk": "\u041e\u0440\u0456\u0445\u0456\u0432", "name_en": "Orekhov", "region_ru": "\u0417\u0430\u043f\u043e\u0440\u043e\u0436\u0441\u043a\u0430\u044f \u043e\u0431\u043b\u0430\u0441\u0442\u044c", "region_uk": "\u0417\u0430\u043f\u043e\u0440\u0456\u0437\u044c\u043a\u0430 \u043e\u0431\u043b\u0430\u0441\u0442\u044c", "region_en": "Zaporozhye region"}, {"name_ru": "\u041e\u0441\u0442\u0451\u0440", "name_uk": "\u041e\u0441\u0442\u0435\u0440", "name_en": "Oster", "region_ru": "\u0427\u0435\u0440\u043d\u0438\u0433\u043e\u0432\u0441\u043a\u0430\u044f \u043e\u0431\u043b\u0430\u0441\u0442\u044c", "region_uk": "\u0427\u0435\u0440\u043d\u0456\u0433\u0456\u0432\u0441\u044c\u043a\u0430 \u043e\u0431\u043b\u0430\u0441\u0442\u044c", "region_en": "Chernihiv region"}, {"name_ru": "\u041e\u0441\u0442\u0440\u043e\u0433", "name_uk": "\u041e\u0441\u0442\u0440\u043e\u0433", "name_en": "Prison", "region_ru": "\u0420\u043e\u0432\u043d\u0435\u043d\u0441\u043a\u0430\u044f \u043e\u0431\u043b\u0430\u0441\u0442\u044c", "region_uk": "\u0420\u0456\u0432\u043d\u0435\u043d\u0441\u044c\u043a\u0430 \u043e\u0431\u043b\u0430\u0441\u0442\u044c", "region_en": "Rivne region"}, {"name_ru": "\u041f\u0430\u0432\u043b\u043e\u0433\u0440\u0430\u0434", "name_uk": "\u041f\u0430\u0432\u043b\u043e\u0433\u0440\u0430\u0434", "name_en": "Pavlograd", "region_ru": "\u0414\u043d\u0435\u043f\u0440\u043e\u043f\u0435\u0442\u0440\u043e\u0432\u0441\u043a\u0430\u044f \u043e\u0431\u043b\u0430\u0441\u0442\u044c", "region_uk": "\u0414\u043d\u0456\u043f\u0440\u043e\u043f\u0435\u0442\u0440\u043e\u0432\u0441\u044c\u043a\u0430 \u043e\u0431\u043b\u0430\u0441\u0442\u044c", "region_en": "Dnipropetrovsk region"}, {"name_ru": "\u041f\u0435\u0440\u0432\u043e\u043c\u0430\u0439\u0441\u043a", "name_uk": "\u041f\u0435\u0440\u0432\u043e\u043c\u0430\u0439\u0441\u044c\u043a", "name_en": "Pervomaisk", "region_ru": "\u041b\u0443\u0433\u0430\u043d\u0441\u043a\u0430\u044f \u043e\u0431\u043b\u0430\u0441\u0442\u044c", "region_uk": "\u041b\u0443\u0433\u0430\u043d\u0441\u044c\u043a\u0430 \u043e\u0431\u043b\u0430\u0441\u0442\u044c", "region_en": "Lugansk region"}, {"name_ru": "\u041f\u0435\u0440\u0432\u043e\u043c\u0430\u0439\u0441\u043a", "name_uk": "\u041f\u0435\u0440\u0432\u043e\u043c\u0430\u0439\u0441\u044c\u043a", "name_en": "Pervomaisk", "region_ru": "\u041d\u0438\u043a\u043e\u043b\u0430\u0435\u0432\u0441\u043a\u0430\u044f \u043e\u0431\u043b\u0430\u0441\u0442\u044c", "region_uk": "\u041c\u0438\u043a\u043e\u043b\u0430\u0457\u0432\u0441\u044c\u043a\u0430 \u043e\u0431\u043b\u0430\u0441\u0442\u044c", "region_en": "Nikolaevkskaya area"}, {"name_ru": "\u041f\u0435\u0440\u0432\u043e\u043c\u0430\u0439\u0441\u043a\u0438\u0439", "name_uk": "\u041f\u0435\u0440\u0432\u043e\u043c\u0430\u0439\u0441\u044c\u043a\u0438\u0439", "name_en": "Pervomaisky", "region_ru": "\u0425\u0430\u0440\u044c\u043a\u043e\u0432\u0441\u043a\u0430\u044f \u043e\u0431\u043b\u0430\u0441\u0442\u044c", "region_uk": "\u0425\u0430\u0440\u043a\u0456\u0432\u0441\u044c\u043a\u0430 \u043e\u0431\u043b\u0430\u0441\u0442\u044c", "region_en": "Kharkov region"}, {"name_ru": "\u041f\u0435\u0440\u0435\u0432\u0430\u043b\u044c\u0441\u043a", "name_uk": "\u041f\u0435\u0440\u0435\u0432\u0430\u043b\u044c\u0441\u044c\u043a", "name_en": "Perevalsk", "region_ru": "\u041b\u0443\u0433\u0430\u043d\u0441\u043a\u0430\u044f \u043e\u0431\u043b\u0430\u0441\u0442\u044c", "region_uk": "\u041b\u0443\u0433\u0430\u043d\u0441\u044c\u043a\u0430 \u043e\u0431\u043b\u0430\u0441\u0442\u044c", "region_en": "Lugansk region"}, {"name_ru": "\u041f\u0435\u0440\u0435\u043c\u044b\u0448\u043b\u044f\u043d\u044b", "name_uk": "\u041f\u0435\u0440\u0435\u043c\u0438\u0448\u043b\u044f\u043d\u0438", "name_en": "Przemyshlyany", "region_ru": "\u041b\u044c\u0432\u043e\u0432\u0441\u043a\u0430\u044f \u043e\u0431\u043b\u0430\u0441\u0442\u044c", "region_uk": "\u041b\u044c\u0432\u0456\u0432\u0441\u044c\u043a\u0430 \u043e\u0431\u043b\u0430\u0441\u0442\u044c", "region_en": "Lviv region"}, {"name_ru": "\u041f\u0435\u0440\u0435\u0447\u0438\u043d", "name_uk": "\u041f\u0435\u0440\u0435\u0447\u0438\u043d", "name_en": "Perechyn", "region_ru": "\u0417\u0430\u043a\u0430\u0440\u043f\u0430\u0442\u0441\u043a\u0430\u044f \u043e\u0431\u043b\u0430\u0441\u0442\u044c", "region_uk": "\u0417\u0430\u043a\u0430\u0440\u043f\u0430\u0442\u0441\u044c\u043a\u0430 \u043e\u0431\u043b\u0430\u0441\u0442\u044c", "region_en": "Transcarpathian region"}, {"name_ru": "\u041f\u0435\u0440\u0435\u0449\u0435\u043f\u0438\u043d\u043e", "name_uk": "\u041f\u0435\u0440\u0435\u0449\u0435\u043f\u0438\u043d\u0435", "name_en": "Pereshchepino", "region_ru": "\u0414\u043d\u0435\u043f\u0440\u043e\u043f\u0435\u0442\u0440\u043e\u0432\u0441\u043a\u0430\u044f \u043e\u0431\u043b\u0430\u0441\u0442\u044c", "region_uk": "\u0414\u043d\u0456\u043f\u0440\u043e\u043f\u0435\u0442\u0440\u043e\u0432\u0441\u044c\u043a\u0430 \u043e\u0431\u043b\u0430\u0441\u0442\u044c", "region_en": "Dnipropetrovsk region"}, {"name_ru": "\u041f\u0435\u0440\u0435\u044f\u0441\u043b\u0430\u0432", "name_uk": "\u041f\u0435\u0440\u0435\u044f\u0441\u043b\u0430\u0432", "name_en": "Pereyaslav", "region_ru": "\u041a\u0438\u0435\u0432\u0441\u043a\u0430\u044f \u043e\u0431\u043b\u0430\u0441\u0442\u044c", "region_uk": "\u041a\u0438\u0457\u0432\u0441\u044c\u043a\u0430 \u043e\u0431\u043b\u0430\u0441\u0442\u044c", "region_en": "Kyiv region"}, {"name_ru": "\u041f\u0435\u0440\u0448\u043e\u0442\u0440\u0430\u0432\u0435\u043d\u0441\u043a", "name_uk": "\u041f\u0435\u0440\u0448\u043e\u0442\u0440\u0430\u0432\u0435\u043d\u0441\u044c\u043a", "name_en": "Pershotravensk", "region_ru": "\u0414\u043d\u0435\u043f\u0440\u043e\u043f\u0435\u0442\u0440\u043e\u0432\u0441\u043a\u0430\u044f \u043e\u0431\u043b\u0430\u0441\u0442\u044c", "region_uk": "\u0414\u043d\u0456\u043f\u0440\u043e\u043f\u0435\u0442\u0440\u043e\u0432\u0441\u044c\u043a\u0430 \u043e\u0431\u043b\u0430\u0441\u0442\u044c", "region_en": "Dnipropetrovsk region"}, {"name_ru": "\u041f\u0435\u0442\u0440\u043e\u0432\u043e-\u041a\u0440\u0430\u0441\u043d\u043e\u0441\u0435\u043b\u044c\u0435", "name_uk": "\u041f\u0435\u0442\u0440\u043e\u0432\u043e-\u041a\u0440\u0430\u0441\u043d\u043e\u0441\u0456\u043b\u043b\u044f", "name_en": "Petrovo-Krasnoselye", "region_ru": "\u041b\u0443\u0433\u0430\u043d\u0441\u043a\u0430\u044f \u043e\u0431\u043b\u0430\u0441\u0442\u044c", "region_uk": "\u041b\u0443\u0433\u0430\u043d\u0441\u044c\u043a\u0430 \u043e\u0431\u043b\u0430\u0441\u0442\u044c", "region_en": "Lugansk region"}, {"name_ru": "\u041f\u0438\u0432\u0434\u0435\u043d\u043d\u043e\u0435", "name_uk": "\u041f\u0456\u0432\u0434\u0435\u043d\u043d\u0435", "name_en": "Pivdenny", "region_ru": "\u0425\u0430\u0440\u044c\u043a\u043e\u0432\u0441\u043a\u0430\u044f \u043e\u0431\u043b\u0430\u0441\u0442\u044c", "region_uk": "\u0425\u0430\u0440\u043a\u0456\u0432\u0441\u044c\u043a\u0430 \u043e\u0431\u043b\u0430\u0441\u0442\u044c", "region_en": "Kharkov region"}, {"name_ru": "\u041f\u0438\u0440\u044f\u0442\u0438\u043d", "name_uk": "\u041f\u0438\u0440\u044f\u0442\u0438\u043d", "name_en": "Piryatin", "region_ru": "\u041f\u043e\u043b\u0442\u0430\u0432\u0441\u043a\u0430\u044f \u043e\u0431\u043b\u0430\u0441\u0442\u044c", "region_uk": "\u041f\u043e\u043b\u0442\u0430\u0432\u0441\u044c\u043a\u0430 \u043e\u0431\u043b\u0430\u0441\u0442\u044c", "region_en": "Poltava region"}, {"name_ru": "\u041f\u043e\u0433\u0440\u0435\u0431\u0438\u0449\u0435", "name_uk": "\u041f\u043e\u0433\u0440\u0435\u0431\u0438\u0449\u0435", "name_en": "burial ground", "region_ru": "\u0412\u0438\u043d\u043d\u0438\u0446\u043a\u0430\u044f \u043e\u0431\u043b\u0430\u0441\u0442\u044c", "region_uk": "\u0412\u0456\u043d\u043d\u0438\u0446\u044c\u043a\u0430 \u043e\u0431\u043b\u0430\u0441\u0442\u044c", "region_en": "Vinnytsia region"}, {"name_ru": "\u041f\u043e\u0434\u0433\u0430\u0439\u0446\u044b", "name_uk": "\u041f\u0456\u0434\u0433\u0430\u0439\u0446\u0456", "name_en": "Podgaytsy", "region_ru": "\u0422\u0435\u0440\u043d\u043e\u043f\u043e\u043b\u044c\u0441\u043a\u0430\u044f \u043e\u0431\u043b\u0430\u0441\u0442\u044c", "region_uk": "\u0422\u0435\u0440\u043d\u043e\u043f\u0456\u043b\u044c\u0441\u044c\u043a\u0430 \u043e\u0431\u043b\u0430\u0441\u0442\u044c", "region_en": "Ternopil region"}, {"name_ru": "\u041f\u043e\u0434\u0433\u043e\u0440\u043e\u0434\u043d\u043e\u0435", "name_uk": "\u041f\u0456\u0434\u0433\u043e\u0440\u043e\u0434\u043d\u0435", "name_en": "Podgorodnoe", "region_ru": "\u0414\u043d\u0435\u043f\u0440\u043e\u043f\u0435\u0442\u0440\u043e\u0432\u0441\u043a\u0430\u044f \u043e\u0431\u043b\u0430\u0441\u0442\u044c", "region_uk": "\u0414\u043d\u0456\u043f\u0440\u043e\u043f\u0435\u0442\u0440\u043e\u0432\u0441\u044c\u043a\u0430 \u043e\u0431\u043b\u0430\u0441\u0442\u044c", "region_en": "Dnipropetrovsk region"}, {"name_ru": "\u041f\u043e\u0434\u043e\u043b\u044c\u0441\u043a", "name_uk": "\u041f\u043e\u0434\u0456\u043b\u044c\u0441\u044c\u043a", "name_en": "Podolsk", "region_ru": "\u041e\u0434\u0435\u0441\u0441\u043a\u0430\u044f \u043e\u0431\u043b\u0430\u0441\u0442\u044c", "region_uk": "\u041e\u0434\u0435\u0441\u044c\u043a\u0430 \u043e\u0431\u043b\u0430\u0441\u0442\u044c", "region_en": "Odessa region"}, {"name_ru": "\u041f\u043e\u043a\u0440\u043e\u0432", "name_uk": "\u041f\u043e\u043a\u0440\u043e\u0432", "name_en": "Cover", "region_ru": "\u0414\u043d\u0435\u043f\u0440\u043e\u043f\u0435\u0442\u0440\u043e\u0432\u0441\u043a\u0430\u044f \u043e\u0431\u043b\u0430\u0441\u0442\u044c", "region_uk": "\u0414\u043d\u0456\u043f\u0440\u043e\u043f\u0435\u0442\u0440\u043e\u0432\u0441\u044c\u043a\u0430 \u043e\u0431\u043b\u0430\u0441\u0442\u044c", "region_en": "Dnipropetrovsk region"}, {"name_ru": "\u041f\u043e\u043a\u0440\u043e\u0432\u0441\u043a", "name_uk": "\u041f\u043e\u043a\u0440\u043e\u0432\u0441\u044c\u043a", "name_en": "Pokrovsk", "region_ru": "\u0414\u043e\u043d\u0435\u0446\u043a\u0430\u044f \u043e\u0431\u043b\u0430\u0441\u0442\u044c", "region_uk": "\u0414\u043e\u043d\u0435\u0446\u044c\u043a\u0430 \u043e\u0431\u043b\u0430\u0441\u0442\u044c", "region_en": "Donetsk region"}, {"name_ru": "\u041f\u043e\u043b\u043e\u0433\u0438", "name_uk": "\u041f\u043e\u043b\u043e\u0433\u0438", "name_en": "Canopies", "region_ru": "\u0417\u0430\u043f\u043e\u0440\u043e\u0436\u0441\u043a\u0430\u044f \u043e\u0431\u043b\u0430\u0441\u0442\u044c", "region_uk": "\u0417\u0430\u043f\u043e\u0440\u0456\u0437\u044c\u043a\u0430 \u043e\u0431\u043b\u0430\u0441\u0442\u044c", "region_en": "Zaporozhye region"}, {"name_ru": "\u041f\u043e\u043b\u043e\u043d\u043d\u043e\u0435", "name_uk": "\u041f\u043e\u043b\u043e\u043d\u043d\u0435", "name_en": "full", "region_ru": "\u0425\u043c\u0435\u043b\u044c\u043d\u0438\u0446\u043a\u0430\u044f \u043e\u0431\u043b\u0430\u0441\u0442\u044c", "region_uk": "\u0425\u043c\u0435\u043b\u044c\u043d\u0438\u0446\u044c\u043a\u0430 \u043e\u0431\u043b\u0430\u0441\u0442\u044c", "region_en": "Khmelnitsky region"}, {"name_ru": "\u041f\u043e\u043b\u0442\u0430\u0432\u0430", "name_uk": "\u041f\u043e\u043b\u0442\u0430\u0432\u0430", "name_en": "Poltava", "region_ru": "\u041f\u043e\u043b\u0442\u0430\u0432\u0441\u043a\u0430\u044f \u043e\u0431\u043b\u0430\u0441\u0442\u044c", "region_uk": "\u041f\u043e\u043b\u0442\u0430\u0432\u0441\u044c\u043a\u0430 \u043e\u0431\u043b\u0430\u0441\u0442\u044c", "region_en": "Poltava region"}, {"name_ru": "\u041f\u043e\u043c\u043e\u0448\u043d\u0430\u044f", "name_uk": "\u041f\u043e\u043c\u0456\u0447\u043d\u0430", "name_en": "helper", "region_ru": "\u041a\u0438\u0440\u043e\u0432\u043e\u0433\u0440\u0430\u0434\u0441\u043a\u0430\u044f \u043e\u0431\u043b\u0430\u0441\u0442\u044c", "region_uk": "\u041a\u0456\u0440\u043e\u0432\u043e\u0433\u0440\u0430\u0434\u0441\u044c\u043a\u0430 \u043e\u0431\u043b\u0430\u0441\u0442\u044c", "region_en": "Kirovograd region"}, {"name_ru": "\u041f\u043e\u043f\u0430\u0441\u043d\u0430\u044f", "name_uk": "\u041f\u043e\u043f\u0430\u0441\u043d\u0430", "name_en": "popasnaya", "region_ru": "\u041b\u0443\u0433\u0430\u043d\u0441\u043a\u0430\u044f \u043e\u0431\u043b\u0430\u0441\u0442\u044c", "region_uk": "\u041b\u0443\u0433\u0430\u043d\u0441\u044c\u043a\u0430 \u043e\u0431\u043b\u0430\u0441\u0442\u044c", "region_en": "Lugansk region"}, {"name_ru": "\u041f\u043e\u0447\u0430\u0435\u0432", "name_uk": "\u041f\u043e\u0447\u0430\u0457\u0432", "name_en": "Pochaev", "region_ru": "\u0422\u0435\u0440\u043d\u043e\u043f\u043e\u043b\u044c\u0441\u043a\u0430\u044f \u043e\u0431\u043b\u0430\u0441\u0442\u044c", "region_uk": "\u0422\u0435\u0440\u043d\u043e\u043f\u0456\u043b\u044c\u0441\u044c\u043a\u0430 \u043e\u0431\u043b\u0430\u0441\u0442\u044c", "region_en": "Ternopil region"}, {"name_ru": "\u041f\u0440\u0438\u0432\u043e\u043b\u044c\u0435", "name_uk": "\u041f\u0440\u0438\u0432\u0456\u043b\u043b\u044f", "name_en": "Privolye", "region_ru": "\u041b\u0443\u0433\u0430\u043d\u0441\u043a\u0430\u044f \u043e\u0431\u043b\u0430\u0441\u0442\u044c", "region_uk": "\u041b\u0443\u0433\u0430\u043d\u0441\u044c\u043a\u0430 \u043e\u0431\u043b\u0430\u0441\u0442\u044c", "region_en": "Lugansk region"}, {"name_ru": "\u041f\u0440\u0438\u043b\u0443\u043a\u0438", "name_uk": "\u041f\u0440\u0438\u043b\u0443\u043a\u0438", "name_en": "Pryluky", "region_ru": "\u0427\u0435\u0440\u043d\u0438\u0433\u043e\u0432\u0441\u043a\u0430\u044f \u043e\u0431\u043b\u0430\u0441\u0442\u044c", "region_uk": "\u0427\u0435\u0440\u043d\u0456\u0433\u0456\u0432\u0441\u044c\u043a\u0430 \u043e\u0431\u043b\u0430\u0441\u0442\u044c", "region_en": "Chernihiv region"}, {"name_ru": "\u041f\u0440\u0438\u043c\u043e\u0440\u0441\u043a", "name_uk": "\u041f\u0440\u0438\u043c\u043e\u0440\u0441\u044c\u043a", "name_en": "Primorsk", "region_ru": "\u0417\u0430\u043f\u043e\u0440\u043e\u0436\u0441\u043a\u0430\u044f \u043e\u0431\u043b\u0430\u0441\u0442\u044c", "region_uk": "\u0417\u0430\u043f\u043e\u0440\u0456\u0437\u044c\u043a\u0430 \u043e\u0431\u043b\u0430\u0441\u0442\u044c", "region_en": "Zaporozhye region"}, {"name_ru": "\u041f\u0440\u0438\u043f\u044f\u0442\u044c", "name_uk": "\u041f\u0440\u0438\u043f\u2019\u044f\u0442\u044c", "name_en": "Pripyat", "region_ru": "\u041a\u0438\u0435\u0432\u0441\u043a\u0430\u044f \u043e\u0431\u043b\u0430\u0441\u0442\u044c", "region_uk": "\u041a\u0438\u0457\u0432\u0441\u044c\u043a\u0430 \u043e\u0431\u043b\u0430\u0441\u0442\u044c", "region_en": "Kyiv region"}, {"name_ru": "\u041f\u0443\u0441\u0442\u043e\u043c\u044b\u0442\u044b", "name_uk": "\u041f\u0443\u0441\u0442\u043e\u043c\u0438\u0442\u0438", "name_en": "Hollow-washers", "region_ru": "\u041b\u044c\u0432\u043e\u0432\u0441\u043a\u0430\u044f \u043e\u0431\u043b\u0430\u0441\u0442\u044c", "region_uk": "\u041b\u044c\u0432\u0456\u0432\u0441\u044c\u043a\u0430 \u043e\u0431\u043b\u0430\u0441\u0442\u044c", "region_en": "Lviv region"}, {"name_ru": "\u041f\u0443\u0442\u0438\u0432\u043b\u044c", "name_uk": "\u041f\u0443\u0442\u0438\u0432\u043b\u044c", "name_en": "Putivl", "region_ru": "\u0421\u0443\u043c\u0441\u043a\u0430\u044f \u043e\u0431\u043b\u0430\u0441\u0442\u044c", "region_uk": "\u0421\u0443\u043c\u0441\u044c\u043a\u0430 \u043e\u0431\u043b\u0430\u0441\u0442\u044c", "region_en": "Sumy region"}, {"name_ru": "\u041f\u044f\u0442\u0438\u0445\u0430\u0442\u043a\u0438", "name_uk": "\u041f\u2019\u044f\u0442\u0438\u0445\u0430\u0442\u043a\u0438", "name_en": "Pyatikhatki", "region_ru": "\u0414\u043d\u0435\u043f\u0440\u043e\u043f\u0435\u0442\u0440\u043e\u0432\u0441\u043a\u0430\u044f \u043e\u0431\u043b\u0430\u0441\u0442\u044c", "region_uk": "\u0414\u043d\u0456\u043f\u0440\u043e\u043f\u0435\u0442\u0440\u043e\u0432\u0441\u044c\u043a\u0430 \u043e\u0431\u043b\u0430\u0441\u0442\u044c", "region_en": "Dnipropetrovsk region"}, {"name_ru": "\u0420\u0430\u0432\u0430-\u0420\u0443\u0441\u0441\u043a\u0430\u044f", "name_uk": "\u0420\u0430\u0432\u0430-\u0420\u0443\u0441\u044c\u043a\u0430", "name_en": "Rava-Russian", "region_ru": "\u041b\u044c\u0432\u043e\u0432\u0441\u043a\u0430\u044f \u043e\u0431\u043b\u0430\u0441\u0442\u044c", "region_uk": "\u041b\u044c\u0432\u0456\u0432\u0441\u044c\u043a\u0430 \u043e\u0431\u043b\u0430\u0441\u0442\u044c", "region_en": "Lviv region"}, {"name_ru": "\u0420\u0430\u0434\u0435\u0445\u043e\u0432", "name_uk": "\u0420\u0430\u0434\u0435\u0445\u0456\u0432", "name_en": "Radekhov", "region_ru": "\u041b\u044c\u0432\u043e\u0432\u0441\u043a\u0430\u044f \u043e\u0431\u043b\u0430\u0441\u0442\u044c", "region_uk": "\u041b\u044c\u0432\u0456\u0432\u0441\u044c\u043a\u0430 \u043e\u0431\u043b\u0430\u0441\u0442\u044c", "region_en": "Lviv region"}, {"name_ru": "\u0420\u0430\u0434\u0438\u0432\u0438\u043b\u043e\u0432", "name_uk": "\u0420\u0430\u0434\u0438\u0432\u0438\u043b\u0456\u0432", "name_en": "Radivilov", "region_ru": "\u0420\u043e\u0432\u043d\u0435\u043d\u0441\u043a\u0430\u044f \u043e\u0431\u043b\u0430\u0441\u0442\u044c", "region_uk": "\u0420\u0456\u0432\u043d\u0435\u043d\u0441\u044c\u043a\u0430 \u043e\u0431\u043b\u0430\u0441\u0442\u044c", "region_en": "Rivne region"}, {"name_ru": "\u0420\u0430\u0434\u043e\u043c\u044b\u0448\u043b\u044c", "name_uk": "\u0420\u0430\u0434\u043e\u043c\u0438\u0448\u043b\u044c", "name_en": "Radomyshl", "region_ru": "\u0416\u0438\u0442\u043e\u043c\u0438\u0440\u0441\u043a\u0430\u044f \u043e\u0431\u043b\u0430\u0441\u0442\u044c", "region_uk": "\u0416\u0438\u0442\u043e\u043c\u0438\u0440\u0441\u044c\u043a\u0430 \u043e\u0431\u043b\u0430\u0441\u0442\u044c", "region_en": "Zhytomyr Oblast"}, {"name_ru": "\u0420\u0430\u0437\u0434\u0435\u043b\u044c\u043d\u0430\u044f", "name_uk": "\u0420\u043e\u0437\u0434\u0456\u043b\u044c\u043d\u0430", "name_en": "Separate", "region_ru": "\u041e\u0434\u0435\u0441\u0441\u043a\u0430\u044f \u043e\u0431\u043b\u0430\u0441\u0442\u044c", "region_uk": "\u041e\u0434\u0435\u0441\u044c\u043a\u0430 \u043e\u0431\u043b\u0430\u0441\u0442\u044c", "region_en": "Odessa region"}, {"name_ru": "\u0420\u0430\u0445\u043e\u0432", "name_uk": "\u0420\u0430\u0445\u0456\u0432", "name_en": "Rakhiv", "region_ru": "\u0417\u0430\u043a\u0430\u0440\u043f\u0430\u0442\u0441\u043a\u0430\u044f \u043e\u0431\u043b\u0430\u0441\u0442\u044c", "region_uk": "\u0417\u0430\u043a\u0430\u0440\u043f\u0430\u0442\u0441\u044c\u043a\u0430 \u043e\u0431\u043b\u0430\u0441\u0442\u044c", "region_en": "Transcarpathian region"}, {"name_ru": "\u0420\u0435\u043d\u0438", "name_uk": "\u0420\u0435\u043d\u0456", "name_en": "Reni", "region_ru": "\u041e\u0434\u0435\u0441\u0441\u043a\u0430\u044f \u043e\u0431\u043b\u0430\u0441\u0442\u044c", "region_uk": "\u041e\u0434\u0435\u0441\u044c\u043a\u0430 \u043e\u0431\u043b\u0430\u0441\u0442\u044c", "region_en": "Odessa region"}, {"name_ru": "\u0420\u0435\u0448\u0435\u0442\u0438\u043b\u043e\u0432\u043a\u0430", "name_uk": "\u0420\u0435\u0448\u0435\u0442\u0438\u043b\u0456\u0432\u043a\u0430", "name_en": "Reshetilovka", "region_ru": "\u041f\u043e\u043b\u0442\u0430\u0432\u0441\u043a\u0430\u044f \u043e\u0431\u043b\u0430\u0441\u0442\u044c", "region_uk": "\u041f\u043e\u043b\u0442\u0430\u0432\u0441\u044c\u043a\u0430 \u043e\u0431\u043b\u0430\u0441\u0442\u044c", "region_en": "Poltava region"}, {"name_ru": "\u0420\u0436\u0438\u0449\u0435\u0432", "name_uk": "\u0420\u0436\u0438\u0449\u0456\u0432", "name_en": "Rzhishchev", "region_ru": "\u041a\u0438\u0435\u0432\u0441\u043a\u0430\u044f \u043e\u0431\u043b\u0430\u0441\u0442\u044c", "region_uk": "\u041a\u0438\u0457\u0432\u0441\u044c\u043a\u0430 \u043e\u0431\u043b\u0430\u0441\u0442\u044c", "region_en": "Kyiv region"}, {"name_ru": "\u0420\u043e\u0432\u0435\u043d\u044c\u043a\u0438", "name_uk": "\u0420\u043e\u0432\u0435\u043d\u044c\u043a\u0438", "name_en": "Rovenky", "region_ru": "\u041b\u0443\u0433\u0430\u043d\u0441\u043a\u0430\u044f \u043e\u0431\u043b\u0430\u0441\u0442\u044c", "region_uk": "\u041b\u0443\u0433\u0430\u043d\u0441\u044c\u043a\u0430 \u043e\u0431\u043b\u0430\u0441\u0442\u044c", "region_en": "Lugansk region"}, {"name_ru": "\u0420\u043e\u0432\u043d\u043e", "name_uk": "\u0420\u0456\u0432\u043d\u0435", "name_en": "Smooth", "region_ru": "\u0420\u043e\u0432\u043d\u0435\u043d\u0441\u043a\u0430\u044f \u043e\u0431\u043b\u0430\u0441\u0442\u044c", "region_uk": "\u0420\u0456\u0432\u043d\u0435\u043d\u0441\u044c\u043a\u0430 \u043e\u0431\u043b\u0430\u0441\u0442\u044c", "region_en": "Rivne region"}, {"name_ru": "\u0420\u043e\u0433\u0430\u0442\u0438\u043d", "name_uk": "\u0420\u043e\u0433\u0430\u0442\u0438\u043d", "name_en": "Rogatin", "region_ru": "\u0418\u0432\u0430\u043d\u043e-\u0424\u0440\u0430\u043d\u043a\u043e\u0432\u0441\u043a\u0430\u044f \u043e\u0431\u043b\u0430\u0441\u0442\u044c", "region_uk": "\u0406\u0432\u0430\u043d\u043e-\u0424\u0440\u0430\u043d\u043a\u0456\u0432\u0441\u044c\u043a\u0430 \u043e\u0431\u043b\u0430\u0441\u0442\u044c", "region_en": "Ivano-Frankivsk region"}, {"name_ru": "\u0420\u043e\u0434\u0438\u043d\u0441\u043a\u043e\u0435", "name_uk": "\u0420\u043e\u0434\u0438\u043d\u0441\u044c\u043a\u0435", "name_en": "Rodinsky", "region_ru": "\u0414\u043e\u043d\u0435\u0446\u043a\u0430\u044f \u043e\u0431\u043b\u0430\u0441\u0442\u044c", "region_uk": "\u0414\u043e\u043d\u0435\u0446\u044c\u043a\u0430 \u043e\u0431\u043b\u0430\u0441\u0442\u044c", "region_en": "Donetsk region"}, {"name_ru": "\u0420\u043e\u0436\u0438\u0449\u0435", "name_uk": "\u0420\u043e\u0436\u0438\u0449\u0435", "name_en": "Rozhishche", "region_ru": "\u0412\u043e\u043b\u044b\u043d\u0441\u043a\u0430\u044f \u043e\u0431\u043b\u0430\u0441\u0442\u044c", "region_uk": "\u0412\u043e\u043b\u0438\u043d\u0441\u044c\u043a\u0430 \u043e\u0431\u043b\u0430\u0441\u0442\u044c", "region_en": "Volyn region"}, {"name_ru": "\u0420\u043e\u043c\u043d\u044b", "name_uk": "\u0420\u043e\u043c\u043d\u0438", "name_en": "Romny", "region_ru": "\u0421\u0443\u043c\u0441\u043a\u0430\u044f \u043e\u0431\u043b\u0430\u0441\u0442\u044c", "region_uk": "\u0421\u0443\u043c\u0441\u044c\u043a\u0430 \u043e\u0431\u043b\u0430\u0441\u0442\u044c", "region_en": "Sumy region"}, {"name_ru": "\u0420\u0443\u0431\u0435\u0436\u043d\u043e\u0435", "name_uk": "\u0420\u0443\u0431\u0456\u0436\u043d\u0435", "name_en": "Rubezhnoye", "region_ru": "\u041b\u0443\u0433\u0430\u043d\u0441\u043a\u0430\u044f \u043e\u0431\u043b\u0430\u0441\u0442\u044c", "region_uk": "\u041b\u0443\u0433\u0430\u043d\u0441\u044c\u043a\u0430 \u043e\u0431\u043b\u0430\u0441\u0442\u044c", "region_en": "Lugansk region"}, {"name_ru": "\u0420\u0443\u0434\u043a\u0438", "name_uk": "\u0420\u0443\u0434\u043a\u0438", "name_en": "Rudki", "region_ru": "\u041b\u044c\u0432\u043e\u0432\u0441\u043a\u0430\u044f \u043e\u0431\u043b\u0430\u0441\u0442\u044c", "region_uk": "\u041b\u044c\u0432\u0456\u0432\u0441\u044c\u043a\u0430 \u043e\u0431\u043b\u0430\u0441\u0442\u044c", "region_en": "Lviv region"}, {"name_ru": "\u0421\u0430\u043a\u0438", "name_uk": "\u0421\u0430\u043a\u0438", "name_en": "saki", "region_ru": "\u0410\u0432\u0442\u043e\u043d\u043e\u043c\u043d\u0430\u044f \u0420\u0435\u0441\u043f\u0443\u0431\u043b\u0438\u043a\u0430 \u041a\u0440\u044b\u043c", "region_uk": "\u0410\u0432\u0442\u043e\u043d\u043e\u043c\u043d\u0430 \u0420\u0435\u0441\u043f\u0443\u0431\u043b\u0456\u043a\u0430 \u041a\u0440\u0438\u043c", "region_en": "Autonomous Republic of Crimea"}, {"name_ru": "\u0421\u0430\u043c\u0431\u043e\u0440", "name_uk": "\u0421\u0430\u043c\u0431\u0456\u0440", "name_en": "Sambor", "region_ru": "\u041b\u044c\u0432\u043e\u0432\u0441\u043a\u0430\u044f \u043e\u0431\u043b\u0430\u0441\u0442\u044c", "region_uk": "\u041b\u044c\u0432\u0456\u0432\u0441\u044c\u043a\u0430 \u043e\u0431\u043b\u0430\u0441\u0442\u044c", "region_en": "Lviv region"}, {"name_ru": "\u0421\u0430\u0440\u043d\u044b", "name_uk": "\u0421\u0430\u0440\u043d\u0438", "name_en": "Sarny", "region_ru": "\u0420\u043e\u0432\u043d\u0435\u043d\u0441\u043a\u0430\u044f \u043e\u0431\u043b\u0430\u0441\u0442\u044c", "region_uk": "\u0420\u0456\u0432\u043d\u0435\u043d\u0441\u044c\u043a\u0430 \u043e\u0431\u043b\u0430\u0441\u0442\u044c", "region_en": "Rivne region"}, {"name_ru": "\u0421\u0432\u0430\u043b\u044f\u0432\u0430", "name_uk": "\u0421\u0432\u0430\u043b\u044f\u0432\u0430", "name_en": "Svalyava", "region_ru": "\u0417\u0430\u043a\u0430\u0440\u043f\u0430\u0442\u0441\u043a\u0430\u044f \u043e\u0431\u043b\u0430\u0441\u0442\u044c", "region_uk": "\u0417\u0430\u043a\u0430\u0440\u043f\u0430\u0442\u0441\u044c\u043a\u0430 \u043e\u0431\u043b\u0430\u0441\u0442\u044c", "region_en": "Transcarpathian region"}, {"name_ru": "\u0421\u0432\u0430\u0442\u043e\u0432\u043e", "name_uk": "\u0421\u0432\u0430\u0442\u043e\u0432\u0435", "name_en": "Svatovo", "region_ru": "\u041b\u0443\u0433\u0430\u043d\u0441\u043a\u0430\u044f \u043e\u0431\u043b\u0430\u0441\u0442\u044c", "region_uk": "\u041b\u0443\u0433\u0430\u043d\u0441\u044c\u043a\u0430 \u043e\u0431\u043b\u0430\u0441\u0442\u044c", "region_en": "Lugansk region"}, {"name_ru": "\u0421\u0432\u0435\u0442\u043b\u043e\u0432\u043e\u0434\u0441\u043a", "name_uk": "\u0421\u0432\u0456\u0442\u043b\u043e\u0432\u043e\u0434\u0441\u044c\u043a", "name_en": "Svetlovodsk", "region_ru": "\u041a\u0438\u0440\u043e\u0432\u043e\u0433\u0440\u0430\u0434\u0441\u043a\u0430\u044f \u043e\u0431\u043b\u0430\u0441\u0442\u044c", "region_uk": "\u041a\u0456\u0440\u043e\u0432\u043e\u0433\u0440\u0430\u0434\u0441\u044c\u043a\u0430 \u043e\u0431\u043b\u0430\u0441\u0442\u044c", "region_en": "Kirovograd region"}, {"name_ru": "\u0421\u0432\u0435\u0442\u043b\u043e\u0434\u0430\u0440\u0441\u043a", "name_uk": "\u0421\u0432\u0456\u0442\u043b\u043e\u0434\u0430\u0440\u0441\u044c\u043a", "name_en": "Svetlodarsk", "region_ru": "\u0414\u043e\u043d\u0435\u0446\u043a\u0430\u044f \u043e\u0431\u043b\u0430\u0441\u0442\u044c", "region_uk": "\u0414\u043e\u043d\u0435\u0446\u044c\u043a\u0430 \u043e\u0431\u043b\u0430\u0441\u0442\u044c", "region_en": "Donetsk region"}, {"name_ru": "\u0421\u0432\u044f\u0442\u043e\u0433\u043e\u0440\u0441\u043a", "name_uk": "\u0421\u0432\u044f\u0442\u043e\u0433\u0456\u0440\u0441\u044c\u043a", "name_en": "Svyatogorsk", "region_ru": "\u0414\u043e\u043d\u0435\u0446\u043a\u0430\u044f \u043e\u0431\u043b\u0430\u0441\u0442\u044c", "region_uk": "\u0414\u043e\u043d\u0435\u0446\u044c\u043a\u0430 \u043e\u0431\u043b\u0430\u0441\u0442\u044c", "region_en": "Donetsk region"}, {"name_ru": "\u0421\u0435\u0432\u0430\u0441\u0442\u043e\u043f\u043e\u043b\u044c", "name_uk": "\u0421\u0435\u0432\u0430\u0441\u0442\u043e\u043f\u043e\u043b\u044c", "name_en": "Sevastopol", "region_ru": "\u0421\u0435\u0432\u0430\u0441\u0442\u043e\u043f\u043e\u043b\u044c", "region_uk": "\u0421\u0435\u0432\u0430\u0441\u0442\u043e\u043f\u043e\u043b\u044c", "region_en": "Sevastopol"}, {"name_ru": "\u0421\u0435\u0432\u0435\u0440\u043e\u0434\u043e\u043d\u0435\u0446\u043a", "name_uk": "\u0421\u0454\u0432\u0454\u0440\u043e\u0434\u043e\u043d\u0435\u0446\u044c\u043a", "name_en": "Severodonetsk", "region_ru": "\u041b\u0443\u0433\u0430\u043d\u0441\u043a\u0430\u044f \u043e\u0431\u043b\u0430\u0441\u0442\u044c", "region_uk": "\u041b\u0443\u0433\u0430\u043d\u0441\u044c\u043a\u0430 \u043e\u0431\u043b\u0430\u0441\u0442\u044c", "region_en": "Lugansk region"}, {"name_ru": "\u0421\u0435\u0432\u0435\u0440\u0441\u043a", "name_uk": "\u0421\u0456\u0432\u0435\u0440\u0441\u044c\u043a", "name_en": "Seversk", "region_ru": "\u0414\u043e\u043d\u0435\u0446\u043a\u0430\u044f \u043e\u0431\u043b\u0430\u0441\u0442\u044c", "region_uk": "\u0414\u043e\u043d\u0435\u0446\u044c\u043a\u0430 \u043e\u0431\u043b\u0430\u0441\u0442\u044c", "region_en": "Donetsk region"}, {"name_ru": "\u0421\u0435\u043b\u0438\u0434\u043e\u0432\u043e", "name_uk": "\u0421\u0435\u043b\u0438\u0434\u043e\u0432\u0435", "name_en": "Selidovo", "region_ru": "\u0414\u043e\u043d\u0435\u0446\u043a\u0430\u044f \u043e\u0431\u043b\u0430\u0441\u0442\u044c", "region_uk": "\u0414\u043e\u043d\u0435\u0446\u044c\u043a\u0430 \u043e\u0431\u043b\u0430\u0441\u0442\u044c", "region_en": "Donetsk region"}, {"name_ru": "\u0421\u0435\u043c\u0451\u043d\u043e\u0432\u043a\u0430", "name_uk": "\u0421\u0435\u043c\u0435\u043d\u0456\u0432\u043a\u0430", "name_en": "Semyonovka", "region_ru": "\u0427\u0435\u0440\u043d\u0438\u0433\u043e\u0432\u0441\u043a\u0430\u044f \u043e\u0431\u043b\u0430\u0441\u0442\u044c", "region_uk": "\u0427\u0435\u0440\u043d\u0456\u0433\u0456\u0432\u0441\u044c\u043a\u0430 \u043e\u0431\u043b\u0430\u0441\u0442\u044c", "region_en": "Chernihiv region"}, {"name_ru": "\u0421\u0435\u0440\u0435\u0434\u0438\u043d\u0430-\u0411\u0443\u0434\u0430", "name_uk": "\u0421\u0435\u0440\u0435\u0434\u0438\u043d\u0430-\u0411\u0443\u0434\u0430", "name_en": "Mid-Buda", "region_ru": "\u0421\u0443\u043c\u0441\u043a\u0430\u044f \u043e\u0431\u043b\u0430\u0441\u0442\u044c", "region_uk": "\u0421\u0443\u043c\u0441\u044c\u043a\u0430 \u043e\u0431\u043b\u0430\u0441\u0442\u044c", "region_en": "Sumy region"}, {"name_ru": "\u0421\u0438\u043c\u0444\u0435\u0440\u043e\u043f\u043e\u043b\u044c", "name_uk": "\u0421\u0456\u043c\u0444\u0435\u0440\u043e\u043f\u043e\u043b\u044c", "name_en": "Simferopol", "region_ru": "\u0410\u0432\u0442\u043e\u043d\u043e\u043c\u043d\u0430\u044f \u0420\u0435\u0441\u043f\u0443\u0431\u043b\u0438\u043a\u0430 \u041a\u0440\u044b\u043c", "region_uk": "\u0410\u0432\u0442\u043e\u043d\u043e\u043c\u043d\u0430 \u0420\u0435\u0441\u043f\u0443\u0431\u043b\u0456\u043a\u0430 \u041a\u0440\u0438\u043c", "region_en": "Autonomous Republic of Crimea"}, {"name_ru": "\u0421\u0438\u043d\u0435\u043b\u044c\u043d\u0438\u043a\u043e\u0432\u043e", "name_uk": "\u0421\u0438\u043d\u0435\u043b\u044c\u043d\u0438\u043a\u043e\u0432\u0435", "name_en": "Sinelnikovo", "region_ru": "\u0414\u043d\u0435\u043f\u0440\u043e\u043f\u0435\u0442\u0440\u043e\u0432\u0441\u043a\u0430\u044f \u043e\u0431\u043b\u0430\u0441\u0442\u044c", "region_uk": "\u0414\u043d\u0456\u043f\u0440\u043e\u043f\u0435\u0442\u0440\u043e\u0432\u0441\u044c\u043a\u0430 \u043e\u0431\u043b\u0430\u0441\u0442\u044c", "region_en": "Dnipropetrovsk region"}, {"name_ru": "\u0421\u043a\u0430\u0434\u043e\u0432\u0441\u043a", "name_uk": "\u0421\u043a\u0430\u0434\u043e\u0432\u0441\u044c\u043a", "name_en": "Skadovsk", "region_ru": "\u0425\u0435\u0440\u0441\u043e\u043d\u0441\u043a\u0430\u044f \u043e\u0431\u043b\u0430\u0441\u0442\u044c", "region_uk": "\u0425\u0435\u0440\u0441\u043e\u043d\u0441\u044c\u043a\u0430 \u043e\u0431\u043b\u0430\u0441\u0442\u044c", "region_en": "Kherson region"}, {"name_ru": "\u0421\u043a\u0430\u043b\u0430\u0442", "name_uk": "\u0421\u043a\u0430\u043b\u0430\u0442", "name_en": "rock", "region_ru": "\u0422\u0435\u0440\u043d\u043e\u043f\u043e\u043b\u044c\u0441\u043a\u0430\u044f \u043e\u0431\u043b\u0430\u0441\u0442\u044c", "region_uk": "\u0422\u0435\u0440\u043d\u043e\u043f\u0456\u043b\u044c\u0441\u044c\u043a\u0430 \u043e\u0431\u043b\u0430\u0441\u0442\u044c", "region_en": "Ternopil region"}, {"name_ru": "\u0421\u043a\u0432\u0438\u0440\u0430", "name_uk": "\u0421\u043a\u0432\u0438\u0440\u0430", "name_en": "Skvira", "region_ru": "\u041a\u0438\u0435\u0432\u0441\u043a\u0430\u044f \u043e\u0431\u043b\u0430\u0441\u0442\u044c", "region_uk": "\u041a\u0438\u0457\u0432\u0441\u044c\u043a\u0430 \u043e\u0431\u043b\u0430\u0441\u0442\u044c", "region_en": "Kyiv region"}, {"name_ru": "\u0421\u043a\u043e\u043b\u0435", "name_uk": "\u0421\u043a\u043e\u043b\u0435", "name_en": "Skole", "region_ru": "\u041b\u044c\u0432\u043e\u0432\u0441\u043a\u0430\u044f \u043e\u0431\u043b\u0430\u0441\u0442\u044c", "region_uk": "\u041b\u044c\u0432\u0456\u0432\u0441\u044c\u043a\u0430 \u043e\u0431\u043b\u0430\u0441\u0442\u044c", "region_en": "Lviv region"}, {"name_ru": "\u0421\u043b\u0430\u0432\u0443\u0442\u0430", "name_uk": "\u0421\u043b\u0430\u0432\u0443\u0442\u0430", "name_en": "Slavuta", "region_ru": "\u0425\u043c\u0435\u043b\u044c\u043d\u0438\u0446\u043a\u0430\u044f \u043e\u0431\u043b\u0430\u0441\u0442\u044c", "region_uk": "\u0425\u043c\u0435\u043b\u044c\u043d\u0438\u0446\u044c\u043a\u0430 \u043e\u0431\u043b\u0430\u0441\u0442\u044c", "region_en": "Khmelnitsky region"}, {"name_ru": "\u0421\u043b\u0430\u0432\u0443\u0442\u0438\u0447", "name_uk": "\u0421\u043b\u0430\u0432\u0443\u0442\u0438\u0447", "name_en": "Slavutych", "region_ru": "\u041a\u0438\u0435\u0432\u0441\u043a\u0430\u044f \u043e\u0431\u043b\u0430\u0441\u0442\u044c", "region_uk": "\u041a\u0438\u0457\u0432\u0441\u044c\u043a\u0430 \u043e\u0431\u043b\u0430\u0441\u0442\u044c", "region_en": "Kyiv region"}, {"name_ru": "\u0421\u043b\u0430\u0432\u044f\u043d\u0441\u043a", "name_uk": "\u0421\u043b\u043e\u0432\u2019\u044f\u043d\u0441\u044c\u043a", "name_en": "Slavyansk", "region_ru": "\u0414\u043e\u043d\u0435\u0446\u043a\u0430\u044f \u043e\u0431\u043b\u0430\u0441\u0442\u044c", "region_uk": "\u0414\u043e\u043d\u0435\u0446\u044c\u043a\u0430 \u043e\u0431\u043b\u0430\u0441\u0442\u044c", "region_en": "Donetsk region"}, {"name_ru": "\u0421\u043c\u0435\u043b\u0430", "name_uk": "\u0421\u043c\u0456\u043b\u0430", "name_en": "Smila", "region_ru": "\u0427\u0435\u0440\u043a\u0430\u0441\u0441\u043a\u0430\u044f \u043e\u0431\u043b\u0430\u0441\u0442\u044c", "region_uk": "\u0427\u0435\u0440\u043a\u0430\u0441\u044c\u043a\u0430 \u043e\u0431\u043b\u0430\u0441\u0442\u044c", "region_en": "Cherkasy region"}, {"name_ru": "\u0421\u043d\u0435\u0436\u043d\u043e\u0435", "name_uk": "\u0421\u043d\u0456\u0436\u043d\u0435", "name_en": "snowy", "region_ru": "\u0414\u043e\u043d\u0435\u0446\u043a\u0430\u044f \u043e\u0431\u043b\u0430\u0441\u0442\u044c", "region_uk": "\u0414\u043e\u043d\u0435\u0446\u044c\u043a\u0430 \u043e\u0431\u043b\u0430\u0441\u0442\u044c", "region_en": "Donetsk region"}, {"name_ru": "\u0421\u043d\u0438\u0433\u0438\u0440\u0451\u0432\u043a\u0430", "name_uk": "\u0421\u043d\u0456\u0433\u0443\u0440\u0456\u0432\u043a\u0430", "name_en": "Snigirevka", "region_ru": "\u041d\u0438\u043a\u043e\u043b\u0430\u0435\u0432\u0441\u043a\u0430\u044f \u043e\u0431\u043b\u0430\u0441\u0442\u044c", "region_uk": "\u041c\u0438\u043a\u043e\u043b\u0430\u0457\u0432\u0441\u044c\u043a\u0430 \u043e\u0431\u043b\u0430\u0441\u0442\u044c", "region_en": "Nikolaevkskaya area"}, {"name_ru": "\u0421\u043d\u043e\u0432\u0441\u043a", "name_uk": "\u0421\u043d\u043e\u0432\u0441\u044c\u043a", "name_en": "snovsk", "region_ru": "\u0427\u0435\u0440\u043d\u0438\u0433\u043e\u0432\u0441\u043a\u0430\u044f \u043e\u0431\u043b\u0430\u0441\u0442\u044c", "region_uk": "\u0427\u0435\u0440\u043d\u0456\u0433\u0456\u0432\u0441\u044c\u043a\u0430 \u043e\u0431\u043b\u0430\u0441\u0442\u044c", "region_en": "Chernihiv region"}, {"name_ru": "\u0421\u043d\u044f\u0442\u044b\u043d", "name_uk": "\u0421\u043d\u044f\u0442\u0438\u043d", "name_en": "Snyatyn", "region_ru": "\u0418\u0432\u0430\u043d\u043e-\u0424\u0440\u0430\u043d\u043a\u043e\u0432\u0441\u043a\u0430\u044f \u043e\u0431\u043b\u0430\u0441\u0442\u044c", "region_uk": "\u0406\u0432\u0430\u043d\u043e-\u0424\u0440\u0430\u043d\u043a\u0456\u0432\u0441\u044c\u043a\u0430 \u043e\u0431\u043b\u0430\u0441\u0442\u044c", "region_en": "Ivano-Frankivsk region"}, {"name_ru": "\u0421\u043e\u043a\u0430\u043b\u044c", "name_uk": "\u0421\u043e\u043a\u0430\u043b\u044c", "name_en": "Sokal", "region_ru": "\u041b\u044c\u0432\u043e\u0432\u0441\u043a\u0430\u044f \u043e\u0431\u043b\u0430\u0441\u0442\u044c", "region_uk": "\u041b\u044c\u0432\u0456\u0432\u0441\u044c\u043a\u0430 \u043e\u0431\u043b\u0430\u0441\u0442\u044c", "region_en": "Lviv region"}, {"name_ru": "\u0421\u043e\u043a\u0438\u0440\u044f\u043d\u044b", "name_uk": "\u0421\u043e\u043a\u0438\u0440\u044f\u043d\u0438", "name_en": "Sokiryany", "region_ru": "\u0427\u0435\u0440\u043d\u043e\u0432\u0438\u0446\u043a\u0430\u044f \u043e\u0431\u043b\u0430\u0441\u0442\u044c", "region_uk": "\u0427\u0435\u0440\u043d\u0456\u0432\u0435\u0446\u044c\u043a\u0430 \u043e\u0431\u043b\u0430\u0441\u0442\u044c", "region_en": "Chernivtsi region"}, {"name_ru": "\u0421\u043e\u043b\u0435\u0434\u0430\u0440", "name_uk": "\u0421\u043e\u043b\u0435\u0434\u0430\u0440", "name_en": "Soledar", "region_ru": "\u0414\u043e\u043d\u0435\u0446\u043a\u0430\u044f \u043e\u0431\u043b\u0430\u0441\u0442\u044c", "region_uk": "\u0414\u043e\u043d\u0435\u0446\u044c\u043a\u0430 \u043e\u0431\u043b\u0430\u0441\u0442\u044c", "region_en": "Donetsk region"}, {"name_ru": "\u0421\u043e\u0440\u043e\u043a\u0438\u043d\u043e", "name_uk": "\u0421\u043e\u0440\u043e\u043a\u0438\u043d\u0435", "name_en": "Sorokino", "region_ru": "\u041b\u0443\u0433\u0430\u043d\u0441\u043a\u0430\u044f \u043e\u0431\u043b\u0430\u0441\u0442\u044c", "region_uk": "\u041b\u0443\u0433\u0430\u043d\u0441\u044c\u043a\u0430 \u043e\u0431\u043b\u0430\u0441\u0442\u044c", "region_en": "Lugansk region"}, {"name_ru": "\u0421\u043e\u0441\u043d\u043e\u0432\u043a\u0430", "name_uk": "\u0421\u043e\u0441\u043d\u0456\u0432\u043a\u0430", "name_en": "Sosnovka", "region_ru": "\u041b\u044c\u0432\u043e\u0432\u0441\u043a\u0430\u044f \u043e\u0431\u043b\u0430\u0441\u0442\u044c", "region_uk": "\u041b\u044c\u0432\u0456\u0432\u0441\u044c\u043a\u0430 \u043e\u0431\u043b\u0430\u0441\u0442\u044c", "region_en": "Lviv region"}, {"name_ru": "\u0421\u0442\u0430\u0440\u043e\u0431\u0435\u043b\u044c\u0441\u043a", "name_uk": "\u0421\u0442\u0430\u0440\u043e\u0431\u0456\u043b\u044c\u0441\u044c\u043a", "name_en": "Starobelsk", "region_ru": "\u041b\u0443\u0433\u0430\u043d\u0441\u043a\u0430\u044f \u043e\u0431\u043b\u0430\u0441\u0442\u044c", "region_uk": "\u041b\u0443\u0433\u0430\u043d\u0441\u044c\u043a\u0430 \u043e\u0431\u043b\u0430\u0441\u0442\u044c", "region_en": "Lugansk region"}, {"name_ru": "\u0421\u0442\u0430\u0440\u043e\u043a\u043e\u043d\u0441\u0442\u0430\u043d\u0442\u0438\u043d\u043e\u0432", "name_uk": "\u0421\u0442\u0430\u0440\u043e\u043a\u043e\u0441\u0442\u044f\u043d\u0442\u0438\u043d\u0456\u0432", "name_en": "Starokonstantinov", "region_ru": "\u0425\u043c\u0435\u043b\u044c\u043d\u0438\u0446\u043a\u0430\u044f \u043e\u0431\u043b\u0430\u0441\u0442\u044c", "region_uk": "\u0425\u043c\u0435\u043b\u044c\u043d\u0438\u0446\u044c\u043a\u0430 \u043e\u0431\u043b\u0430\u0441\u0442\u044c", "region_en": "Khmelnitsky region"}, {"name_ru": "\u0421\u0442\u0430\u0440\u044b\u0439 \u041a\u0440\u044b\u043c", "name_uk": "\u0421\u0442\u0430\u0440\u0438\u0439 \u041a\u0440\u0438\u043c", "name_en": "Old Crimea", "region_ru": "\u0410\u0432\u0442\u043e\u043d\u043e\u043c\u043d\u0430\u044f \u0420\u0435\u0441\u043f\u0443\u0431\u043b\u0438\u043a\u0430 \u041a\u0440\u044b\u043c", "region_uk": "\u0410\u0432\u0442\u043e\u043d\u043e\u043c\u043d\u0430 \u0420\u0435\u0441\u043f\u0443\u0431\u043b\u0456\u043a\u0430 \u041a\u0440\u0438\u043c", "region_en": "Autonomous Republic of Crimea"}, {"name_ru": "\u0421\u0442\u0430\u0440\u044b\u0439 \u0421\u0430\u043c\u0431\u043e\u0440", "name_uk": "\u0421\u0442\u0430\u0440\u0438\u0439 \u0421\u0430\u043c\u0431\u0456\u0440", "name_en": "Old Sambir", "region_ru": "\u041b\u044c\u0432\u043e\u0432\u0441\u043a\u0430\u044f \u043e\u0431\u043b\u0430\u0441\u0442\u044c", "region_uk": "\u041b\u044c\u0432\u0456\u0432\u0441\u044c\u043a\u0430 \u043e\u0431\u043b\u0430\u0441\u0442\u044c", "region_en": "Lviv region"}, {"name_ru": "\u0421\u0442\u0435\u0431\u043d\u0438\u043a", "name_uk": "\u0421\u0442\u0435\u0431\u043d\u0438\u043a", "name_en": "Stebnik", "region_ru": "\u041b\u044c\u0432\u043e\u0432\u0441\u043a\u0430\u044f \u043e\u0431\u043b\u0430\u0441\u0442\u044c", "region_uk": "\u041b\u044c\u0432\u0456\u0432\u0441\u044c\u043a\u0430 \u043e\u0431\u043b\u0430\u0441\u0442\u044c", "region_en": "Lviv region"}, {"name_ru": "\u0421\u0442\u043e\u0440\u043e\u0436\u0438\u043d\u0435\u0446", "name_uk": "\u0421\u0442\u043e\u0440\u043e\u0436\u0438\u043d\u0435\u0446\u044c", "name_en": "guardian", "region_ru": "\u0427\u0435\u0440\u043d\u043e\u0432\u0438\u0446\u043a\u0430\u044f \u043e\u0431\u043b\u0430\u0441\u0442\u044c", "region_uk": "\u0427\u0435\u0440\u043d\u0456\u0432\u0435\u0446\u044c\u043a\u0430 \u043e\u0431\u043b\u0430\u0441\u0442\u044c", "region_en": "Chernivtsi region"}, {"name_ru": "\u0421\u0442\u0440\u044b\u0439", "name_uk": "\u0421\u0442\u0440\u0438\u0439", "name_en": "Stry", "region_ru": "\u041b\u044c\u0432\u043e\u0432\u0441\u043a\u0430\u044f \u043e\u0431\u043b\u0430\u0441\u0442\u044c", "region_uk": "\u041b\u044c\u0432\u0456\u0432\u0441\u044c\u043a\u0430 \u043e\u0431\u043b\u0430\u0441\u0442\u044c", "region_en": "Lviv region"}, {"name_ru": "\u0421\u0443\u0434\u0430\u043a", "name_uk": "\u0421\u0443\u0434\u0430\u043a", "name_en": "Zander", "region_ru": "\u0410\u0432\u0442\u043e\u043d\u043e\u043c\u043d\u0430\u044f \u0420\u0435\u0441\u043f\u0443\u0431\u043b\u0438\u043a\u0430 \u041a\u0440\u044b\u043c", "region_uk": "\u0410\u0432\u0442\u043e\u043d\u043e\u043c\u043d\u0430 \u0420\u0435\u0441\u043f\u0443\u0431\u043b\u0456\u043a\u0430 \u041a\u0440\u0438\u043c", "region_en": "Autonomous Republic of Crimea"}, {"name_ru": "\u0421\u0443\u0434\u043e\u0432\u0430\u044f \u0412\u0438\u0448\u043d\u044f", "name_uk": "\u0421\u0443\u0434\u043e\u0432\u0430 \u0412\u0438\u0448\u043d\u044f", "name_en": "Ship Cherry", "region_ru": "\u041b\u044c\u0432\u043e\u0432\u0441\u043a\u0430\u044f \u043e\u0431\u043b\u0430\u0441\u0442\u044c", "region_uk": "\u041b\u044c\u0432\u0456\u0432\u0441\u044c\u043a\u0430 \u043e\u0431\u043b\u0430\u0441\u0442\u044c", "region_en": "Lviv region"}, {"name_ru": "\u0421\u0443\u043c\u044b", "name_uk": "\u0421\u0443\u043c\u0438", "name_en": "Sumy", "region_ru": "\u0421\u0443\u043c\u0441\u043a\u0430\u044f \u043e\u0431\u043b\u0430\u0441\u0442\u044c", "region_uk": "\u0421\u0443\u043c\u0441\u044c\u043a\u0430 \u043e\u0431\u043b\u0430\u0441\u0442\u044c", "region_en": "Sumy region"}, {"name_ru": "\u0421\u0443\u0445\u043e\u0434\u043e\u043b\u044c\u0441\u043a", "name_uk": "\u0421\u0443\u0445\u043e\u0434\u0456\u043b\u044c\u0441\u044c\u043a", "name_en": "Sukhodolsk", "region_ru": "\u041b\u0443\u0433\u0430\u043d\u0441\u043a\u0430\u044f \u043e\u0431\u043b\u0430\u0441\u0442\u044c", "region_uk": "\u041b\u0443\u0433\u0430\u043d\u0441\u044c\u043a\u0430 \u043e\u0431\u043b\u0430\u0441\u0442\u044c", "region_en": "Lugansk region"}, {"name_ru": "\u0421\u0447\u0430\u0441\u0442\u044c\u0435", "name_uk": "\u0429\u0430\u0441\u0442\u044f", "name_en": "Happiness", "region_ru": "\u041b\u0443\u0433\u0430\u043d\u0441\u043a\u0430\u044f \u043e\u0431\u043b\u0430\u0441\u0442\u044c", "region_uk": "\u041b\u0443\u0433\u0430\u043d\u0441\u044c\u043a\u0430 \u043e\u0431\u043b\u0430\u0441\u0442\u044c", "region_en": "Lugansk region"}, {"name_ru": "\u0422\u0430\u0432\u0440\u0438\u0439\u0441\u043a", "name_uk": "\u0422\u0430\u0432\u0440\u0456\u0439\u0441\u044c\u043a", "name_en": "Tavriysk", "region_ru": "\u0425\u0435\u0440\u0441\u043e\u043d\u0441\u043a\u0430\u044f \u043e\u0431\u043b\u0430\u0441\u0442\u044c", "region_uk": "\u0425\u0435\u0440\u0441\u043e\u043d\u0441\u044c\u043a\u0430 \u043e\u0431\u043b\u0430\u0441\u0442\u044c", "region_en": "Kherson region"}, {"name_ru": "\u0422\u0430\u043b\u044c\u043d\u043e\u0435", "name_uk": "\u0422\u0430\u043b\u044c\u043d\u0435", "name_en": "Talnoye", "region_ru": "\u0427\u0435\u0440\u043a\u0430\u0441\u0441\u043a\u0430\u044f \u043e\u0431\u043b\u0430\u0441\u0442\u044c", "region_uk": "\u0427\u0435\u0440\u043a\u0430\u0441\u044c\u043a\u0430 \u043e\u0431\u043b\u0430\u0441\u0442\u044c", "region_en": "Cherkasy region"}, {"name_ru": "\u0422\u0430\u0440\u0430\u0449\u0430", "name_uk": "\u0422\u0430\u0440\u0430\u0449\u0430", "name_en": "Tarashcha", "region_ru": "\u041a\u0438\u0435\u0432\u0441\u043a\u0430\u044f \u043e\u0431\u043b\u0430\u0441\u0442\u044c", "region_uk": "\u041a\u0438\u0457\u0432\u0441\u044c\u043a\u0430 \u043e\u0431\u043b\u0430\u0441\u0442\u044c", "region_en": "Kyiv region"}, {"name_ru": "\u0422\u0430\u0442\u0430\u0440\u0431\u0443\u043d\u0430\u0440\u044b", "name_uk": "\u0422\u0430\u0442\u0430\u0440\u0431\u0443\u043d\u0430\u0440\u0438", "name_en": "Tatarbunary", "region_ru": "\u041e\u0434\u0435\u0441\u0441\u043a\u0430\u044f \u043e\u0431\u043b\u0430\u0441\u0442\u044c", "region_uk": "\u041e\u0434\u0435\u0441\u044c\u043a\u0430 \u043e\u0431\u043b\u0430\u0441\u0442\u044c", "region_en": "Odessa region"}, {"name_ru": "\u0422\u0435\u043f\u043b\u043e\u0434\u0430\u0440", "name_uk": "\u0422\u0435\u043f\u043b\u043e\u0434\u0430\u0440", "name_en": "Teplodar", "region_ru": "\u041e\u0434\u0435\u0441\u0441\u043a\u0430\u044f \u043e\u0431\u043b\u0430\u0441\u0442\u044c", "region_uk": "\u041e\u0434\u0435\u0441\u044c\u043a\u0430 \u043e\u0431\u043b\u0430\u0441\u0442\u044c", "region_en": "Odessa region"}, {"name_ru": "\u0422\u0435\u0440\u0435\u0431\u043e\u0432\u043b\u044f", "name_uk": "\u0422\u0435\u0440\u0435\u0431\u043e\u0432\u043b\u044f", "name_en": "Terebovlya", "region_ru": "\u0422\u0435\u0440\u043d\u043e\u043f\u043e\u043b\u044c\u0441\u043a\u0430\u044f \u043e\u0431\u043b\u0430\u0441\u0442\u044c", "region_uk": "\u0422\u0435\u0440\u043d\u043e\u043f\u0456\u043b\u044c\u0441\u044c\u043a\u0430 \u043e\u0431\u043b\u0430\u0441\u0442\u044c", "region_en": "Ternopil region"}, {"name_ru": "\u0422\u0435\u0440\u043d\u043e\u0432\u043a\u0430", "name_uk": "\u0422\u0435\u0440\u043d\u0456\u0432\u043a\u0430", "name_en": "Ternovka", "region_ru": "\u0414\u043d\u0435\u043f\u0440\u043e\u043f\u0435\u0442\u0440\u043e\u0432\u0441\u043a\u0430\u044f \u043e\u0431\u043b\u0430\u0441\u0442\u044c", "region_uk": "\u0414\u043d\u0456\u043f\u0440\u043e\u043f\u0435\u0442\u0440\u043e\u0432\u0441\u044c\u043a\u0430 \u043e\u0431\u043b\u0430\u0441\u0442\u044c", "region_en": "Dnipropetrovsk region"}, {"name_ru": "\u0422\u0435\u0440\u043d\u043e\u043f\u043e\u043b\u044c", "name_uk": "\u0422\u0435\u0440\u043d\u043e\u043f\u0456\u043b\u044c", "name_en": "Ternopil", "region_ru": "\u0422\u0435\u0440\u043d\u043e\u043f\u043e\u043b\u044c\u0441\u043a\u0430\u044f \u043e\u0431\u043b\u0430\u0441\u0442\u044c", "region_uk": "\u0422\u0435\u0440\u043d\u043e\u043f\u0456\u043b\u044c\u0441\u044c\u043a\u0430 \u043e\u0431\u043b\u0430\u0441\u0442\u044c", "region_en": "Ternopil region"}, {"name_ru": "\u0422\u0435\u0442\u0438\u0435\u0432", "name_uk": "\u0422\u0435\u0442\u0456\u0457\u0432", "name_en": "Tetiev", "region_ru": "\u041a\u0438\u0435\u0432\u0441\u043a\u0430\u044f \u043e\u0431\u043b\u0430\u0441\u0442\u044c", "region_uk": "\u041a\u0438\u0457\u0432\u0441\u044c\u043a\u0430 \u043e\u0431\u043b\u0430\u0441\u0442\u044c", "region_en": "Kyiv region"}, {"name_ru": "\u0422\u043b\u0443\u043c\u0430\u0447", "name_uk": "\u0422\u043b\u0443\u043c\u0430\u0447", "name_en": "Tlumach", "region_ru": "\u0418\u0432\u0430\u043d\u043e-\u0424\u0440\u0430\u043d\u043a\u043e\u0432\u0441\u043a\u0430\u044f \u043e\u0431\u043b\u0430\u0441\u0442\u044c", "region_uk": "\u0406\u0432\u0430\u043d\u043e-\u0424\u0440\u0430\u043d\u043a\u0456\u0432\u0441\u044c\u043a\u0430 \u043e\u0431\u043b\u0430\u0441\u0442\u044c", "region_en": "Ivano-Frankivsk region"}, {"name_ru": "\u0422\u043e\u043a\u043c\u0430\u043a", "name_uk": "\u0422\u043e\u043a\u043c\u0430\u043a", "name_en": "Tokmok", "region_ru": "\u0417\u0430\u043f\u043e\u0440\u043e\u0436\u0441\u043a\u0430\u044f \u043e\u0431\u043b\u0430\u0441\u0442\u044c", "region_uk": "\u0417\u0430\u043f\u043e\u0440\u0456\u0437\u044c\u043a\u0430 \u043e\u0431\u043b\u0430\u0441\u0442\u044c", "region_en": "Zaporozhye region"}, {"name_ru": "\u0422\u043e\u0440\u0435\u0446\u043a", "name_uk": "\u0422\u043e\u0440\u0435\u0446\u044c\u043a", "name_en": "Toretsk", "region_ru": "\u0414\u043e\u043d\u0435\u0446\u043a\u0430\u044f \u043e\u0431\u043b\u0430\u0441\u0442\u044c", "region_uk": "\u0414\u043e\u043d\u0435\u0446\u044c\u043a\u0430 \u043e\u0431\u043b\u0430\u0441\u0442\u044c", "region_en": "Donetsk region"}, {"name_ru": "\u0422\u0440\u043e\u0441\u0442\u044f\u043d\u0435\u0446", "name_uk": "\u0422\u0440\u043e\u0441\u0442\u044f\u043d\u0435\u0446\u044c", "name_en": "Trostyanets", "region_ru": "\u0421\u0443\u043c\u0441\u043a\u0430\u044f \u043e\u0431\u043b\u0430\u0441\u0442\u044c", "region_uk": "\u0421\u0443\u043c\u0441\u044c\u043a\u0430 \u043e\u0431\u043b\u0430\u0441\u0442\u044c", "region_en": "Sumy region"}, {"name_ru": "\u0422\u0440\u0443\u0441\u043a\u0430\u0432\u0435\u0446", "name_uk": "\u0422\u0440\u0443\u0441\u043a\u0430\u0432\u0435\u0446\u044c", "name_en": "Truskavets", "region_ru": "\u041b\u044c\u0432\u043e\u0432\u0441\u043a\u0430\u044f \u043e\u0431\u043b\u0430\u0441\u0442\u044c", "region_uk": "\u041b\u044c\u0432\u0456\u0432\u0441\u044c\u043a\u0430 \u043e\u0431\u043b\u0430\u0441\u0442\u044c", "region_en": "Lviv region"}, {"name_ru": "\u0422\u0443\u043b\u044c\u0447\u0438\u043d", "name_uk": "\u0422\u0443\u043b\u044c\u0447\u0438\u043d", "name_en": "Tulchin", "region_ru": "\u0412\u0438\u043d\u043d\u0438\u0446\u043a\u0430\u044f \u043e\u0431\u043b\u0430\u0441\u0442\u044c", "region_uk": "\u0412\u0456\u043d\u043d\u0438\u0446\u044c\u043a\u0430 \u043e\u0431\u043b\u0430\u0441\u0442\u044c", "region_en": "Vinnytsia region"}, {"name_ru": "\u0422\u0443\u0440\u043a\u0430", "name_uk": "\u0422\u0443\u0440\u043a\u0430", "name_en": "Turka", "region_ru": "\u041b\u044c\u0432\u043e\u0432\u0441\u043a\u0430\u044f \u043e\u0431\u043b\u0430\u0441\u0442\u044c", "region_uk": "\u041b\u044c\u0432\u0456\u0432\u0441\u044c\u043a\u0430 \u043e\u0431\u043b\u0430\u0441\u0442\u044c", "region_en": "Lviv region"}, {"name_ru": "\u0422\u044b\u0441\u043c\u0435\u043d\u0438\u0446\u0430", "name_uk": "\u0422\u0438\u0441\u043c\u0435\u043d\u0438\u0446\u044f", "name_en": "Tysmenitsa", "region_ru": "\u0418\u0432\u0430\u043d\u043e-\u0424\u0440\u0430\u043d\u043a\u043e\u0432\u0441\u043a\u0430\u044f \u043e\u0431\u043b\u0430\u0441\u0442\u044c", "region_uk": "\u0406\u0432\u0430\u043d\u043e-\u0424\u0440\u0430\u043d\u043a\u0456\u0432\u0441\u044c\u043a\u0430 \u043e\u0431\u043b\u0430\u0441\u0442\u044c", "region_en": "Ivano-Frankivsk region"}, {"name_ru": "\u0422\u044f\u0447\u0435\u0432", "name_uk": "\u0422\u044f\u0447\u0456\u0432", "name_en": "Tyachev", "region_ru": "\u0417\u0430\u043a\u0430\u0440\u043f\u0430\u0442\u0441\u043a\u0430\u044f \u043e\u0431\u043b\u0430\u0441\u0442\u044c", "region_uk": "\u0417\u0430\u043a\u0430\u0440\u043f\u0430\u0442\u0441\u044c\u043a\u0430 \u043e\u0431\u043b\u0430\u0441\u0442\u044c", "region_en": "Transcarpathian region"}, {"name_ru": "\u0423\u0433\u043b\u0435\u0433\u043e\u0440\u0441\u043a", "name_uk": "\u0412\u0443\u0433\u043b\u0435\u0433\u0456\u0440\u0441\u044c\u043a", "name_en": "Uglegorsk", "region_ru": "\u0414\u043e\u043d\u0435\u0446\u043a\u0430\u044f \u043e\u0431\u043b\u0430\u0441\u0442\u044c", "region_uk": "\u0414\u043e\u043d\u0435\u0446\u044c\u043a\u0430 \u043e\u0431\u043b\u0430\u0441\u0442\u044c", "region_en": "Donetsk region"}, {"name_ru": "\u0423\u0433\u043b\u0435\u0434\u0430\u0440", "name_uk": "\u0412\u0443\u0433\u043b\u0435\u0434\u0430\u0440", "name_en": "Ugledar", "region_ru": "\u0414\u043e\u043d\u0435\u0446\u043a\u0430\u044f \u043e\u0431\u043b\u0430\u0441\u0442\u044c", "region_uk": "\u0414\u043e\u043d\u0435\u0446\u044c\u043a\u0430 \u043e\u0431\u043b\u0430\u0441\u0442\u044c", "region_en": "Donetsk region"}, {"name_ru": "\u0423\u0433\u043d\u0435\u0432", "name_uk": "\u0423\u0433\u043d\u0456\u0432", "name_en": "Ugnev", "region_ru": "\u041b\u044c\u0432\u043e\u0432\u0441\u043a\u0430\u044f \u043e\u0431\u043b\u0430\u0441\u0442\u044c", "region_uk": "\u041b\u044c\u0432\u0456\u0432\u0441\u044c\u043a\u0430 \u043e\u0431\u043b\u0430\u0441\u0442\u044c", "region_en": "Lviv region"}, {"name_ru": "\u0423\u0436\u0433\u043e\u0440\u043e\u0434", "name_uk": "\u0423\u0436\u0433\u043e\u0440\u043e\u0434", "name_en": "Uzhhorod", "region_ru": "\u0417\u0430\u043a\u0430\u0440\u043f\u0430\u0442\u0441\u043a\u0430\u044f \u043e\u0431\u043b\u0430\u0441\u0442\u044c", "region_uk": "\u0417\u0430\u043a\u0430\u0440\u043f\u0430\u0442\u0441\u044c\u043a\u0430 \u043e\u0431\u043b\u0430\u0441\u0442\u044c", "region_en": "Transcarpathian region"}, {"name_ru": "\u0423\u0437\u0438\u043d", "name_uk": "\u0423\u0437\u0438\u043d", "name_en": "Uzin", "region_ru": "\u041a\u0438\u0435\u0432\u0441\u043a\u0430\u044f \u043e\u0431\u043b\u0430\u0441\u0442\u044c", "region_uk": "\u041a\u0438\u0457\u0432\u0441\u044c\u043a\u0430 \u043e\u0431\u043b\u0430\u0441\u0442\u044c", "region_en": "Kyiv region"}, {"name_ru": "\u0423\u043a\u0440\u0430\u0438\u043d\u043a\u0430", "name_uk": "\u0423\u043a\u0440\u0430\u0457\u043d\u043a\u0430", "name_en": "Ukrainian", "region_ru": "\u041a\u0438\u0435\u0432\u0441\u043a\u0430\u044f \u043e\u0431\u043b\u0430\u0441\u0442\u044c", "region_uk": "\u041a\u0438\u0457\u0432\u0441\u044c\u043a\u0430 \u043e\u0431\u043b\u0430\u0441\u0442\u044c", "region_en": "Kyiv region"}, {"name_ru": "\u0423\u043a\u0440\u0430\u0438\u043d\u0441\u043a", "name_uk": "\u0423\u043a\u0440\u0430\u0457\u043d\u0441\u044c\u043a", "name_en": "Ukrainian", "region_ru": "\u0414\u043e\u043d\u0435\u0446\u043a\u0430\u044f \u043e\u0431\u043b\u0430\u0441\u0442\u044c", "region_uk": "\u0414\u043e\u043d\u0435\u0446\u044c\u043a\u0430 \u043e\u0431\u043b\u0430\u0441\u0442\u044c", "region_en": "Donetsk region"}, {"name_ru": "\u0423\u043c\u0430\u043d\u044c", "name_uk": "\u0423\u043c\u0430\u043d\u044c", "name_en": "Uman", "region_ru": "\u0427\u0435\u0440\u043a\u0430\u0441\u0441\u043a\u0430\u044f \u043e\u0431\u043b\u0430\u0441\u0442\u044c", "region_uk": "\u0427\u0435\u0440\u043a\u0430\u0441\u044c\u043a\u0430 \u043e\u0431\u043b\u0430\u0441\u0442\u044c", "region_en": "Cherkasy region"}, {"name_ru": "\u0423\u0441\u0442\u0438\u043b\u0443\u0433", "name_uk": "\u0423\u0441\u0442\u0438\u043b\u0443\u0433", "name_en": "Ustilug", "region_ru": "\u0412\u043e\u043b\u044b\u043d\u0441\u043a\u0430\u044f \u043e\u0431\u043b\u0430\u0441\u0442\u044c", "region_uk": "\u0412\u043e\u043b\u0438\u043d\u0441\u044c\u043a\u0430 \u043e\u0431\u043b\u0430\u0441\u0442\u044c", "region_en": "Volyn region"}, {"name_ru": "\u0424\u0430\u0441\u0442\u043e\u0432", "name_uk": "\u0424\u0430\u0441\u0442\u0456\u0432", "name_en": "Fastov", "region_ru": "\u041a\u0438\u0435\u0432\u0441\u043a\u0430\u044f \u043e\u0431\u043b\u0430\u0441\u0442\u044c", "region_uk": "\u041a\u0438\u0457\u0432\u0441\u044c\u043a\u0430 \u043e\u0431\u043b\u0430\u0441\u0442\u044c", "region_en": "Kyiv region"}, {"name_ru": "\u0424\u0435\u043e\u0434\u043e\u0441\u0438\u044f", "name_uk": "\u0424\u0435\u043e\u0434\u043e\u0441\u0456\u044f", "name_en": "Feodosia", "region_ru": "\u0410\u0432\u0442\u043e\u043d\u043e\u043c\u043d\u0430\u044f \u0420\u0435\u0441\u043f\u0443\u0431\u043b\u0438\u043a\u0430 \u041a\u0440\u044b\u043c", "region_uk": "\u0410\u0432\u0442\u043e\u043d\u043e\u043c\u043d\u0430 \u0420\u0435\u0441\u043f\u0443\u0431\u043b\u0456\u043a\u0430 \u041a\u0440\u0438\u043c", "region_en": "Autonomous Republic of Crimea"}, {"name_ru": "\u0425\u0430\u0440\u0446\u044b\u0437\u0441\u043a", "name_uk": "\u0425\u0430\u0440\u0446\u0438\u0437\u044c\u043a", "name_en": "Khartsyzsk", "region_ru": "\u0414\u043e\u043d\u0435\u0446\u043a\u0430\u044f \u043e\u0431\u043b\u0430\u0441\u0442\u044c", "region_uk": "\u0414\u043e\u043d\u0435\u0446\u044c\u043a\u0430 \u043e\u0431\u043b\u0430\u0441\u0442\u044c", "region_en": "Donetsk region"}, {"name_ru": "\u0425\u0430\u0440\u044c\u043a\u043e\u0432", "name_uk": "\u0425\u0430\u0440\u043a\u0456\u0432", "name_en": "Kharkiv", "region_ru": "\u0425\u0430\u0440\u044c\u043a\u043e\u0432\u0441\u043a\u0430\u044f \u043e\u0431\u043b\u0430\u0441\u0442\u044c", "region_uk": "\u0425\u0430\u0440\u043a\u0456\u0432\u0441\u044c\u043a\u0430 \u043e\u0431\u043b\u0430\u0441\u0442\u044c", "region_en": "Kharkov region"}, {"name_ru": "\u0425\u0435\u0440\u0441\u043e\u043d", "name_uk": "\u0425\u0435\u0440\u0441\u043e\u043d", "name_en": "Kherson", "region_ru": "\u0425\u0435\u0440\u0441\u043e\u043d\u0441\u043a\u0430\u044f \u043e\u0431\u043b\u0430\u0441\u0442\u044c", "region_uk": "\u0425\u0435\u0440\u0441\u043e\u043d\u0441\u044c\u043a\u0430 \u043e\u0431\u043b\u0430\u0441\u0442\u044c", "region_en": "Kherson region"}, {"name_ru": "\u0425\u043c\u0435\u043b\u044c\u043d\u0438\u043a", "name_uk": "\u0425\u043c\u0456\u043b\u044c\u043d\u0438\u043a", "name_en": "Khmilnik", "region_ru": "\u0412\u0438\u043d\u043d\u0438\u0446\u043a\u0430\u044f \u043e\u0431\u043b\u0430\u0441\u0442\u044c", "region_uk": "\u0412\u0456\u043d\u043d\u0438\u0446\u044c\u043a\u0430 \u043e\u0431\u043b\u0430\u0441\u0442\u044c", "region_en": "Vinnytsia region"}, {"name_ru": "\u0425\u043c\u0435\u043b\u044c\u043d\u0438\u0446\u043a\u0438\u0439", "name_uk": "\u0425\u043c\u0435\u043b\u044c\u043d\u0438\u0446\u044c\u043a\u0438\u0439", "name_en": "Khmelnitsky", "region_ru": "\u0425\u043c\u0435\u043b\u044c\u043d\u0438\u0446\u043a\u0430\u044f \u043e\u0431\u043b\u0430\u0441\u0442\u044c", "region_uk": "\u0425\u043c\u0435\u043b\u044c\u043d\u0438\u0446\u044c\u043a\u0430 \u043e\u0431\u043b\u0430\u0441\u0442\u044c", "region_en": "Khmelnitsky region"}, {"name_ru": "\u0425\u043e\u0434\u043e\u0440\u043e\u0432", "name_uk": "\u0425\u043e\u0434\u043e\u0440\u0456\u0432", "name_en": "Khodorov", "region_ru": "\u041b\u044c\u0432\u043e\u0432\u0441\u043a\u0430\u044f \u043e\u0431\u043b\u0430\u0441\u0442\u044c", "region_uk": "\u041b\u044c\u0432\u0456\u0432\u0441\u044c\u043a\u0430 \u043e\u0431\u043b\u0430\u0441\u0442\u044c", "region_en": "Lviv region"}, {"name_ru": "\u0425\u043e\u0440\u043e\u043b", "name_uk": "\u0425\u043e\u0440\u043e\u043b", "name_en": "Khorol", "region_ru": "\u041f\u043e\u043b\u0442\u0430\u0432\u0441\u043a\u0430\u044f \u043e\u0431\u043b\u0430\u0441\u0442\u044c", "region_uk": "\u041f\u043e\u043b\u0442\u0430\u0432\u0441\u044c\u043a\u0430 \u043e\u0431\u043b\u0430\u0441\u0442\u044c", "region_en": "Poltava region"}, {"name_ru": "\u0425\u043e\u0440\u043e\u0441\u0442\u043a\u043e\u0432", "name_uk": "\u0425\u043e\u0440\u043e\u0441\u0442\u043a\u0456\u0432", "name_en": "Khorostkov", "region_ru": "\u0422\u0435\u0440\u043d\u043e\u043f\u043e\u043b\u044c\u0441\u043a\u0430\u044f \u043e\u0431\u043b\u0430\u0441\u0442\u044c", "region_uk": "\u0422\u0435\u0440\u043d\u043e\u043f\u0456\u043b\u044c\u0441\u044c\u043a\u0430 \u043e\u0431\u043b\u0430\u0441\u0442\u044c", "region_en": "Ternopil region"}, {"name_ru": "\u0425\u043e\u0442\u0438\u043d", "name_uk": "\u0425\u043e\u0442\u0438\u043d", "name_en": "Khotyn", "region_ru": "\u0427\u0435\u0440\u043d\u043e\u0432\u0438\u0446\u043a\u0430\u044f \u043e\u0431\u043b\u0430\u0441\u0442\u044c", "region_uk": "\u0427\u0435\u0440\u043d\u0456\u0432\u0435\u0446\u044c\u043a\u0430 \u043e\u0431\u043b\u0430\u0441\u0442\u044c", "region_en": "Chernivtsi region"}, {"name_ru": "\u0425\u0440\u0438\u0441\u0442\u0438\u043d\u043e\u0432\u043a\u0430", "name_uk": "\u0425\u0440\u0438\u0441\u0442\u0438\u043d\u0456\u0432\u043a\u0430", "name_en": "Khristinovka", "region_ru": "\u0427\u0435\u0440\u043a\u0430\u0441\u0441\u043a\u0430\u044f \u043e\u0431\u043b\u0430\u0441\u0442\u044c", "region_uk": "\u0427\u0435\u0440\u043a\u0430\u0441\u044c\u043a\u0430 \u043e\u0431\u043b\u0430\u0441\u0442\u044c", "region_en": "Cherkasy region"}, {"name_ru": "\u0425\u0440\u0443\u0441\u0442\u0430\u043b\u044c\u043d\u044b\u0439", "name_uk": "\u0425\u0440\u0443\u0441\u0442\u0430\u043b\u044c\u043d\u0438\u0439", "name_en": "Crystal", "region_ru": "\u041b\u0443\u0433\u0430\u043d\u0441\u043a\u0430\u044f \u043e\u0431\u043b\u0430\u0441\u0442\u044c", "region_uk": "\u041b\u0443\u0433\u0430\u043d\u0441\u044c\u043a\u0430 \u043e\u0431\u043b\u0430\u0441\u0442\u044c", "region_en": "Lugansk region"}, {"name_ru": "\u0425\u0443\u0441\u0442", "name_uk": "\u0425\u0443\u0441\u0442", "name_en": "Khust", "region_ru": "\u0417\u0430\u043a\u0430\u0440\u043f\u0430\u0442\u0441\u043a\u0430\u044f \u043e\u0431\u043b\u0430\u0441\u0442\u044c", "region_uk": "\u0417\u0430\u043a\u0430\u0440\u043f\u0430\u0442\u0441\u044c\u043a\u0430 \u043e\u0431\u043b\u0430\u0441\u0442\u044c", "region_en": "Transcarpathian region"}, {"name_ru": "\u0425\u044b\u0440\u043e\u0432", "name_uk": "\u0425\u0438\u0440\u0456\u0432", "name_en": "Khyrov", "region_ru": "\u041b\u044c\u0432\u043e\u0432\u0441\u043a\u0430\u044f \u043e\u0431\u043b\u0430\u0441\u0442\u044c", "region_uk": "\u041b\u044c\u0432\u0456\u0432\u0441\u044c\u043a\u0430 \u043e\u0431\u043b\u0430\u0441\u0442\u044c", "region_en": "Lviv region"}, {"name_ru": "\u0427\u0430\u0441\u043e\u0432 \u042f\u0440", "name_uk": "\u0427\u0430\u0441\u0456\u0432 \u042f\u0440", "name_en": "Hours Yar", "region_ru": "\u0414\u043e\u043d\u0435\u0446\u043a\u0430\u044f \u043e\u0431\u043b\u0430\u0441\u0442\u044c", "region_uk": "\u0414\u043e\u043d\u0435\u0446\u044c\u043a\u0430 \u043e\u0431\u043b\u0430\u0441\u0442\u044c", "region_en": "Donetsk region"}, {"name_ru": "\u0427\u0435\u0440\u0432\u043e\u043d\u043e\u0433\u0440\u0430\u0434", "name_uk": "\u0427\u0435\u0440\u0432\u043e\u043d\u043e\u0433\u0440\u0430\u0434", "name_en": "Chervonograd", "region_ru": "\u041b\u044c\u0432\u043e\u0432\u0441\u043a\u0430\u044f \u043e\u0431\u043b\u0430\u0441\u0442\u044c", "region_uk": "\u041b\u044c\u0432\u0456\u0432\u0441\u044c\u043a\u0430 \u043e\u0431\u043b\u0430\u0441\u0442\u044c", "region_en": "Lviv region"}, {"name_ru": "\u0427\u0435\u0440\u043a\u0430\u0441\u0441\u044b", "name_uk": "\u0427\u0435\u0440\u043a\u0430\u0441\u0438", "name_en": "Cherkasy", "region_ru": "\u0427\u0435\u0440\u043a\u0430\u0441\u0441\u043a\u0430\u044f \u043e\u0431\u043b\u0430\u0441\u0442\u044c", "region_uk": "\u0427\u0435\u0440\u043a\u0430\u0441\u044c\u043a\u0430 \u043e\u0431\u043b\u0430\u0441\u0442\u044c", "region_en": "Cherkasy region"}, {"name_ru": "\u0427\u0435\u0440\u043d\u0438\u0433\u043e\u0432", "name_uk": "\u0427\u0435\u0440\u043d\u0456\u0433\u0456\u0432", "name_en": "Chernihiv", "region_ru": "\u0427\u0435\u0440\u043d\u0438\u0433\u043e\u0432\u0441\u043a\u0430\u044f \u043e\u0431\u043b\u0430\u0441\u0442\u044c", "region_uk": "\u0427\u0435\u0440\u043d\u0456\u0433\u0456\u0432\u0441\u044c\u043a\u0430 \u043e\u0431\u043b\u0430\u0441\u0442\u044c", "region_en": "Chernihiv region"}, {"name_ru": "\u0427\u0435\u0440\u043d\u043e\u0431\u044b\u043b\u044c", "name_uk": "\u0427\u043e\u0440\u043d\u043e\u0431\u0438\u043b\u044c", "name_en": "Chernobyl", "region_ru": "\u041a\u0438\u0435\u0432\u0441\u043a\u0430\u044f \u043e\u0431\u043b\u0430\u0441\u0442\u044c", "region_uk": "\u041a\u0438\u0457\u0432\u0441\u044c\u043a\u0430 \u043e\u0431\u043b\u0430\u0441\u0442\u044c", "region_en": "Kyiv region"}, {"name_ru": "\u0427\u0435\u0440\u043d\u043e\u0432\u0446\u044b", "name_uk": "\u0427\u0435\u0440\u043d\u0456\u0432\u0446\u0456", "name_en": "Chernivtsi", "region_ru": "\u0427\u0435\u0440\u043d\u043e\u0432\u0438\u0446\u043a\u0430\u044f \u043e\u0431\u043b\u0430\u0441\u0442\u044c", "region_uk": "\u0427\u0435\u0440\u043d\u0456\u0432\u0435\u0446\u044c\u043a\u0430 \u043e\u0431\u043b\u0430\u0441\u0442\u044c", "region_en": "Chernivtsi region"}, {"name_ru": "\u0427\u0435\u0440\u043d\u043e\u043c\u043e\u0440\u0441\u043a", "name_uk": "\u0427\u043e\u0440\u043d\u043e\u043c\u043e\u0440\u0441\u044c\u043a", "name_en": "Chernomorsk", "region_ru": "\u041e\u0434\u0435\u0441\u0441\u043a\u0430\u044f \u043e\u0431\u043b\u0430\u0441\u0442\u044c", "region_uk": "\u041e\u0434\u0435\u0441\u044c\u043a\u0430 \u043e\u0431\u043b\u0430\u0441\u0442\u044c", "region_en": "Odessa region"}, {"name_ru": "\u0427\u0438\u0433\u0438\u0440\u0438\u043d", "name_uk": "\u0427\u0438\u0433\u0438\u0440\u0438\u043d", "name_en": "Chigirin", "region_ru": "\u0427\u0435\u0440\u043a\u0430\u0441\u0441\u043a\u0430\u044f \u043e\u0431\u043b\u0430\u0441\u0442\u044c", "region_uk": "\u0427\u0435\u0440\u043a\u0430\u0441\u044c\u043a\u0430 \u043e\u0431\u043b\u0430\u0441\u0442\u044c", "region_en": "Cherkasy region"}, {"name_ru": "\u0427\u0438\u0441\u0442\u044f\u043a\u043e\u0432\u043e", "name_uk": "\u0427\u0438\u0441\u0442\u044f\u043a\u043e\u0432\u0435", "name_en": "Chistyakovo", "region_ru": "\u0414\u043e\u043d\u0435\u0446\u043a\u0430\u044f \u043e\u0431\u043b\u0430\u0441\u0442\u044c", "region_uk": "\u0414\u043e\u043d\u0435\u0446\u044c\u043a\u0430 \u043e\u0431\u043b\u0430\u0441\u0442\u044c", "region_en": "Donetsk region"}, {"name_ru": "\u0427\u043e\u043f", "name_uk": "\u0427\u043e\u043f", "name_en": "chop", "region_ru": "\u0417\u0430\u043a\u0430\u0440\u043f\u0430\u0442\u0441\u043a\u0430\u044f \u043e\u0431\u043b\u0430\u0441\u0442\u044c", "region_uk": "\u0417\u0430\u043a\u0430\u0440\u043f\u0430\u0442\u0441\u044c\u043a\u0430 \u043e\u0431\u043b\u0430\u0441\u0442\u044c", "region_en": "Transcarpathian region"}, {"name_ru": "\u0427\u043e\u0440\u0442\u043a\u043e\u0432", "name_uk": "\u0427\u043e\u0440\u0442\u043a\u0456\u0432", "name_en": "Chortkiv", "region_ru": "\u0422\u0435\u0440\u043d\u043e\u043f\u043e\u043b\u044c\u0441\u043a\u0430\u044f \u043e\u0431\u043b\u0430\u0441\u0442\u044c", "region_uk": "\u0422\u0435\u0440\u043d\u043e\u043f\u0456\u043b\u044c\u0441\u044c\u043a\u0430 \u043e\u0431\u043b\u0430\u0441\u0442\u044c", "region_en": "Ternopil region"}, {"name_ru": "\u0427\u0443\u0433\u0443\u0435\u0432", "name_uk": "\u0427\u0443\u0433\u0443\u0457\u0432", "name_en": "Chuguev", "region_ru": "\u0425\u0430\u0440\u044c\u043a\u043e\u0432\u0441\u043a\u0430\u044f \u043e\u0431\u043b\u0430\u0441\u0442\u044c", "region_uk": "\u0425\u0430\u0440\u043a\u0456\u0432\u0441\u044c\u043a\u0430 \u043e\u0431\u043b\u0430\u0441\u0442\u044c", "region_en": "Kharkov region"}, {"name_ru": "\u0427\u0443\u0434\u043d\u043e\u0432", "name_uk": "\u0427\u0443\u0434\u043d\u0456\u0432", "name_en": "Chudnov", "region_ru": "\u0416\u0438\u0442\u043e\u043c\u0438\u0440\u0441\u043a\u0430\u044f \u043e\u0431\u043b\u0430\u0441\u0442\u044c", "region_uk": "\u0416\u0438\u0442\u043e\u043c\u0438\u0440\u0441\u044c\u043a\u0430 \u043e\u0431\u043b\u0430\u0441\u0442\u044c", "region_en": "Zhytomyr Oblast"}, {"name_ru": "\u0428\u0430\u0440\u0433\u043e\u0440\u043e\u0434", "name_uk": "\u0428\u0430\u0440\u0433\u043e\u0440\u043e\u0434", "name_en": "Shargorod", "region_ru": "\u0412\u0438\u043d\u043d\u0438\u0446\u043a\u0430\u044f \u043e\u0431\u043b\u0430\u0441\u0442\u044c", "region_uk": "\u0412\u0456\u043d\u043d\u0438\u0446\u044c\u043a\u0430 \u043e\u0431\u043b\u0430\u0441\u0442\u044c", "region_en": "Vinnytsia region"}, {"name_ru": "\u0428\u0430\u0445\u0442\u0451\u0440\u0441\u043a", "name_uk": "\u0428\u0430\u0445\u0442\u0430\u0440\u0441\u044c\u043a", "name_en": "Shakhtyorsk", "region_ru": "\u0414\u043e\u043d\u0435\u0446\u043a\u0430\u044f \u043e\u0431\u043b\u0430\u0441\u0442\u044c", "region_uk": "\u0414\u043e\u043d\u0435\u0446\u044c\u043a\u0430 \u043e\u0431\u043b\u0430\u0441\u0442\u044c", "region_en": "Donetsk region"}, {"name_ru": "\u0428\u0435\u043f\u0435\u0442\u043e\u0432\u043a\u0430", "name_uk": "\u0428\u0435\u043f\u0435\u0442\u0456\u0432\u043a\u0430", "name_en": "Shepetovka", "region_ru": "\u0425\u043c\u0435\u043b\u044c\u043d\u0438\u0446\u043a\u0430\u044f \u043e\u0431\u043b\u0430\u0441\u0442\u044c", "region_uk": "\u0425\u043c\u0435\u043b\u044c\u043d\u0438\u0446\u044c\u043a\u0430 \u043e\u0431\u043b\u0430\u0441\u0442\u044c", "region_en": "Khmelnitsky region"}, {"name_ru": "\u0428\u043e\u0441\u0442\u043a\u0430", "name_uk": "\u0428\u043e\u0441\u0442\u043a\u0430", "name_en": "Shostka", "region_ru": "\u0421\u0443\u043c\u0441\u043a\u0430\u044f \u043e\u0431\u043b\u0430\u0441\u0442\u044c", "region_uk": "\u0421\u0443\u043c\u0441\u044c\u043a\u0430 \u043e\u0431\u043b\u0430\u0441\u0442\u044c", "region_en": "Sumy region"}, {"name_ru": "\u0428\u043f\u043e\u043b\u0430", "name_uk": "\u0428\u043f\u043e\u043b\u0430", "name_en": "Shpola", "region_ru": "\u0427\u0435\u0440\u043a\u0430\u0441\u0441\u043a\u0430\u044f \u043e\u0431\u043b\u0430\u0441\u0442\u044c", "region_uk": "\u0427\u0435\u0440\u043a\u0430\u0441\u044c\u043a\u0430 \u043e\u0431\u043b\u0430\u0441\u0442\u044c", "region_en": "Cherkasy region"}, {"name_ru": "\u0428\u0443\u043c\u0441\u043a", "name_uk": "\u0428\u0443\u043c\u0441\u044c\u043a", "name_en": "Shumsk", "region_ru": "\u0422\u0435\u0440\u043d\u043e\u043f\u043e\u043b\u044c\u0441\u043a\u0430\u044f \u043e\u0431\u043b\u0430\u0441\u0442\u044c", "region_uk": "\u0422\u0435\u0440\u043d\u043e\u043f\u0456\u043b\u044c\u0441\u044c\u043a\u0430 \u043e\u0431\u043b\u0430\u0441\u0442\u044c", "region_en": "Ternopil region"}, {"name_ru": "\u0429\u0451\u043b\u043a\u0438\u043d\u043e", "name_uk": "\u0429\u043e\u043b\u043a\u0456\u043d\u0435", "name_en": "Shchelkino", "region_ru": "\u0410\u0432\u0442\u043e\u043d\u043e\u043c\u043d\u0430\u044f \u0420\u0435\u0441\u043f\u0443\u0431\u043b\u0438\u043a\u0430 \u041a\u0440\u044b\u043c", "region_uk": "\u0410\u0432\u0442\u043e\u043d\u043e\u043c\u043d\u0430 \u0420\u0435\u0441\u043f\u0443\u0431\u043b\u0456\u043a\u0430 \u041a\u0440\u0438\u043c", "region_en": "Autonomous Republic of Crimea"}, {"name_ru": "\u042d\u043d\u0435\u0440\u0433\u043e\u0434\u0430\u0440", "name_uk": "\u0415\u043d\u0435\u0440\u0433\u043e\u0434\u0430\u0440", "name_en": "Energodar", "region_ru": "\u0417\u0430\u043f\u043e\u0440\u043e\u0436\u0441\u043a\u0430\u044f \u043e\u0431\u043b\u0430\u0441\u0442\u044c", "region_uk": "\u0417\u0430\u043f\u043e\u0440\u0456\u0437\u044c\u043a\u0430 \u043e\u0431\u043b\u0430\u0441\u0442\u044c", "region_en": "Zaporozhye region"}, {"name_ru": "\u042e\u0436\u043d\u043e\u0435", "name_uk": "\u042e\u0436\u043d\u0435", "name_en": "Southern", "region_ru": "\u041e\u0434\u0435\u0441\u0441\u043a\u0430\u044f \u043e\u0431\u043b\u0430\u0441\u0442\u044c", "region_uk": "\u041e\u0434\u0435\u0441\u044c\u043a\u0430 \u043e\u0431\u043b\u0430\u0441\u0442\u044c", "region_en": "Odessa region"}, {"name_ru": "\u042e\u0436\u043d\u043e\u0443\u043a\u0440\u0430\u0438\u043d\u0441\u043a", "name_uk": "\u042e\u0436\u043d\u043e\u0443\u043a\u0440\u0430\u0457\u043d\u0441\u044c\u043a", "name_en": "Yuzhnoukrainsk", "region_ru": "\u041d\u0438\u043a\u043e\u043b\u0430\u0435\u0432\u0441\u043a\u0430\u044f \u043e\u0431\u043b\u0430\u0441\u0442\u044c", "region_uk": "\u041c\u0438\u043a\u043e\u043b\u0430\u0457\u0432\u0441\u044c\u043a\u0430 \u043e\u0431\u043b\u0430\u0441\u0442\u044c", "region_en": "Nikolaevkskaya area"}, {"name_ru": "\u042f\u0432\u043e\u0440\u043e\u0432", "name_uk": "\u042f\u0432\u043e\u0440\u0456\u0432", "name_en": "Yavorov", "region_ru": "\u041b\u044c\u0432\u043e\u0432\u0441\u043a\u0430\u044f \u043e\u0431\u043b\u0430\u0441\u0442\u044c", "region_uk": "\u041b\u044c\u0432\u0456\u0432\u0441\u044c\u043a\u0430 \u043e\u0431\u043b\u0430\u0441\u0442\u044c", "region_en": "Lviv region"}, {"name_ru": "\u042f\u0433\u043e\u0442\u0438\u043d", "name_uk": "\u042f\u0433\u043e\u0442\u0438\u043d", "name_en": "Yagotin", "region_ru": "\u041a\u0438\u0435\u0432\u0441\u043a\u0430\u044f \u043e\u0431\u043b\u0430\u0441\u0442\u044c", "region_uk": "\u041a\u0438\u0457\u0432\u0441\u044c\u043a\u0430 \u043e\u0431\u043b\u0430\u0441\u0442\u044c", "region_en": "Kyiv region"}, {"name_ru": "\u042f\u043b\u0442\u0430", "name_uk": "\u042f\u043b\u0442\u0430", "name_en": "Yalta", "region_ru": "\u0410\u0432\u0442\u043e\u043d\u043e\u043c\u043d\u0430\u044f \u0420\u0435\u0441\u043f\u0443\u0431\u043b\u0438\u043a\u0430 \u041a\u0440\u044b\u043c", "region_uk": "\u0410\u0432\u0442\u043e\u043d\u043e\u043c\u043d\u0430 \u0420\u0435\u0441\u043f\u0443\u0431\u043b\u0456\u043a\u0430 \u041a\u0440\u0438\u043c", "region_en": "Autonomous Republic of Crimea"}, {"name_ru": "\u042f\u043c\u043f\u043e\u043b\u044c", "name_uk": "\u042f\u043c\u043f\u0456\u043b\u044c", "name_en": "Yampol", "region_ru": "\u0412\u0438\u043d\u043d\u0438\u0446\u043a\u0430\u044f \u043e\u0431\u043b\u0430\u0441\u0442\u044c", "region_uk": "\u0412\u0456\u043d\u043d\u0438\u0446\u044c\u043a\u0430 \u043e\u0431\u043b\u0430\u0441\u0442\u044c", "region_en": "Vinnytsia region"}, {"name_ru": "\u042f\u0440\u0435\u043c\u0447\u0435", "name_uk": "\u042f\u0440\u0435\u043c\u0447\u0435", "name_en": "Yaremche", "region_ru": "\u0418\u0432\u0430\u043d\u043e-\u0424\u0440\u0430\u043d\u043a\u043e\u0432\u0441\u043a\u0430\u044f \u043e\u0431\u043b\u0430\u0441\u0442\u044c", "region_uk": "\u0406\u0432\u0430\u043d\u043e-\u0424\u0440\u0430\u043d\u043a\u0456\u0432\u0441\u044c\u043a\u0430 \u043e\u0431\u043b\u0430\u0441\u0442\u044c", "region_en": "Ivano-Frankivsk region"}, {"name_ru": "\u042f\u0441\u0438\u043d\u043e\u0432\u0430\u0442\u0430\u044f", "name_uk": "\u042f\u0441\u0438\u043d\u0443\u0432\u0430\u0442\u0430", "name_en": "Yasinovataya", "region_ru": "\u0414\u043e\u043d\u0435\u0446\u043a\u0430\u044f \u043e\u0431\u043b\u0430\u0441\u0442\u044c", "region_uk": "\u0414\u043e\u043d\u0435\u0446\u044c\u043a\u0430 \u043e\u0431\u043b\u0430\u0441\u0442\u044c", "region_en": "Donetsk region"}]